{"type": "Feature","bbox": [41.2092,13.1792,41.9951,14.316],"geometry": {"type": "MultiPolygon","coordinates": [[[[41.227,13.7432,754.0945],[41.2227,13.7481,603.439],[41.2202,13.7432,674.7015],[41.2504,13.7127,876.522],[41.2908,13.6623,372.5694],[41.3137,13.6303,512.9886],[41.3785,13.5699,356.3938],[41.4397,13.5195,552.3414],[41.5312,13.4331,595.9506],[41.5781,13.3857,816.9875],[41.6117,13.3475,1120.4536],[41.7373,13.2312,733.1246],[41.783,13.1792,464.9407],[41.805,13.227,542.0175],[41.8091,13.2236,527.1858],[41.8169,13.2663,565.1948],[41.8202,13.2774,552.8585],[41.8305,13.2964,550.0389],[41.8443,13.3163,495.7479],[41.8528,13.3371,468.0596],[41.8531,13.3585,459.0834],[41.8499,13.3815,581.6689],[41.8522,13.3933,560.4993],[41.8668,13.4075,456.702],[41.909,13.4383,354.6729],[41.9218,13.4542,314.9662],[41.9294,13.4696,316.6373],[41.93,13.4939,306.0674],[41.9329,13.511,321.3369],[41.932,13.5217,291.0302],[41.9304,13.5319,337.2349],[41.9183,13.5623,275.5363],[41.917,13.5747,264.5095],[41.9193,13.5844,243.7133],[41.9235,13.588,244.3681],[41.9442,13.5952,214.1255],[41.9504,13.6042,218.0026],[41.9611,13.6425,162.1793],[41.9675,13.6804,123.6411],[41.9758,13.7168,99.1289],[41.9802,13.7472,49.9564],[41.979,13.7771,20.1039],[41.99,13.8229,0.0],[41.9863,13.8235,6.4808],[41.9849,13.8257,0.0],[41.9774,13.8271,0.0],[41.9701,13.836,1.5251999999999999],[41.9712,13.8418,0.0],[41.9699,13.8446,0.7666],[41.9718,13.8476,0.0],[41.9707,13.8524,0.0],[41.9682,13.8529,0.0],[41.9654,13.8507,0.9951],[41.9613,13.8524,0.0],[41.9582,13.8496,2.9883],[41.9579,13.8526,0.0],[41.9521,13.8515,3.6081],[41.9476,13.8532,0.6985],[41.9457,13.8507,0.9113],[41.9418,13.8496,0.0],[41.9404,13.8465,3.6137],[41.939,13.8468,4.2758],[41.9376,13.8488,6.8521],[41.9376,13.8563,1.9765],[41.9337,13.8588,0.0],[41.9307,13.8582,5.9511],[41.9285,13.8607,0.0],[41.9265,13.8593,1.1435],[41.9226,13.8604,1.7088],[41.9224,13.8646,4.1019],[41.9246,13.8685,0.8356],[41.9171,13.8749,0.0],[41.9132,13.8738,0.0],[41.9132,13.8701,10.1936],[41.9085,13.8638,0.0],[41.904,13.8638,0.0],[41.8996,13.8676,0.0],[41.8918,13.8649,0.8814],[41.8882,13.8679,0.8989],[41.884,13.8682,0.0],[41.8815,13.8649,2.7528],[41.8713,13.866,0.0],[41.8657,13.8618,2.2727],[41.8613,13.8632,2.3335],[41.8587,13.8649,2.0999],[41.8585,13.8704,0.0],[41.8543,13.8726,1.0981],[41.8524,13.8804,1.1716],[41.8488,13.8821,1.0594],[41.8488,13.8854,1.1597],[41.8462,13.8893,0.0],[41.8407,13.8882,2.239],[41.8382,13.8904,0.4016],[41.8335,13.8912,1.2304],[41.8343,13.8932,0.0],[41.8315,13.8926,0.3436],[41.8296,13.896,0.0],[41.8293,13.9021,0.0],[41.8204,13.9065,1.1511],[41.8201,13.909,0.5074],[41.8185,13.9096,0.5074],[41.8193,13.9118,0.0],[41.8176,13.9132,1.358],[41.8185,13.9151,0.0],[41.8149,13.9149,2.0074],[41.8143,13.9218,0.0],[41.8129,13.9213,0.0],[41.8124,13.9232,0.0],[41.8099,13.9226,0.0],[41.8082,13.9249,0.0],[41.7971,13.9268,0.0],[41.7924,13.924,0.0],[41.7829,13.924,0.0],[41.7746,13.9163,0.0],[41.7663,13.9151,5.1631],[41.7574,13.9196,0.0],[41.7493,13.9176,0.8456],[41.7457,13.9201,0.4363],[41.7421,13.916,0.0],[41.736,13.914,0.0],[41.7296,13.9151,2.3547],[41.7249,13.9185,0.5539],[41.7226,13.9249,1.5921],[41.7268,13.9285,0.0],[41.7271,13.931,0.0],[41.7215,13.939,0.0],[41.7154,13.9379,0.0],[41.7154,13.9363,1.9903],[41.7137,13.9363,1.9903],[41.7088,13.9396,0.0],[41.7043,13.9335,2.3202],[41.701,13.9329,3.3002],[41.699,13.9343,0.0],[41.6949,13.9313,3.0586],[41.6913,13.9318,3.3888],[41.6829,13.9485,0.0],[41.684,13.9529,0.0],[41.6829,13.9563,0.0],[41.6729,13.9743,0.0],[41.6671,13.994,0.0],[41.6499,14.0163,1.9071],[41.649,14.0271,1.8891],[41.6418,14.0343,0.1862],[41.6435,14.0388,0.0],[41.6354,14.0429,0.0],[41.6315,14.0485,0.27],[41.6243,14.0668,0.6291],[41.6188,14.0713,2.5475],[41.6054,14.0871,0.0],[41.5938,14.0965,1.2549],[41.589,14.1032,0.7248],[41.5838,14.106,2.1685],[41.576,14.1137,0.2798],[41.5682,14.1154,2.4524],[41.5665,14.1185,0.4469],[41.5629,14.1201,3.757],[41.5593,14.1274,0.0],[41.5496,14.1304,1.2227],[41.5474,14.136,0.0],[41.5449,14.1371,0.3196],[41.541,14.1457,0.0],[41.5346,14.1543,0.0],[41.5326,14.1671,0.0],[41.5288,14.1746,0.238],[41.521,14.1835,2.4097],[41.5165,14.1935,0.6527],[41.5124,14.2093,0.0],[41.5046,14.2171,0.0],[41.4974,14.2329,0.0],[41.4776,14.2557,0.0],[41.4712,14.2596,0.8036],[41.4701,14.2626,0.0],[41.4621,14.2665,2.6725],[41.4607,14.2726,0.0],[41.4535,14.2774,0.0],[41.4476,14.2849,0.4583],[41.4426,14.2863,0.7231],[41.4326,14.2965,0.3388],[41.4251,14.2957,5.5941],[41.421,14.2987,4.7479],[41.4176,14.3101,0.0],[41.4185,14.3146,0.0],[41.4152,14.316,0.0],[41.4019,14.297,12.9444],[41.3836,14.2539,59.8834],[41.3544,14.2049,162.8027],[41.3465,14.1891,223.1724],[41.332,14.1489,227.4608],[41.3173,14.1162,307.3553],[41.3077,14.0997,312.9849],[41.2739,14.0541,448.9787],[41.2467,14.0325,814.8752],[41.2374,14.016,792.9797],[41.241,13.9705,772.5232],[41.242,13.9286,601.6396],[41.2408,13.9154,844.9202],[41.2386,13.9004,681.6272],[41.2092,13.8208,695.8104],[41.2097,13.8105,755.3832],[41.2135,13.7995,825.4592],[41.2255,13.777,613.8799],[41.2289,13.7628,617.1345],[41.2304,13.7395,773.3786],[41.227,13.7432,754.0945]]],
[[[41.6543,14.0704,0.0],[41.6518,14.0704,0.0],[41.6526,14.0679,0.0],[41.6549,14.069,0.0],[41.6543,14.0704,0.0]]],
[[[41.6618,14.071,0.0],[41.6613,14.0726,0.0],[41.6593,14.069,0.0],[41.6601,14.0688,0.0],[41.6618,14.071,0.0]]],
[[[41.656,14.0729,0.0],[41.6551,14.0738,0.0],[41.6538,14.0721,0.0],[41.656,14.0715,0.0],[41.656,14.0729,0.0]]],
[[[41.9454,13.8871,0.7341],[41.9446,13.8882,0.7341],[41.941,13.884,0.7227],[41.9368,13.8846,0.0],[41.9315,13.8774,0.0],[41.9324,13.8732,0.0],[41.939,13.8721,3.7978],[41.9404,13.8754,0.0],[41.9432,13.876,0.0],[41.9437,13.8793,0.0],[41.9421,13.8801,0.0],[41.9437,13.8824,30.4048],[41.9476,13.8824,2.1359],[41.9454,13.8871,0.7341]]],
[[[41.9951,13.8946,11.5011],[41.9946,13.8957,0.0],[41.991,13.8951,2.1139],[41.9801,13.8863,2.3899],[41.9776,13.8863,3.2929],[41.9732,13.8818,2.4746],[41.9726,13.879,0.0],[41.9754,13.876,0.0],[41.9804,13.8776,0.0],[41.9846,13.8832,5.5779],[41.989,13.8846,0.0],[41.9901,13.8885,0.0],[41.9932,13.8901,1.7884],[41.9951,13.8946,11.5011]]],
[[[41.8326,13.9388,23.1736],[41.8326,13.9413,5.0851],[41.8299,13.9415,14.8963],[41.8282,13.9371,0.0],[41.8318,13.9368,0.0],[41.8326,13.9388,23.1736]]],
[[[41.6732,14.1076,0.0],[41.6724,14.1085,0.0],[41.6715,14.1062,17.9699],[41.6701,14.1071,0.0],[41.6679,14.1051,0.0],[41.6715,14.104,2.029],[41.6732,14.1076,0.0]]]]}
,"properties": {"GID_2": "ERI.3.2_1","GID_0": "ERI","country": "Eritrea","GID_1": "ERI.3_1","province": "DebubawiKeyihBahri","NL_NAME_1": "ዞባደቡባዊቀይሕባሕሪ","county": "CentralSouthernRedSea","VARNAME_2": "NA","NL_NAME_2": "NA","TYPE_2": "District","ENGTYPE_2": "District","CC_2": "NA","HASC_2": "ER.DK.CS","name": "Central_Southern_Red_Sea.county","area_km2": 5431.194,"hist_schema_id": "Elevation0-9000","hist_area_km2": {"0": 169.846,"25": 322.989,"50": 251.362,"75": 219.159,"100": 205.492,"125": 183.284,"150": 160.06,"175": 154.352,"200": 142.955,"225": 126.802,"250": 129.963,"275": 137.343,"300": 134.139,"325": 147.665,"350": 126.183,"375": 124.045,"400": 123.95,"425": 111.576,"450": 105.912,"475": 111.442,"500": 122.559,"525": 127.162,"550": 140.628,"575": 134.787,"600": 124.595,"625": 167.236,"650": 158.606,"675": 130.475,"700": 109.54,"725": 108.162,"750": 103.902,"775": 93.454,"800": 81.604,"825": 67.111,"850": 57.301,"875": 50.459,"900": 43.885,"925": 39.663,"950": 31.479,"975": 26.305,"1000": 22.884,"1025": 20.701,"1050": 17.259,"1075": 15.012,"1100": 13.013,"1125": 11.673,"1150": 11.405,"1175": 10.704,"1200": 11.2,"1225": 10.684,"1250": 11.695,"1275": 12.273,"1300": 13.283,"1325": 12.83,"1350": 14.296,"1375": 11.449,"1400": 11.201,"1425": 10.107,"1450": 10.251,"1475": 8.395,"1500": 6.415,"1525": 5.631,"1550": 5.569,"1575": 5.198,"1600": 4.332,"1625": 3.816,"1650": 3.589,"1675": 3.651,"1700": 3.692,"1725": 2.95,"1750": 2.764,"1775": 2.743,"1800": 3.197,"1825": 2.785,"1850": 1.794,"1875": 1.052,"1900": 0.866,"1925": 0.701,"1950": 0.619,"1975": 0.536,"2000": 0.413,"2025": 0.33,"2050": 0.268,"2075": 0.062,"2100": 0.248,"2125": 0.144,"2150": 0.062}}}