{"type": "Feature","id": "1564","bbox": [38.21289,14.4163,39.72298,15.17602],"geometry": {"type": "Polygon","coordinates": [[[39.72298,14.50172,1299.7216],[39.72283,14.50198,1299.7216],[39.66769,14.59456,1164.9502],[39.37871,15.07908,1431.2543],[39.35794,15.12592,1772.2712],[39.32626,15.17602,1798.975],[39.31541,15.16321,2019.5856],[39.30735,15.15817,2272.1484],[39.29479,15.15378,2001.3453],[39.2844,15.15577,1821.8804],[38.78815,15.15561,2025.2701],[38.72144,15.16303,2090.657],[38.68945,15.15814,2025.9172],[38.64863,15.1413,1807.343],[38.56223,15.12094,1755.3494],[38.47298,15.11445,1391.915],[38.45841,15.11146,1329.6208],[38.44352,15.10546,1304.9791],[38.42533,15.09443,1100.7476],[38.3872,15.05309,1442.0178],[38.36513,15.0166,1619.8538],[38.35025,14.99803,1725.4916],[38.33676,14.98653,1779.4324],[38.29935,14.97206,1530.907],[38.27718,14.95935,1384.9501],[38.25914,14.94353,1326.5898],[38.24969,14.93038,1191.9908],[38.23542,14.89056,1160.9513],[38.21636,14.85387,1180.9944],[38.21289,14.83597,1212.7222],[38.21475,14.81261,1349.9358],[38.22147,14.78401,1471.4122],[38.25294,14.71644,1174.8918],[38.25775,14.68014,1029.337],[38.24584,14.65247,1155.639],[38.24783,14.64771,1120.0446],[38.25268,14.62022,1095.801],[38.25764,14.61043,1117.91],[38.26715,14.60177,1249.0568],[38.27883,14.59547,1147.7164],[38.28927,14.58774,1105.887],[38.29568,14.57487,1258.3934],[38.30519,14.53692,1349.308],[38.31335,14.51935,1185.3943],[38.32503,14.50459,1142.1711],[38.34064,14.49268,1155.0613],[38.39428,14.46431,1184.2869],[38.40234,14.45687,1221.1448],[38.40906,14.43527,1905.1329],[38.41443,14.4263,1885.4495],[38.42683,14.41718,1397.2913],[38.4352,14.4163,1174.3771],[38.44368,14.41866,1329.54],[38.49298,14.41829,1210.7551],[38.56936,14.42682,1404.2848],[38.60656,14.43648,1273.2006],[38.66847,14.46772,1276.9093],[38.68801,14.4671,1246.355],[38.7062,14.46116,1247.4602],[38.72439,14.4594,1260.9485],[38.74289,14.46106,1271.1187],[38.7619,14.46545,1278.4688],[38.82154,14.48948,1292.2002],[38.86608,14.49366,1329.8281],[38.88458,14.50625,1328.1603],[38.91755,14.5357,1402.5677],[38.9592,14.55464,1455.2711],[38.97967,14.56712,1436.7698],[38.99383,14.58516,1414.0068],[38.99682,14.60358,1469.2522],[38.99527,14.62226,1478.5983],[38.99682,14.6389,1468.3738],[39.00974,14.65123,1454.7423],[39.01119,14.64776,1448.8064],[39.04695,14.64376,1438.1785],[39.07547,14.6374,1448.0491],[39.0855,14.63347,1484.8004],[39.10731,14.62012,1505.9907],[39.12746,14.60221,1511.582],[39.14472,14.58157,1554.0449],[39.15847,14.56015,1603.0042],[39.18751,14.47721,1908.0498],[39.20818,14.44018,1925.2159],[39.23319,14.44044,1723.3173],[39.255,14.47441,1852.4126],[39.26854,14.48643,1698.3286],[39.29345,14.49031,1775.7336],[39.3476,14.4818,2353.468],[39.36662,14.48292,2393.7463],[39.44858,14.50511,2537.166],[39.4894,14.52449,2047.7167],[39.50718,14.54782,2110.7346],[39.51503,14.56782,2422.4822],[39.53229,14.56759,2763.4873],[39.55214,14.55668,2403.0581],[39.56733,14.54431,2092.5305],[39.58769,14.52028,1903.4741],[39.59379,14.51457,1884.0537],[39.59947,14.51165,1918.7992],[39.65094,14.49658,1735.9332],[39.67771,14.49423,1495.6212],[39.72298,14.50172,1299.7216]]]}
,"properties": {"ISO3166-1-Alpha-3": "ERI","country": "Eritrea","fill": "#00F","name": "Maekel","area_km2": 9588.866,"hist_schema_id": "Elevation0-9000","hist_area_km2": {"1025": 0.636,"1050": 11.713,"1075": 27.038,"1100": 35.943,"1125": 49.727,"1150": 55.854,"1175": 73.848,"1200": 91.113,"1225": 88.566,"1250": 96.034,"1275": 108.058,"1300": 116.12,"1325": 121.716,"1350": 121.344,"1375": 124.342,"1400": 129.145,"1425": 143.293,"1450": 178.728,"1475": 236.968,"1500": 314.344,"1525": 319.673,"1550": 302.179,"1575": 293.842,"1600": 290.492,"1625": 273.607,"1650": 264.12,"1675": 248.263,"1700": 240.672,"1725": 230.377,"1750": 235.925,"1775": 230.382,"1800": 255.906,"1825": 252.506,"1850": 248.975,"1875": 278.73,"1900": 298.352,"1925": 315.352,"1950": 307.403,"1975": 260.797,"2000": 237.123,"2025": 201.494,"2050": 176.176,"2075": 146.438,"2100": 122.383,"2125": 125.084,"2150": 109.63,"2175": 103.183,"2200": 93.489,"2225": 80.469,"2250": 72.564,"2275": 66.727,"2300": 65.317,"2325": 74.285,"2350": 86.241,"2375": 88.868,"2400": 74.882,"2425": 71.864,"2450": 42.888,"2475": 38.153,"2500": 35.259,"2525": 33.475,"2550": 33.021,"2575": 27.362,"2600": 21.726,"2625": 17.956,"2650": 17.342,"2675": 13.385,"2700": 10.619,"2725": 8.529,"2750": 4.9,"2775": 3.424,"2800": 2.89,"2825": 2.501,"2850": 2.337,"2875": 1.415,"2900": 1.374,"2925": 0.8,"2950": 0.841,"2975": 0.328}}}