{"type":"Feature","properties":{"GID_1":"ERI.1_1","GID_0":"ERI","country":"Eritrea","province":"Maekel","VARNAME_1":"Central|al-Markaziyah|Maakel|Mae","NL_NAME_1":"ዞባማእከል","TYPE_1":"Zoba","ENGTYPE_1":"Region","CC_1":"NA","HASC_1":"ER.MA","ISO_1":"NA","name":"Maekel.province"},
"geometry":{"type": "MultiPolygon","coordinates": [[[[39.0496,15.2311,1758.0983],[39.0513,15.2343,1802.0906],[39.0502,15.2442,1707.2194],[39.0457,15.2546,1706.8326],[39.0482,15.266,1626.9528],[39.0431,15.2777,1719.1311],[39.0394,15.3043,1705.5298],[39.0293,15.3375,2131.3062],[39.0253,15.344,2078.4841],[39.019,15.3432,2145.7446],[39.0178,15.3444,2140.0723],[39.0172,15.3489,2113.186],[39.021,15.3518,2084.8669],[39.0208,15.3561,1770.8248],[39.0062,15.3717,2008.3066],[38.9972,15.3769,2193.9912],[38.988,15.3739,1781.6089],[38.9841,15.3803,1664.9261],[38.9797,15.4005,1549.9259],[38.981,15.4132,1675.1359],[38.9841,15.4225,1447.7539],[38.9835,15.427,1509.9387],[38.9863,15.4335,1732.8667],[38.9844,15.4411,1738.6871],[38.9855,15.4589,2280.4121],[38.9756,15.4545,2128.3081],[38.9672,15.4561,1819.3936],[38.9631,15.4584,1859.7007],[38.9517,15.4712,2052.8538],[38.9383,15.4769,2208.4348],[38.9307,15.4821,2522.1213],[38.9291,15.4882,2538.9814],[38.9338,15.4953,2424.0283],[38.9275,15.5073,2214.9124],[38.9175,15.5155,2543.3994],[38.9165,15.5213,2552.272],[38.9181,15.5266,2441.6326],[38.9092,15.5422,2507.2434],[38.9062,15.5678,1840.8759],[38.8987,15.5759,2328.2483],[38.8946,15.5773,2384.3674],[38.8887,15.5825,2356.9653],[38.8871,15.5872,2276.4697],[38.8709,15.5695,2383.7124],[38.8668,15.5674,2452.3044],[38.8559,15.5711,2128.3567],[38.8422,15.584,2261.623],[38.8369,15.5854,2393.1235],[38.8342,15.5803,2423.2292],[38.8369,15.5601,2320.282],[38.8337,15.5537,2280.188],[38.8264,15.5477,2274.7854],[38.822,15.5468,2247.519],[38.8135,15.5509,2226.707],[38.8094,15.5488,2166.6392],[38.8038,15.5498,2159.5288],[38.7958,15.5429,2135.7271],[38.7855,15.5453,2125.3545],[38.7816,15.5407,2138.3552],[38.7757,15.5382,2116.5073],[38.775,15.5321,2048.7314],[38.7706,15.5296,1951.5132],[38.7645,15.5227,2182.8174],[38.7582,15.5226,2079.0269],[38.75,15.5279,2036.15],[38.7443,15.526,1924.382],[38.737,15.5287,1896.5255],[38.7346,15.5281,1884.7722],[38.7356,15.5186,1822.5676],[38.7414,15.515,1788.6161],[38.7399,15.5105,1800.4749],[38.7473,15.4981,1850.934],[38.7473,15.4934,1802.6729],[38.7512,15.4924,1870.0116],[38.7519,15.4907,1846.2194],[38.7451,15.4786,1923.3085],[38.752,15.473,1872.121],[38.7565,15.4732,1879.876],[38.7593,15.4716,1910.0797],[38.7615,15.4658,2015.9789],[38.761,15.4587,1913.0914],[38.7555,15.4587,1949.5918],[38.7541,15.4552,2007.2983],[38.7588,15.4476,1937.7122],[38.7615,15.4303,1958.7499],[38.7667,15.4255,1985.339],[38.7688,15.4181,2030.3293],[38.7665,15.4128,1996.557],[38.7605,15.4084,2081.1035],[38.7584,15.3995,2039.1094],[38.7495,15.3934,2072.397],[38.7409,15.3783,2124.3647],[38.7456,15.3671,2174.5635],[38.7434,15.3604,2191.0737],[38.7459,15.3507,2286.5708],[38.744,15.3421,2275.292],[38.7452,15.3305,2221.8752],[38.7502,15.325,2235.0383],[38.7548,15.3164,2268.146],[38.761,15.3128,2257.8481],[38.7628,15.3086,2229.2639],[38.7615,15.3072,2230.55],[38.7554,15.3081,2294.6716],[38.7509,15.3066,2298.1919],[38.7489,15.3075,2250.6074],[38.7465,15.3118,2234.4224],[38.7417,15.3091,2258.4595],[38.7341,15.3111,2281.061],[38.7298,15.314,2257.7822],[38.7277,15.3132,2273.7283],[38.7283,15.3074,2200.4634],[38.7345,15.3023,2190.6392],[38.7303,15.3019,2156.0],[38.7299,15.2934,2165.5059],[38.727,15.2917,2169.4438],[38.7283,15.265,2154.5024],[38.7264,15.2571,2132.0],[38.7209,15.2575,2140.9644],[38.7196,15.2613,2149.2007],[38.7152,15.261,2126.553],[38.7147,15.2645,2118.561],[38.7097,15.2625,2160.9106],[38.7081,15.2664,2144.0032],[38.7045,15.2638,2113.4463],[38.7023,15.2659,2108.7686],[38.6959,15.2655,2093.3181],[38.692,15.2565,2119.3511],[38.6956,15.2465,2135.4036],[38.6952,15.2421,2135.4082],[38.699,15.2267,2226.5891],[38.7082,15.2173,2246.05],[38.7102,15.2097,2290.6709],[38.7135,15.2084,2337.6621],[38.7179,15.2018,2440.5637],[38.746,15.1999,2267.8154],[38.7632,15.1952,2136.5586],[38.7804,15.1973,2082.75],[38.7841,15.201599999999999,2074.2273],[38.785,15.1982,2069.4966],[38.7829,15.1932,2090.4309],[38.7856,15.188,2071.6287],[38.7881,15.1881,2052.7671],[38.7893,15.1911,2052.0278],[38.7968,15.1917,2032.3728],[38.8097,15.1888,2017.6987],[38.8116,15.1817,2030.5598],[38.8212,15.1771,2009.1758],[38.8278,15.177,2061.8691],[38.8444,15.163,2080.1956],[38.8458,15.155,2061.6128],[38.8493,15.1557,2052.895],[38.8532,15.161,2052.6016],[38.8551,15.1605,2036.7865],[38.8563,15.1554,2022.8878],[38.8595,15.1565,2025.8044],[38.8609,15.1541,2027.2747],[38.861,15.145,2005.4447],[38.8651,15.1452,1994.0839],[38.8677,15.1478,2000.0608],[38.8727,15.1477,2021.3848],[38.8743,15.1458,2029.6042],[38.8737,15.1421,1998.187],[38.8771,15.1416,2022.4672],[38.8801,15.1386,2002.1099],[38.8835,15.1437,2024.7566],[38.8883,15.1427,2019.6855],[38.8988,15.137,2026.5607],[38.9026,15.1366,2009.8098],[38.9188,15.1257,1974.7385],[38.9212,15.1271,1988.7212],[38.9223,15.1313,2011.7528],[38.9254,15.1228,2046.8822],[38.9299,15.1299,2018.9879],[38.9324,15.1311,2007.0765],[38.9347,15.1376,2127.2234],[38.9374,15.1382,2097.8281],[38.9394,15.1368,2069.4438],[38.9397,15.1341,2059.7769],[38.935,15.1279,2079.9597],[38.9535,15.1164,2081.4065],[38.9592,15.1156,2034.238],[38.963,15.1183,2098.2832],[38.9669,15.1186,2066.5212],[38.9692,15.1268,2091.3022],[38.9758,15.1235,2096.9221],[38.9782,15.1239,2110.3237],[38.981,15.1361,2167.9714],[38.9794,15.1457,2138.4209],[38.9806,15.1505,2136.5156],[38.9874,15.1504,2174.647],[39.001,15.1409,2185.4922],[39.0059,15.148,2199.105],[39.0075,15.1619,2228.3469],[39.0064,15.1656,2246.6104],[39.0088,15.1729,2226.3506],[39.0082,15.1786,2071.532],[39.0151,15.1763,1910.5546],[39.0199,15.182,1898.1855],[39.0274,15.1825,1859.7407],[39.0349,15.2097,1998.5229],[39.0496,15.2311,1758.0983]]]]}}