{"type": "Feature","bbox": [38.692,15.1154,39.0506,15.3432],"geometry": {"type": "MultiPolygon","coordinates": [[[[39.0506,15.2325,1746.6981],[39.0502,15.2442,1707.2194],[39.0457,15.2546,1706.8326],[39.0482,15.266,1626.9528],[39.0425,15.2799,1758.3333],[39.0394,15.3043,1705.5298],[39.0366,15.3139,1856.0164],[39.031,15.3152,1820.8848],[39.0322,15.3202,1812.618],[39.0289,15.3233,1840.79],[39.0238,15.3253,1859.5647],[39.0196,15.3249,1816.817],[39.0147,15.3275,1884.4128],[39.0037,15.3277,1910.2063],[38.9957,15.3406,2146.7256],[38.9885,15.3432,2077.2344],[38.9847,15.3419,2267.0186],[38.9826,15.3385,2402.7595],[38.9801,15.3405,2358.3762],[38.9743,15.3413,2419.1108],[38.9806,15.3249,2226.5959],[38.9802,15.3186,2282.6006],[38.9678,15.302,2405.6409],[38.9616,15.2752,2253.1042],[38.9563,15.264099999999999,2257.272],[38.9456,15.2569,2332.918],[38.9195,15.2541,2309.6799],[38.896,15.2484,2310.7861],[38.888,15.2544,2293.0911],[38.8745,15.2593,2286.9106],[38.8512,15.2714,2264.3018],[38.8412,15.272,2269.2483],[38.8301,15.2668,2250.0645],[38.8231,15.2667,2202.5146],[38.8139,15.2739,2260.7397],[38.794,15.2758,2270.5562],[38.7856,15.2781,2205.8989],[38.7377,15.3008,2191.6707],[38.7309,15.3021,2169.1475],[38.7292,15.2968,2143.7231],[38.7299,15.2934,2165.5059],[38.7269,15.2908,2169.4438],[38.7283,15.265,2154.5024],[38.7264,15.2571,2132.0],[38.7209,15.2575,2140.9644],[38.7196,15.2613,2149.2007],[38.7152,15.261,2126.553],[38.7147,15.2645,2118.561],[38.7097,15.2625,2160.9106],[38.7081,15.2664,2144.0032],[38.7045,15.2638,2113.4463],[38.7023,15.2659,2108.7686],[38.6959,15.2655,2093.3181],[38.692,15.2565,2119.3511],[38.6956,15.2465,2135.4036],[38.6952,15.2421,2135.4082],[38.699,15.2267,2226.5891],[38.7082,15.2173,2246.05],[38.7102,15.2097,2290.6709],[38.7135,15.2084,2337.6621],[38.7189,15.2013,2440.5637],[38.746,15.1999,2267.8154],[38.7632,15.1952,2136.5586],[38.7804,15.1973,2082.75],[38.7841,15.201599999999999,2074.2273],[38.785,15.1982,2069.4966],[38.7829,15.1932,2090.4309],[38.7856,15.188,2071.6287],[38.7881,15.1881,2052.7671],[38.7893,15.1911,2052.0278],[38.7968,15.1917,2032.3728],[38.8097,15.1888,2017.6987],[38.8116,15.1817,2030.5598],[38.8212,15.1771,2009.1758],[38.8278,15.177,2061.8691],[38.8444,15.163,2080.1956],[38.8458,15.155,2061.6128],[38.8493,15.1557,2052.895],[38.8532,15.161,2052.6016],[38.8551,15.1605,2036.7865],[38.8563,15.1554,2022.8878],[38.8595,15.1565,2025.8044],[38.8609,15.1541,2027.2747],[38.861,15.145,2005.4447],[38.8651,15.1452,1994.0839],[38.8677,15.1478,2000.0608],[38.8727,15.1477,2021.3848],[38.8743,15.1458,2029.6042],[38.8737,15.1421,1998.187],[38.8771,15.1416,2022.4672],[38.8801,15.1386,2002.1099],[38.8835,15.1437,2024.7566],[38.8883,15.1427,2019.6855],[38.8988,15.137,2026.5607],[38.9026,15.1366,2009.8098],[38.9188,15.1257,1974.7385],[38.9212,15.1271,1988.7212],[38.9223,15.1313,2011.7528],[38.9254,15.1228,2046.8822],[38.9299,15.1299,2018.9879],[38.9324,15.1311,2007.0765],[38.9347,15.1376,2127.2234],[38.9374,15.1382,2097.8281],[38.9394,15.1368,2069.4438],[38.9397,15.1341,2059.7769],[38.935,15.1279,2079.9597],[38.9572,15.1154,2033.4714],[38.9669,15.1186,2066.5212],[38.9692,15.1268,2091.3022],[38.9758,15.1235,2096.9221],[38.9782,15.1239,2110.3237],[38.981,15.1361,2167.9714],[38.9794,15.1457,2138.4209],[38.9806,15.1505,2136.5156],[38.9874,15.1504,2174.647],[39.001,15.1409,2185.4922],[39.0059,15.148,2199.105],[39.0075,15.1619,2228.3469],[39.0064,15.1656,2246.6104],[39.0088,15.1729,2226.3506],[39.0082,15.1786,2071.532],[39.0151,15.1763,1910.5546],[39.0199,15.182,1898.1855],[39.0274,15.1825,1859.7407],[39.0349,15.2097,1998.5229],[39.0506,15.2325,1746.6981]]]]}
,"properties": {"GID_2": "ERI.1.3_1","GID_0": "ERI","country": "Eritrea","GID_1": "ERI.1_1","province": "Maekel","NL_NAME_1": "ዞባማእከል","county": "GhalaNefhi","VARNAME_2": "NA","NL_NAME_2": "NA","TYPE_2": "District","ENGTYPE_2": "District","CC_2": "NA","HASC_2": "ER.MA.GN","name": "Ghala_Nefhi.county","area_km2": 478.4153,"hist_schema_id": "Elevation0-9000","hist_area_km2": {"1625": 0.0818,"1650": 0.5113,"1675": 1.5136,"1700": 1.9227,"1725": 3.0067,"1750": 4.1931,"1775": 5.7476,"1800": 7.1588,"1825": 6.1362,"1850": 6.4022,"1875": 5.8704,"1900": 5.4,"1925": 4.684,"1950": 5.1341,"1975": 4.7254,"2000": 7.9181,"2025": 13.3416,"2050": 19.521,"2075": 25.3729,"2100": 26.5379,"2125": 30.2197,"2150": 42.3077,"2175": 53.1494,"2200": 44.7406,"2225": 40.3013,"2250": 38.031,"2275": 33.551,"2300": 21.9712,"2325": 10.5967,"2350": 3.3345,"2375": 1.8822,"2400": 1.0843,"2425": 1.1048,"2450": 0.6751,"2475": 0.2864}}}