{"type":"Feature","properties":{"GID_2":"ERI.4.11_1","GID_0":"ERI","country":"Eritrea","GID_1":"ERI.4_1","province":"GashBarka","NL_NAME_1":"ዞባጋሽባርካ","county":"Omhajer","VARNAME_2":"NA","NL_NAME_2":"NA","TYPE_2":"District","ENGTYPE_2":"District","CC_2":"NA","HASC_2":"ER.GS.OM","name":"Omhajer.county"},
"geometry":{"type": "MultiPolygon","coordinates": [[[[36.9456,15.0308,843.7224],[36.9203,15.0316,732.7151],[36.8935,15.0295,702.9323],[36.7953,15.03,658.967],[36.7736,15.0272,645.73],[36.7563,15.027,643.7571],[36.7044,15.0294,625.5717],[36.6541,15.0276,606.9192],[36.6067,15.0298,584.8358],[36.577,15.0324,578.3593],[36.5001,15.0462,570.5415],[36.4762,15.055,564.6829],[36.4538,15.0657,558.0709],[36.463,14.9918,542.6579],[36.4639,14.9654,550.5176],[36.4682,14.9471,556.7575],[36.472,14.8555,560.8756],[36.4819,14.7933,561.4391],[36.5002,14.6041,584.2533],[36.5033,14.5609,593.3539],[36.5025,14.5471,581.4069],[36.5059,14.5255,586.5386],[36.5054,14.512,600.8009],[36.5108,14.4906,603.6249],[36.5108,14.4607,601.1596],[36.5198,14.4043,587.5989],[36.5198,14.3884,600.0281],[36.5233,14.3702,596.5665],[36.5231,14.3579,594.5306],[36.5269,14.3291,597.6282],[36.5377,14.3041,595.2426],[36.5436,14.2786,585.1794],[36.5483,14.2683,582.1483],[36.5582,14.2629,567.2366],[36.5609,14.2664,558.1432],[36.5527,14.2768,566.6008],[36.5638,14.2828,566.576],[36.5781,14.287,569.946],[36.5842,14.2831,572.632],[36.5996,14.2898,574.0771],[36.6182,14.2929,584.416],[36.6213,14.3062,569.5057],[36.6364,14.3075,575.9701],[36.6784,14.2974,591.3929],[36.6909,14.2963,621.8589],[36.7118,14.3067,592.838],[36.7284,14.3098,597.038],[36.7343,14.3152,593.5909],[36.7526,14.3179,601.2982],[36.7654,14.3156,598.2673],[36.7782,14.3167,604.5078],[36.8082,14.3131,605.6695],[36.8249,14.3137,598.4585],[36.827,14.3089,607.6307],[36.8322,14.3069,609.6893],[36.8407,14.3087,614.3997],[36.8486,14.3163,600.8257],[36.8633,14.3178,613.8707],[36.8782,14.3109,633.8246],[36.8946,14.3108,628.0283],[36.9003,14.3047,621.3086],[36.9148,14.2995,643.2672],[36.9326,14.2957,635.8859],[36.9377,14.2912,623.7643],[36.9437,14.2891,625.5056],[36.9562,14.2904,620.9476],[36.9626,14.2899,631.0562],[36.9692,14.2871,662.7444],[36.9744,14.2802,635.2417],[36.9814,14.2745,633.9152],[36.9864,14.2631,656.3594],[36.9903,14.2598,730.4914],[36.9971,14.2579,658.1676],[37.0081,14.2495,700.2433],[37.0175,14.2506,624.6049],[37.0328,14.2583,642.343],[37.038,14.2642,625.9781],[37.0436,14.2664,637.1587],[37.0498,14.2661,639.0492],[37.057,14.2624,641.9785],[37.0651,14.2619,636.6767],[37.0715,14.2666,633.5587],[37.0893,14.268,639.7154],[37.0938,14.2717,629.0561],[37.096,14.2825,642.8655],[37.1007,14.2859,635.7155],[37.1034,14.2908,648.7809],[37.1028,14.3066,648.0611],[37.1047,14.3208,653.7535],[37.1004,14.3265,663.3436],[37.0996,14.3333,654.2697],[37.1025,14.3434,640.4194],[37.1084,14.3561,647.4569],[37.1135,14.3612,647.5357],[37.1138,14.3672,651.7948],[37.1221,14.3795,643.9452],[37.1259,14.3934,650.9265],[37.1338,14.4054,660.1287],[37.1415,14.4063,672.387],[37.1521,14.4137,672.1439],[37.1599,14.4164,667.969],[37.1475,14.4387,699.1868],[37.1414,14.4459,711.2738],[37.1311,14.4554,825.3989],[37.1227,14.4597,743.5575],[37.1081,14.4719,845.1245],[37.0838,14.4984,818.7793],[37.0698,14.5234,972.6354],[37.0569,14.5545,994.3371],[37.0475,14.5868,1171.5457],[37.0456,14.6188,1154.6306],[37.0422,14.6355,1072.5663],[37.041,14.6843,1353.1067],[37.043,14.7274,1031.84],[37.0406,14.737,1032.0074],[37.0345,14.7496,1107.4623],[37.0346,14.785,1160.3652],[37.0387,14.8206,1086.3159],[37.0398,14.8607,1098.5461],[37.044,14.8791,1142.2249],[37.046,14.9082,1096.0692],[37.0491,14.9172,1069.3302],[37.0562,14.9305,1081.2467],[37.0945,14.9841,903.1417],[37.1138,15.0082,939.4214],[37.1259,15.0186,859.8385],[37.1063,15.0218,797.0546],[37.0876,15.0281,772.2618],[37.0816,15.028,783.075],[37.0552,15.0372,767.6024],[37.0461,15.0375,791.652],[37.0131,15.031,828.2729],[36.9878,15.0323,911.0969],[36.9533,15.0293,796.3268],[36.9456,15.0308,843.7224]]]]}}