{"type":"Feature","properties":{"GID_2":"ERI.1.1_1","GID_0":"ERI","country":"Eritrea","GID_1":"ERI.1_1","province":"Maekel","NL_NAME_1":"ዞባማእከል","county":"AsmaraCity","VARNAME_2":"NA","NL_NAME_2":"NA","TYPE_2":"District","ENGTYPE_2":"District","CC_2":"NA","HASC_2":"NA","name":"Asmara_City.county"},
"geometry":{"type": "MultiPolygon","coordinates": [[[[38.888,15.2544,2293.0911],[38.8938,15.2491,2309.499],[38.8993,15.2485,2303.3],[38.9195,15.2541,2309.6799],[38.9429,15.2562,2327.3867],[38.9512,15.2595,2346.4189],[38.9563,15.264099999999999,2257.272],[38.9611,15.2738,2253.1042],[38.9678,15.302,2405.6409],[38.9802,15.3186,2282.6006],[38.9803,15.3259,2164.4031],[38.9668,15.361,2414.2458],[38.9676,15.3783,2379.3477],[38.9649,15.3895,2036.1089],[38.9552,15.4045,2242.2668],[38.9439,15.4114,2411.4602],[38.9371,15.411,2385.9006],[38.9279,15.4062,2369.6812],[38.9176,15.398,2353.7749],[38.9113,15.3874,2329.9622],[38.9086,15.3605,2327.8391],[38.9066,15.354,2321.793],[38.9079,15.3329,2317.0879],[38.9054,15.3109,2311.7527],[38.8977,15.2899,2317.5725],[38.8894,15.2775,2311.292],[38.8873,15.2717,2301.5068],[38.8862,15.2647,2298.7266],[38.888,15.2544,2293.0911]]]]}}