{"type": "Feature","bbox": [37.4487,15.1762,38.0342,15.4636],"geometry": {"type": "MultiPolygon","coordinates": [[[[37.8561,15.4505,639.5997],[37.8083,15.4318,630.4077],[37.7792,15.4185,641.4957],[37.7597,15.4029,626.8674],[37.7484,15.3982,619.972],[37.7345,15.4006,636.1732],[37.7137,15.4108,675.1204],[37.694,15.4268,611.5322],[37.686,15.4431,594.2585],[37.681,15.4466,590.8438],[37.6709,15.448,591.7791],[37.6398,15.4478,594.2787],[37.6211,15.4524,596.1981],[37.5634,15.4519,628.7025],[37.556,15.4527,724.2478],[37.545,15.4575,642.1564],[37.5273,15.4364,903.7805],[37.5186,15.4203,1193.0525],[37.5062,15.4038,1025.5476],[37.4972,15.3787,1170.4802],[37.4942,15.3492,961.7988],[37.4914,15.3423,1030.7799],[37.4764,15.323,887.6171],[37.4527,15.2719,736.7024],[37.4489,15.2603,722.659],[37.4487,15.2483,854.4261],[37.4548,15.2326,741.22],[37.4584,15.2275,960.048],[37.4678,15.2208,1005.2794],[37.4963,15.205,849.0724],[37.5093,15.1991,922.3528],[37.5342,15.1918,795.7986],[37.5555,15.1884,769.7511],[37.5799,15.1876,936.0911],[37.6742,15.1916,1119.4166],[37.7144,15.1861,1149.4495],[37.7386,15.1872,1199.0671],[37.7496,15.1893,1362.0769],[37.7656,15.195,1389.5892],[37.7761,15.1966,1285.9896],[37.7818,15.2066,1415.6843],[37.8014,15.2227,1068.4641],[37.8131,15.2278,1174.9149],[37.8205,15.2294,914.2374],[37.8282,15.2288,886.3159],[37.8438,15.2215,1073.886],[37.8694,15.22,825.1856],[37.8754,15.2183,900.6063],[37.9241,15.1906,918.9888],[37.9447,15.1841,850.5576],[37.9768,15.1773,935.0214],[38.0091,15.1762,1045.9629],[38.012,15.1848,1038.3926],[38.0269,15.2081,948.067],[38.0333,15.2313,913.6057],[38.0342,15.2414,945.9619],[38.0312,15.2598,950.3292],[38.0228,15.2789,860.7871],[37.998,15.2976,826.8249],[37.9915,15.3076,814.3302],[37.9891,15.3149,783.1619],[37.9878,15.3314,807.6752],[37.9895,15.3413,795.8118],[37.9973,15.3558,800.441],[37.9996,15.3702,784.7982],[37.9964,15.3866,784.7389],[37.9916,15.3976,767.9249],[37.9858,15.4051,768.3129],[37.9779,15.4108,748.9542],[37.975,15.4228,760.7719],[37.9608,15.4329,957.4108],[37.9512,15.4464,841.8456],[37.9351,15.4636,773.2279],[37.8877,15.4583,723.5749],[37.8561,15.4505,639.5997]]]]}
,"properties": {"GID_2": "ERI.4.10_1","GID_0": "ERI","country": "Eritrea","GID_1": "ERI.4_1","province": "GashBarka","NL_NAME_1": "ዞባጋሽባርካ","county": "Mogolo","VARNAME_2": "NA","NL_NAME_2": "NA","TYPE_2": "District","ENGTYPE_2": "District","CC_2": "NA","HASC_2": "ER.GB.MG","name": "Mogolo.county","area_km2": 1519.638,"hist_schema_id": "Elevation0-9000","hist_area_km2": {"600": 45.393,"625": 101.491,"650": 163.238,"675": 171.542,"700": 159.148,"725": 161.573,"750": 146.239,"775": 111.233,"800": 74.611,"825": 60.667,"850": 49.276,"875": 41.484,"900": 38.847,"925": 33.876,"950": 28.455,"975": 23.587,"1000": 19.455,"1025": 15.813,"1050": 13.42,"1075": 9.656,"1100": 8.469,"1125": 6.505,"1150": 5.053,"1175": 4.909,"1200": 3.928,"1225": 2.721,"1250": 2.557,"1275": 1.923,"1300": 1.575,"1325": 2.087,"1350": 2.169,"1375": 2.557,"1400": 1.719,"1425": 1.084,"1450": 1.084,"1475": 1.146,"1500": 0.982,"1525": 0.164}}}