{"type": "Feature","bbox": [38.3333,15.749,38.5079,15.8536],"geometry": {"type": "MultiPolygon","coordinates": [[[[38.4924,15.8397,1309.002],[38.4842,15.8387,1297.7384],[38.451,15.8283,1379.5348],[38.429,15.8265,1624.2528],[38.4167,15.8307,1797.0891],[38.3963,15.8419,1736.2585],[38.379,15.8478,1621.0886],[38.3498,15.8536,1564.2467],[38.3405,15.8523,1453.6892],[38.3333,15.8488,1631.829],[38.3354,15.837,1780.1102],[38.3433,15.8149,1733.449],[38.3469,15.8081,1782.5553],[38.3541,15.7998,1621.1848],[38.3596,15.7954,1658.3378],[38.3766,15.7864,1654.9589],[38.3866,15.7828,1661.41],[38.4054,15.7815,1755.1749],[38.414,15.7775,1490.5632],[38.4238,15.7634,1287.3391],[38.4365,15.7538,1395.5869],[38.4561,15.749,1432.9753],[38.461,15.7491,1436.6166],[38.4882,15.7678,1393.61],[38.5012,15.782,1422.8573],[38.5064,15.7904,1401.23],[38.5079,15.7967,1349.4139],[38.5066,15.8055,1335.1371],[38.4999,15.8227,1424.6906],[38.4923,15.8369,1310.34],[38.4924,15.8397,1309.002]]]]}
,"properties": {"GID_2": "ERI.6.8_1","GID_0": "ERI","country": "Eritrea","GID_1": "ERI.6_1","province": "Anseba","NL_NAME_1": "ዞባዓንሰባ","county": "Keren","VARNAME_2": "NA","NL_NAME_2": "NA","TYPE_2": "District","ENGTYPE_2": "District","CC_2": "NA","HASC_2": "ER.AN.KC","name": "Keren.county","area_km2": 126.03544,"hist_schema_id": "Elevation0-9000","hist_area_km2": {"1275": 0.0816,"1300": 3.28418,"1325": 5.2835,"1350": 7.34439,"1375": 11.22103,"1400": 13.83281,"1425": 10.58894,"1450": 8.87491,"1475": 8.283,"1500": 6.24256,"1525": 4.85526,"1550": 3.89636,"1575": 4.16153,"1600": 3.10075,"1625": 3.50873,"1650": 4.40634,"1675": 4.85515,"1700": 5.30394,"1725": 4.73262,"1750": 3.28417,"1775": 2.10102,"1800": 1.3463,"1825": 1.0811,"1850": 1.16269,"1875": 0.99952,"1900": 0.71394,"1925": 0.71394,"1950": 0.34678,"1975": 0.22438,"2000": 0.16319,"2025": 0.0204,"2050": 0.0204}}}