{"type": "Feature","bbox": [37.6733,14.6673,38.6122,15.2748],"geometry": {"type": "MultiPolygon","coordinates": [[[[38.4733,15.0892,1245.1951],[38.4636,15.095,1188.6005],[38.4427,15.0971,1120.6636],[38.4316,15.1029,1177.726],[38.4272,15.1069,1123.301],[38.4235,15.115,1079.3965],[38.4216,15.133,1347.9563],[38.4055,15.1541,1129.2891],[38.397,15.1679,956.644],[38.3921,15.1728,954.4691],[38.3898,15.1823,957.056],[38.3929,15.187,971.0963],[38.4032,15.1881,986.6577],[38.4182,15.1865,979.5482],[38.4456,15.177,1065.5847],[38.4573,15.1749,1075.8184],[38.4761,15.181,1158.5425],[38.5114,15.1736,1264.8765],[38.5168,15.1752,1221.9926],[38.5259,15.1813,1340.9957],[38.537,15.1789,1330.8754],[38.5426,15.1797,1490.0262],[38.5583,15.194,1426.8245],[38.5688,15.1983,1389.5817],[38.5821,15.1947,1456.9282],[38.6054,15.1804,1626.8131],[38.6122,15.1799,1611.28],[38.6065,15.1887,1606.3196],[38.5938,15.1993,1524.7168],[38.5699,15.2253,1524.3356],[38.5337,15.2565,1223.3677],[38.5259,15.2665,1243.1592],[38.5183,15.2701,1285.9255],[38.5156,15.2748,1255.9443],[38.513,15.2726,1233.8512],[38.4733,15.2672,1026.6332],[38.4692,15.265,1004.9175],[38.4614,15.2555,983.795],[38.4474,15.231,971.0223],[38.4311,15.2229,990.1621],[38.417,15.2182,962.373],[38.4084,15.2174,1041.7651],[38.3677,15.2211,887.3234],[38.3148,15.2177,973.0032],[38.3,15.2212,900.4486],[38.2273,15.2501,911.7922],[38.1995,15.256,1059.7867],[38.178,15.2573,902.0309],[38.1617,15.2521,881.2742],[38.1238,15.2189,983.5062],[38.1049,15.2115,971.6183],[38.0985,15.2001,949.2363],[38.0801,15.1991,1004.7145],[38.0658,15.1956,964.9901],[38.0579,15.1834,1019.3553],[38.0529,15.181,1020.2419],[38.0333,15.1788,1067.198],[38.0263,15.1796,1042.9658],[38.0151,15.1761,1123.2461],[37.9768,15.1773,935.0214],[37.9526,15.1819,927.1339],[37.9241,15.1906,918.9888],[37.8754,15.2183,900.6063],[37.8694,15.22,825.1856],[37.8438,15.2215,1073.886],[37.8282,15.2288,886.3159],[37.8205,15.2294,914.2374],[37.8014,15.2227,1068.4641],[37.7818,15.2066,1415.6843],[37.7761,15.1966,1285.9896],[37.7886,15.1902,1275.2949],[37.7946,15.1825,1346.0825],[37.7949,15.1738,1453.1837],[37.7917,15.1497,1300.7878],[37.7822,15.1288,1306.9349],[37.7871,15.1063,1035.3619],[37.7847,15.1022,1036.8966],[37.7802,15.0991,1012.3603],[37.762,15.0948,1047.7347],[37.7517,15.0901,1061.0825],[37.7453,15.0837,1034.0643],[37.7377,15.0734,989.6014],[37.7284,15.0554,972.8699],[37.6992,15.0221,919.0786],[37.6879,15.0123,901.8851],[37.674,14.9748,885.4105],[37.6733,14.9675,874.2363],[37.6767,14.9567,876.2499],[37.681,14.9551,870.8807],[37.6899,14.9586,871.4582],[37.6963,14.9568,862.1915],[37.6978,14.9514,860.1061],[37.6861,14.9425,868.2852],[37.6859,14.9399,877.6329],[37.6904,14.9362,880.3852],[37.7079,14.9342,864.9686],[37.7319,14.924,882.2358],[37.7485,14.9117,882.9764],[37.7497,14.8611,924.7612],[37.7579,14.8349,1063.2147],[37.7676,14.82,962.5599],[37.7798,14.8077,1034.6104],[37.811,14.7896,1027.549],[37.818,14.7861,1058.0759],[37.8326,14.8052,1070.4543],[37.8495,14.8125,998.2693],[37.8757,14.7999,971.2712],[37.9021,14.81,994.6366],[37.9228,14.8261,1043.0894],[37.9403,14.8455,968.0284],[37.9437,14.8414,1087.3334],[37.9455,14.8347,1015.3762],[37.9504,14.8322,949.1792],[37.9592,14.833,937.8419],[37.971,14.8304,1031.2632],[37.9749,14.818,969.0914],[37.9745,14.8016,935.1033],[37.9879,14.8079,955.2853],[37.9923,14.792,945.989],[37.992,14.7792,996.5586],[37.9942,14.7735,962.9122],[37.9996,14.7754,949.8407],[38.0036,14.7716,956.6915],[38.0048,14.7663,950.5321],[38.0158,14.7652,955.481],[38.0205,14.7608,954.2914],[38.0215,14.755,958.3519],[38.0174,14.7426,957.9732],[38.0183,14.7366,966.6031],[38.0301,14.7279,976.817],[38.0404,14.7166,1003.5232],[38.0535,14.7108,983.1703],[38.0646,14.7113,980.7717],[38.0779,14.7074,998.9698],[38.0915,14.7066,995.853],[38.0954,14.7014,1023.2247],[38.1056,14.6975,1028.0546],[38.1092,14.6901,1069.8271],[38.1201,14.6838,1179.613],[38.1276,14.6819,1070.748],[38.1321,14.6785,1047.5649],[38.1344,14.6725,1109.0544],[38.1393,14.6673,1037.3137],[38.1461,14.6686,1034.6453],[38.1503,14.6748,1003.1261],[38.1562,14.6765,1029.1089],[38.162,14.6759,1072.4891],[38.1738,14.6798,1021.3925],[38.18,14.6766,1040.8823],[38.1836,14.6793,1010.246],[38.1874,14.6892,1039.025],[38.2027,14.6859,1155.0248],[38.21,14.6868,1113.0681],[38.215,14.6828,1087.3429],[38.2282,14.6858,1035.1753],[38.2371,14.6831,1087.2963],[38.2431,14.6779,1048.0999],[38.2493,14.6758,1048.2793],[38.2626,14.6908,1093.6576],[38.2707,14.6933,1070.5684],[38.2908,14.6936,1170.5469],[38.3059,14.6985,1211.4163],[38.3146,14.6995,1133.6971],[38.341,14.6909,1121.1267],[38.3531,14.6927,1155.9163],[38.3642,14.7089,1336.0959],[38.3754,14.7504,1583.97],[38.4089,14.7848,1799.2389],[38.412,14.7986,1830.3239],[38.4128,14.8158,1725.6022],[38.4072,14.8239,1635.4092],[38.3864,14.8327,1577.0546],[38.3673,14.8444,1468.5121],[38.3415,14.8541,1480.5471],[38.3305,14.8655,1344.7324],[38.3147,14.8743,1294.3772],[38.3067,14.8899,1362.3555],[38.3001,14.8965,1254.496],[38.2907,14.899,1274.4066],[38.2698,14.8953,1363.9238],[38.2602,14.8958,1267.9031],[38.228,14.9058,1186.3396],[38.2236,14.9083,1239.1643],[38.2217,14.9123,1242.4918],[38.2271,14.9197,1282.8479],[38.2366,14.9265,1342.4779],[38.2431,14.9375,1327.98],[38.2486,14.9364,1238.9534],[38.2566,14.9318,1271.8051],[38.2692,14.9344,1296.5593],[38.2793,14.9346,1416.0618],[38.2943,14.9304,1296.3602],[38.3116,14.9208,1270.3691],[38.3133,14.9214,1288.3781],[38.3222,14.9335,1375.7522],[38.3539,14.9486,1582.0013],[38.3679,14.9651,1588.6572],[38.3896,14.9707,1567.823],[38.3974,14.9743,1497.4303],[38.4091,14.9896,1583.2358],[38.4143,14.9939,1631.4463],[38.4228,14.9959,1510.5388],[38.4344,14.9958,1535.5654],[38.4561,15.004,1587.7617],[38.462,15.0096,1553.5652],[38.4649,15.0175,1568.6613],[38.4727,15.0627,1191.2405],[38.4733,15.0892,1245.1951]]]]}
,"properties": {"GID_2": "ERI.4.12_1","GID_0": "ERI","country": "Eritrea","GID_1": "ERI.4_1","province": "GashBarka","NL_NAME_1": "ዞባጋሽባርካ","county": "Shemboko","VARNAME_2": "Shambiko","NL_NAME_2": "NA","TYPE_2": "District","ENGTYPE_2": "District","CC_2": "NA","HASC_2": "ER.GS.SK","name": "Shemboko.county","area_km2": 3793.219,"hist_schema_id": "Elevation0-9000","hist_area_km2": {"800": 2.476,"825": 14.587,"850": 32.248,"875": 81.724,"900": 155.323,"925": 225.401,"950": 251.094,"975": 257.216,"1000": 254.905,"1025": 231.523,"1050": 197.165,"1075": 172.817,"1100": 159.733,"1125": 147.619,"1150": 139.438,"1175": 128.444,"1200": 113.742,"1225": 96.968,"1250": 87.343,"1275": 83.331,"1300": 77.823,"1325": 76.207,"1350": 74.936,"1375": 70.1,"1400": 63.73,"1425": 64.347,"1450": 61.601,"1475": 55.681,"1500": 52.648,"1525": 49.576,"1550": 42.182,"1575": 38.844,"1600": 37.186,"1625": 35.464,"1650": 32.864,"1675": 28.602,"1700": 24.973,"1725": 20.691,"1750": 17.987,"1775": 12.538,"1800": 8.953,"1825": 6.618,"1850": 3.564,"1875": 1.803,"1900": 0.778,"1925": 0.389,"1950": 0.041}}}