{"type":"Feature","properties":{"GID_2":"ERI.6.10_1","GID_0":"ERI","country":"Eritrea","GID_1":"ERI.6_1","province":"Anseba","NL_NAME_1":"ዞባዓንሰባ","county":"Sel`a","VARNAME_2":"NA","NL_NAME_2":"NA","TYPE_2":"District","ENGTYPE_2":"District","CC_2":"NA","HASC_2":"ER.AN.SE","name":"Sel`a.county"},
"geometry":{"type": "MultiPolygon","coordinates": [[[[37.9779,16.7305,629.0588],[37.976,16.7509,612.7637],[37.9767,16.758,640.0933],[37.993,16.8038,639.129],[38.013,16.8523,606.3925],[38.0154,16.8799,591.2549],[38.0089,16.898,571.6112],[37.9989,16.9107,553.1683],[37.9863,16.9215,529.4499],[37.9804,16.9303,578.0323],[37.9655,16.9702,523.9474],[37.9654,16.9763,544.1218],[37.9741,17.0139,903.7043],[37.9893,17.0451,979.1572],[38.0032,17.0648,1373.5068],[38.0177,17.0777,983.0416],[38.0291,17.1022,1172.761],[38.0303,17.1081,1256.2534],[38.0287,17.1295,1385.5457],[38.0346,17.1384,1895.7788],[38.038,17.148,1851.7201],[38.0424,17.1824,1946.9912],[38.0473,17.2023,1295.9564],[38.0489,17.2317,2180.2251],[38.0416,17.267,1904.7202],[38.0343,17.2827,2102.853],[38.0263,17.312,2279.9268],[38.0221,17.3597,2423.0479],[38.0172,17.3802,2414.2373],[38.0043,17.4115,1868.1124],[38.0063,17.4261,1325.6724],[38.0211,17.455,2304.7249],[38.0245,17.4673,2326.5217],[38.0191,17.5052,2312.8281],[38.0194,17.5209,2468.7471],[38.0122,17.5536,2578.5293],[38.0067,17.5576,2542.748],[38.0039,17.5571,2389.0042],[37.9725,17.516,1028.953],[37.9687,17.5055,920.3612],[37.977,17.491,829.2577],[37.9753,17.4887,844.9223],[37.9589,17.4761,725.0912],[37.9427,17.4719,663.0715],[37.9177,17.4571,539.4544],[37.9022,17.4565,503.4792],[37.8908,17.4521,473.0297],[37.8703,17.4526,429.0513],[37.8619,17.4616,450.5382],[37.857,17.486,378.9885],[37.8523,17.4924,372.2709],[37.837,17.5,371.1154],[37.826,17.5003,354.4851],[37.7874,17.4961,418.9196],[37.7748,17.4805,529.544],[37.7803,17.4636,437.5582],[37.782,17.4411,537.1844],[37.7729,17.4331,673.5848],[37.7711,17.4204,866.0856],[37.766,17.4042,632.2355],[37.7655,17.384,673.0963],[37.7605,17.3834,613.0517],[37.7492,17.3868,741.6722],[37.7393,17.3806,850.0974],[37.628,17.3766,546.8865],[37.6123,17.3741,925.1397],[37.5153,17.3369,213.3186],[37.5061,17.3153,174.2339],[37.5061,17.3072,186.5651],[37.4924,17.3069,177.4154],[37.4925,17.2968,181.0141],[37.4978,17.2847,193.9032],[37.5162,17.2778,180.476],[37.5211,17.2708,179.1947],[37.5218,17.263,180.8382],[37.5174,17.2588,192.9992],[37.4998,17.2538,199.0784],[37.4954,17.2491,185.4032],[37.498,17.2409,184.5358],[37.495,17.2383,192.7375],[37.4963,17.227,186.1307],[37.4921,17.2198,196.2585],[37.4982,17.2082,195.8756],[37.5081,17.2039,200.7469],[37.5092,17.1998,206.2502],[37.5029,17.1927,204.3238],[37.487,17.1903,198.1739],[37.4763,17.1787,206.4731],[37.4723,17.1674,208.5558],[37.4661,17.1583,214.2357],[37.4681,17.1473,209.2402],[37.4669,17.1447,205.8804],[37.4592,17.1395,205.1893],[37.4543,17.1265,223.4839],[37.4457,17.1176,227.7984],[37.4371,17.1024,222.5743],[37.4213,17.1032,243.3949],[37.4145,17.0993,259.2909],[37.411,17.0857,225.1433],[37.4046,17.0761,251.9993],[37.401,17.0611,246.741],[37.3947,17.0471,244.3292],[37.3828,17.0544,265.5676],[37.3789,17.0548,267.5871],[37.3502,17.0683,289.1208],[37.3318,17.0862,317.6422],[37.3197,17.0925,329.6168],[37.311,17.0944,338.1356],[37.2818,17.083,374.4632],[37.2521,17.0756,413.1289],[37.2201,17.0787,442.26],[37.2102,17.0752,457.1136],[37.1974,17.0634,492.8718],[37.155,17.0606,558.7981],[37.1288,17.0572,617.6112],[37.1237,17.0607,671.583],[37.1186,17.072,685.1757],[37.1112,17.082,685.8792],[37.0998,17.0869,720.7703],[37.0938,17.0879,721.8998],[37.0858,17.0838,766.9949],[37.0803,17.0837,921.321],[37.0697,17.0875,673.8726],[37.0571,17.0876,636.802],[37.0515,17.0895,672.5031],[37.0398,17.0998,739.8953],[37.0311,17.1009,581.8376],[37.0213,17.096,614.051],[37.0125,17.0859,691.0848],[37.002,17.0682,681.5353],[37.0134,17.0556,910.4477],[37.0182,17.0293,767.4933],[37.0174,17.0155,873.0739],[37.0131,17.0074,909.3635],[36.9951,16.9975,846.5016],[36.9854,16.985,1243.1893],[36.983,16.9783,929.5331],[36.9835,16.9691,658.3955],[36.9899,16.9562,873.9656],[37.0041,16.9414,791.4072],[37.0056,16.9325,691.0327],[36.9984,16.9183,665.0495],[36.9985,16.9135,693.0763],[37.0009,16.8995,695.54],[37.011,16.8801,693.7498],[37.0133,16.8663,663.553],[37.0113,16.8541,669.8773],[37.0056,16.8425,686.3799],[37.002,16.8302,704.1771],[37.0056,16.8218,715.9061],[37.0293,16.8011,1379.1909],[37.0301,16.7963,1227.9274],[37.0203,16.7912,833.3641],[37.0105,16.7767,1096.1675],[36.996,16.774,777.7612],[36.9895,16.7674,873.8408],[36.9827,16.7497,871.2974],[36.9835,16.7463,952.078],[36.9924,16.736,1275.271],[36.9928,16.7305,1173.2869],[36.9905,16.7258,1026.549],[36.9558,16.6865,650.8865],[36.9426,16.6806,605.9416],[36.9287,16.6775,637.3365],[36.9011,16.6758,698.22],[36.8941,16.6639,691.0577],[36.8939,16.6556,776.9531],[36.9057,16.6408,606.9302],[36.9062,16.6344,599.4038],[36.9038,16.6106,590.5768],[36.8895,16.5657,592.9944],[36.8874,16.5454,554.7617],[36.8996,16.4964,594.6619],[36.9084,16.4836,570.8348],[36.9183,16.4777,606.0975],[36.9232,16.4714,598.4191],[36.9299,16.4559,700.2098],[36.939,16.4443,630.4034],[36.9626,16.4355,1093.6675],[36.9663,16.4289,1201.9951],[36.9625,16.4213,1133.1213],[36.949,16.366,823.1475],[36.9373,16.359,727.6761],[36.9336,16.3541,739.874],[36.9339,16.3449,769.3095],[36.9475,16.3134,747.3264],[36.9469,16.2923,663.0554],[36.96,16.2912,688.2249],[36.9625,16.2858,761.8488],[36.9613,16.2843,692.3279],[36.9655,16.2758,693.4431],[36.968,16.2634,722.971],[36.9772,16.2576,606.9039],[36.9771,16.2532,607.9373],[36.9825,16.2508,625.2346],[37.0184,16.266,548.6986],[37.0417,16.272,540.4147],[37.0474,16.2708,525.4361],[37.062,16.2755,506.3072],[37.0797,16.2783,482.9271],[37.1426,16.2674,448.2653],[37.1525,16.2593,441.7925],[37.1624,16.2581,431.5941],[37.1679,16.2558,448.8429],[37.1715,16.2524,450.0819],[37.1866,16.2544,424.5402],[37.2081,16.2614,406.4118],[37.2731,16.2893,381.9789],[37.2842,16.2997,382.4383],[37.2866,16.3037,377.1159],[37.2895,16.3212,371.628],[37.2926,16.3267,369.5089],[37.3119,16.3463,366.55],[37.3615,16.4043,341.5869],[37.3742,16.4081,345.2297],[37.3838,16.4057,347.3103],[37.3946,16.3947,360.1993],[37.3987,16.3929,365.1085],[37.4674,16.3732,451.7076],[37.5438,16.3414,577.0295],[37.5493,16.3343,675.8901],[37.5596,16.2973,727.043],[37.5651,16.2857,808.9566],[37.5735,16.2751,773.4973],[37.5875,16.2672,614.713],[37.6397,16.2528,642.1127],[37.6514,16.2512,624.8552],[37.6633,16.2533,608.4402],[37.6859,16.263,634.9078],[37.6995,16.2661,644.0264],[37.7291,16.2694,860.5432],[37.7352,16.2718,669.569],[37.7568,16.2843,1000.913],[37.7819,16.3115,876.9772],[37.8073,16.3333,1010.8416],[37.8199,16.3533,1139.4294],[37.8261,16.3685,1208.8494],[37.8277,16.3789,1416.4124],[37.826,16.4041,1795.1284],[37.8229,16.4145,1695.8672],[37.8223,16.4322,1642.0654],[37.8166,16.4498,1119.0508],[37.8047,16.4632,964.0802],[37.7888,16.4734,861.576],[37.7485,16.5053,783.4869],[37.7467,16.5106,928.6396],[37.769,16.5444,1122.2107],[37.7777,16.5643,1064.4941],[37.7788,16.5785,1350.0354],[37.7719,16.6084,785.4246],[37.772,16.6129,938.0705],[37.7751,16.621,829.905],[37.7856,16.6347,796.9333],[37.811,16.6577,544.2479],[37.8501,16.6843,715.944],[37.8579,16.6929,615.6918],[37.9007,16.7287,732.1369],[37.9128,16.732,614.8463],[37.9355,16.731,627.0195],[37.9456,16.7343,593.2513],[37.9551,16.7351,584.5667],[37.9779,16.7305,629.0588]]]]}}