{"type": "Feature","bbox": [38.5123,15.1799,38.7684,15.6102],"geometry": {"type": "MultiPolygon","coordinates": [[[[38.6964,15.6102,1848.9348],[38.6808,15.6009,1667.8962],[38.6688,15.598,1767.4564],[38.6598,15.598,1729.9707],[38.638,15.6059,1784.2976],[38.6277,15.6081,1957.2537],[38.62,15.6079,2222.8818],[38.612,15.6018,2152.1245],[38.6078,15.5957,1799.6134],[38.6073,15.59,1540.8282],[38.6096,15.5831,1378.4503],[38.6067,15.5742,1500.9973],[38.6026,15.5735,1403.7029],[38.5791,15.581,1459.0592],[38.5714,15.5808,1254.8325],[38.5548,15.5761,1160.7019],[38.5411,15.5696,994.5992],[38.5306,15.5692,963.726],[38.5267,15.5655,947.9611],[38.5229,15.556,928.9004],[38.5185,15.5499,948.067],[38.5123,15.5452,1293.8685],[38.5399,15.5063,1276.2878],[38.5503,15.4855,1621.5198],[38.5655,15.4742,1776.2898],[38.5684,15.4571,1491.4988],[38.5633,15.428,1222.0975],[38.5575,15.3728,1339.8094],[38.5489,15.3342,1205.7271],[38.533,15.297,1120.677],[38.5249,15.2848,1059.421],[38.5156,15.2748,1255.9443],[38.5183,15.2701,1285.9255],[38.5259,15.2665,1243.1592],[38.5337,15.2565,1223.3677],[38.5699,15.2253,1524.3356],[38.5938,15.1993,1524.7168],[38.6065,15.1887,1606.3196],[38.6122,15.1799,1611.28],[38.6195,15.1808,1641.7928],[38.6354,15.1861,1749.0032],[38.6487,15.184,1629.2754],[38.6539,15.1849,1649.7384],[38.6687,15.1955,1960.762],[38.6986,15.2081,2209.55],[38.7072,15.2182,2246.05],[38.699,15.2267,2226.5891],[38.6952,15.2421,2135.4082],[38.6956,15.2465,2135.4036],[38.6919,15.2547,2120.6689],[38.695,15.2644,2106.2188],[38.7009,15.2661,2089.4526],[38.7045,15.2638,2113.4463],[38.7088,15.2662,2144.0032],[38.7097,15.2625,2160.9106],[38.7147,15.2645,2118.561],[38.7152,15.261,2126.553],[38.7196,15.2613,2149.2007],[38.7209,15.2575,2140.9644],[38.7258,15.2566,2142.3003],[38.7283,15.265,2154.5024],[38.727,15.2917,2169.4438],[38.7299,15.2934,2165.5059],[38.7303,15.3019,2156.0],[38.7345,15.3023,2190.6392],[38.7289,15.3064,2194.0449],[38.7272,15.3125,2273.7283],[38.7298,15.314,2257.7822],[38.7341,15.3111,2281.061],[38.7417,15.3091,2258.4595],[38.7465,15.3118,2234.4224],[38.7489,15.3075,2250.6074],[38.7509,15.3066,2298.1919],[38.7554,15.3081,2294.6716],[38.7615,15.3072,2230.55],[38.7628,15.3086,2229.2639],[38.761,15.3128,2257.8481],[38.7548,15.3164,2268.146],[38.7502,15.325,2235.0383],[38.7452,15.3305,2221.8752],[38.744,15.3421,2275.292],[38.7459,15.3507,2286.5708],[38.7434,15.3604,2191.0737],[38.7456,15.3671,2174.5635],[38.7409,15.3783,2124.3647],[38.7495,15.3934,2072.397],[38.7584,15.3995,2039.1094],[38.7612,15.4096,2047.2053],[38.7665,15.4128,1996.557],[38.7684,15.4158,2038.4941],[38.7672,15.4245,1981.5193],[38.7624,15.4288,1958.7499],[38.7606,15.4331,1963.5664],[38.7588,15.4476,1937.7122],[38.7541,15.4552,2007.2983],[38.7555,15.4587,1949.5918],[38.761,15.4587,1913.0914],[38.7618,15.4646,2002.1511],[38.7593,15.4716,1910.0797],[38.7565,15.4732,1879.876],[38.752,15.473,1872.121],[38.7451,15.4786,1923.3085],[38.7519,15.4907,1846.2194],[38.7512,15.4924,1870.0116],[38.7473,15.4934,1802.6729],[38.7473,15.4981,1850.934],[38.7399,15.5105,1800.4749],[38.7414,15.515,1788.6161],[38.7356,15.5186,1822.5676],[38.734,15.5256,1842.1356],[38.7346,15.5281,1884.7722],[38.737,15.5287,1896.5255],[38.727,15.5353,1764.804],[38.7239,15.539,1843.6573],[38.7231,15.5451,1794.0259],[38.7252,15.5717,1908.1851],[38.7227,15.5854,1893.6124],[38.7144,15.5996,1746.0597],[38.7088,15.6048,1776.7394],[38.6964,15.6102,1848.9348]]]]}
,"properties": {"GID_2": "ERI.4.8_1","GID_0": "ERI","country": "Eritrea","GID_1": "ERI.4_1","province": "GashBarka","NL_NAME_1": "ዞባጋሽባርካ","county": "LogoAnseba","VARNAME_2": "NA","NL_NAME_2": "NA","TYPE_2": "District","ENGTYPE_2": "District","CC_2": "NA","HASC_2": "ER.GB.LA","name": "Logo_Anseba.county","area_km2": 891.2952,"hist_schema_id": "Elevation0-9000","hist_area_km2": {"925": 1.4915,"950": 9.5212,"975": 10.053,"1000": 11.1348,"1025": 8.6631,"1050": 8.5406,"1075": 8.6845,"1100": 8.0103,"1125": 6.5806,"1150": 7.133,"1175": 6.6427,"1200": 6.8884,"1225": 7.2766,"1250": 8.4619,"1275": 8.7481,"1300": 7.9312,"1325": 7.7262,"1350": 7.0721,"1375": 6.909,"1400": 7.4817,"1425": 7.8703,"1450": 8.1973,"1475": 8.5247,"1500": 8.7501,"1525": 9.8539,"1550": 8.9752,"1575": 9.8135,"1600": 10.3657,"1625": 11.0198,"1650": 12.4306,"1675": 14.0646,"1700": 17.6195,"1725": 20.0499,"1750": 22.3379,"1775": 26.6083,"1800": 29.0185,"1825": 31.4104,"1850": 29.9807,"1875": 28.4289,"1900": 28.3487,"1925": 29.2293,"1950": 33.2574,"1975": 34.7302,"2000": 33.9561,"2025": 37.3294,"2050": 38.3927,"2075": 36.185,"2100": 36.3099,"2125": 33.4898,"2150": 28.5613,"2175": 22.796,"2200": 12.2451,"2225": 6.3173,"2250": 4.5391,"2275": 2.9652,"2300": 1.1451,"2325": 0.3069,"2350": 0.4296,"2375": 0.225,"2400": 0.1432,"2425": 0.1023,"2450": 0.0205}}}