{"type": "Feature","bbox": [39.3154,15.3785,40.8785,16.6215],"geometry": {"type": "MultiPolygon","coordinates": [[[[40.646,15.3857,0.0],[40.6426,15.3871,0.0],[40.641,15.3843,0.0],[40.6435,15.3824,0.3574],[40.6501,15.3835,1.2985],[40.6568,15.3785,0.0],[40.6568,15.3804,0.0],[40.6504,15.3868,0.8933],[40.646,15.3857,0.0]]],
[[[40.7263,15.4365,0.0],[40.7249,15.4376,0.0],[40.7232,15.4346,0.0],[40.7251,15.4346,0.0],[40.7263,15.4365,0.0]]],
[[[40.7482,15.4938,0.8868],[40.7449,15.4951,1.2777],[40.7379,15.489,0.0],[40.7399,15.4729,0.0],[40.7457,15.4726,0.0],[40.7529,15.4757,0.0],[40.7649,15.486,3.5481],[40.7632,15.4904,0.0],[40.7585,15.4899,4.6709],[40.7532,15.494,0.0],[40.7482,15.4938,0.8868]]],
[[[40.7949,15.4846,0.0],[40.7951,15.4857,0.0],[40.7924,15.4849,0.0],[40.7935,15.484,0.0],[40.7949,15.4846,0.0]]],
[[[40.396,15.4721,0.0109],[40.3926,15.4729,0.2459],[40.3976,15.4701,0.0],[40.3979,15.4715,0.6531],[40.396,15.4721,0.0109]]],
[[[40.3913,15.4721,0.0],[40.391,15.4735,0.0],[40.3887,15.4732,0.0],[40.3887,15.4721,0.0],[40.3913,15.4721,0.0]]],
[[[40.381,15.4732,0.0],[40.379,15.4746,0.0272],[40.3763,15.471,1.5842],[40.3793,15.471,0.8783],[40.381,15.4732,0.0]]],
[[[40.4715,15.4729,0.0],[40.471,15.4749,0.0],[40.469,15.4749,1.3428],[40.471,15.4707,0.0],[40.4715,15.4729,0.0]]],
[[[40.3871,15.4718,0.0],[40.386,15.474,0.0],[40.3835,15.474,0.0],[40.3835,15.4726,0.1674],[40.3871,15.4718,0.0]]],
[[[40.3815,15.4757,0.1038],[40.3793,15.4771,1.8973],[40.376,15.4765,0.0],[40.3793,15.4751,0.0272],[40.3815,15.4757,0.1038]]],
[[[40.3415,15.4793,0.0],[40.3415,15.481,0.0],[40.3357,15.4807,0.0],[40.3371,15.4796,1.0553],[40.3415,15.4793,0.0]]],
[[[40.334,15.5021,0.0689],[40.3312,15.5029,1.5729],[40.3335,15.4971,2.0228],[40.3382,15.4963,0.1557],[40.3385,15.4946,0.6893],[40.3374,15.4943,0.6893],[40.3374,15.4899,3.2664],[40.3338,15.4888,0.0],[40.339,15.4882,0.0],[40.3413,15.486,0.0],[40.346,15.4862,0.0],[40.3499,15.4782,0.0],[40.3568,15.4774,0.0],[40.3585,15.4796,0.1811],[40.3632,15.4804,0.0],[40.3676,15.4774,1.4026],[40.3693,15.4785,0.0],[40.3688,15.4801,0.0],[40.3715,15.4776,0.0],[40.3882,15.4779,0.7572],[40.3801,15.4804,0.502],[40.3826,15.4846,0.0],[40.3732,15.4843,0.0],[40.3729,15.4874,0.0],[40.3671,15.4921,0.0],[40.3557,15.496,0.0],[40.3393,15.4963,0.0701],[40.3382,15.4999,0.0],[40.334,15.5021,0.0689]]],
[[[40.856,15.4926,0.0],[40.8507,15.4938,0.0],[40.8532,15.4885,0.0],[40.856,15.4871,4.1082],[40.861,15.4882,0.0],[40.8607,15.4896,0.0],[40.856,15.4926,0.0]]],
[[[40.8585,15.4954,0.0],[40.859,15.4968,0.0],[40.8565,15.4965,0.0],[40.8551,15.4943,1.1272],[40.8571,15.494,0.0],[40.8585,15.4954,0.0]]],
[[[40.874,15.5071,0.0],[40.8726,15.5099,0.0],[40.8693,15.5079,0.0],[40.8721,15.5068,2.0364],[40.8643,15.5051,5.3103],[40.864,15.5026,3.3895],[40.8688,15.4979,0.0],[40.8735,15.4982,0.0],[40.8785,15.5013,0.0],[40.8779,15.5049,1.6667],[40.8746,15.5051,4.8789],[40.874,15.5071,0.0]]],
[[[40.8043,15.524,0.0],[40.8024,15.5251,0.7999],[40.799,15.5199,2.2886],[40.7915,15.5157,0.0],[40.7793,15.496,0.0],[40.7801,15.4935,0.0],[40.7876,15.4926,2.4329],[40.7879,15.4882,0.0],[40.7926,15.4888,2.3741],[40.8054,15.499,0.0],[40.809,15.4996,0.0],[40.8138,15.5032,0.0],[40.819,15.5035,0.0],[40.8299,15.5074,0.9461],[40.8357,15.5121,0.0],[40.8357,15.5179,0.0],[40.8343,15.5193,0.0],[40.829,15.519,0.0],[40.8157,15.5232,0.0],[40.8096,15.5226,0.8473],[40.8043,15.524,0.0]]],
[[[40.7962,15.584,0.0],[40.7954,15.586,0.0],[40.7938,15.586,0.0],[40.7846,15.581,0.0],[40.779,15.574,0.0],[40.7788,15.5654,0.0],[40.7932,15.5582,0.0],[40.7979,15.5585,0.0],[40.8024,15.561,0.2492],[40.8057,15.561,0.6424],[40.8082,15.559,0.0],[40.8126,15.5596,0.0],[40.8149,15.566,0.0],[40.8124,15.5751,0.0],[40.8096,15.5757,0.0],[40.8018,15.5724,0.0],[40.7921,15.574,1.5927],[40.7921,15.5793,1.4347],[40.7962,15.584,0.0]]],
[[[40.6343,15.6038,0.2181],[40.6329,15.6049,0.2963],[40.631,15.6013,0.0],[40.6351,15.5993,0.0],[40.636,15.5951,0.0],[40.6454,15.5937,0.0],[40.6476,15.5907,0.0],[40.6496,15.5915,0.0],[40.6493,15.5979,0.9334],[40.6437,15.6032,0.2544],[40.6365,15.6024,0.1066],[40.6343,15.6038,0.2181]]],
[[[40.7899,15.6412,0.8828],[40.7835,15.6418,0.7557],[40.7743,15.6346,0.0],[40.7749,15.6321,0.0],[40.7821,15.6279,0.0],[40.7926,15.6279,0.0],[40.7965,15.631,0.5563],[40.7979,15.6351,0.0],[40.7921,15.6371,1.6285],[40.7899,15.6412,0.8828]]],
[[[40.7218,15.6485,1.2772],[40.7212,15.6565,1.4368],[40.7243,15.6615,0.5627],[40.7126,15.6551,0.0],[40.7121,15.6457,0.0],[40.7163,15.6421,2.0228],[40.7174,15.639,0.0],[40.7226,15.6468,0.3823],[40.7218,15.6485,1.2772]]],
[[[40.5124,15.5282,0.6489],[40.5121,15.5329,0.0],[40.506,15.5307,0.722],[40.5099,15.5249,0.0],[40.5115,15.5251,0.0],[40.5124,15.5282,0.6489]]],
[[[40.4663,15.6054,0.8813],[40.464,15.606,0.0],[40.4649,15.5993,0.0],[40.4657,15.5996,0.0],[40.4663,15.6054,0.8813]]],
[[[40.4765,15.7065,1.9684],[40.4757,15.7099,0.9942],[40.4729,15.709,0.4322],[40.4718,15.7012,0.6625],[40.4754,15.7024,0.8109],[40.4765,15.7065,1.9684]]],
[[[40.3949,15.7071,0.0],[40.394,15.7082,0.0],[40.3921,15.7074,0.0],[40.3921,15.7035,0.212],[40.3935,15.7035,0.0],[40.3949,15.7071,0.0]]],
[[[40.6374,15.6724,0.0],[40.6338,15.6735,0.0],[40.6318,15.671,0.0],[40.6343,15.6621,0.0],[40.6368,15.6626,0.2288],[40.6385,15.6721,0.0],[40.6374,15.6724,0.0]]],
[[[40.7771,15.6999,2.2068],[40.7718,15.7001,3.4628],[40.7771,15.6954,0.0],[40.7749,15.6879,0.0],[40.776,15.686,0.5443],[40.779,15.6854,0.0],[40.784,15.694,1.9404],[40.7846,15.7001,1.7523],[40.7771,15.6999,2.2068]]],
[[[40.6557,15.7237,1.6208],[40.6549,15.7251,0.0],[40.6507,15.7251,0.0],[40.6474,15.7218,0.2151],[40.6424,15.7071,0.0],[40.6418,15.7015,0.2229],[40.6446,15.6987,0.0],[40.6474,15.6985,0.0],[40.6512,15.7015,0.9746],[40.6476,15.706,0.9275],[40.6479,15.7099,0.0],[40.6532,15.7174,1.3636],[40.6568,15.7193,0.0],[40.6557,15.7237,1.6208]]],
[[[40.6787,15.7165,1.6845],[40.6751,15.7176,0.5113],[40.6743,15.7151,0.9121],[40.6726,15.7149,0.9121],[40.6735,15.7118,0.0],[40.6774,15.7096,0.0],[40.6807,15.711,0.0],[40.6787,15.7165,1.6845]]],
[[[40.5654,15.726,0.0],[40.5649,15.7293,1.4505],[40.5635,15.7296,1.4505],[40.5593,15.7226,2.9629],[40.5635,15.7218,0.0],[40.5654,15.7232,0.0],[40.5654,15.726,0.0]]],
[[[40.7551,15.7501,2.0453],[40.7499,15.7512,1.2388],[40.7457,15.7468,2.3223],[40.7393,15.7435,1.7606],[40.7329,15.7435,2.4713],[40.7296,15.7474,0.5607],[40.7265,15.7479,1.2131],[40.7226,15.7476,0.0],[40.7224,15.7451,0.0],[40.724,15.741,3.0386],[40.7282,15.739,2.4141],[40.741,15.7432,1.2956],[40.746,15.7429,1.3071],[40.7479,15.7343,0.0],[40.7551,15.7354,0.0],[40.7626,15.7424,1.8425],[40.7699,15.7449,0.7742],[40.7657,15.7388,0.0],[40.7693,15.7374,0.0],[40.7729,15.7449,1.246],[40.7718,15.7493,0.0],[40.7551,15.7501,2.0453]]],
[[[40.6951,15.8213,1.2576],[40.6929,15.8235,1.1206],[40.6851,15.8121,0.0],[40.6849,15.7963,0.0],[40.6876,15.7926,1.138],[40.6907,15.7915,0.0],[40.6935,15.7915,0.0],[40.6949,15.794,2.2981],[40.6951,15.8018,0.0],[40.6913,15.8104,0.0],[40.6926,15.8146,2.1746],[40.696,15.8176,1.073],[40.6951,15.8213,1.2576]]],
[[[40.5646,15.8465,1.2828],[40.5635,15.8476,0.0],[40.561,15.8468,0.0],[40.5568,15.8335,0.0],[40.5582,15.8221,0.3528],[40.5629,15.8207,0.0],[40.5665,15.8229,0.0],[40.566,15.8321,0.0],[40.5635,15.836,0.8463],[40.5646,15.8465,1.2828]]],
[[[39.9882,15.5551,1.8432],[39.9801,15.556,0.0],[39.9815,15.5535,0.5742],[39.9782,15.5507,0.0],[39.9801,15.5493,3.2272],[39.9799,15.5463,0.3394],[39.9846,15.5451,2.7526],[39.9935,15.5387,0.7913],[40.0026,15.524,0.5506],[40.0093,15.5243,1.3753],[40.014,15.5304,0.0],[40.0126,15.5374,0.8379],[39.9949,15.5518,3.3806],[39.9882,15.5551,1.8432]]],
[[[40.0426,15.574,0.5447],[40.0401,15.5751,0.0],[40.0396,15.5749,0.0],[40.044,15.5732,0.6676],[40.0426,15.574,0.5447]]],
[[[40.0271,15.5849,2.8257],[40.0246,15.586,1.0357],[40.0262,15.5829,0.7139],[40.0304,15.5804,0.132],[40.0301,15.5829,2.3161],[40.0271,15.5849,2.8257]]],
[[[40.0293,15.5901,0.0],[40.0293,15.5918,0.7021],[40.0265,15.5913,0.4116],[40.0279,15.5901,0.0],[40.0293,15.5901,0.0]]],
[[[40.0182,15.5932,0.0],[40.0179,15.5949,1.2533],[40.0157,15.5943,0.0],[40.0163,15.5935,0.0],[40.0182,15.5932,0.0]]],
[[[40.0068,15.5988,0.0],[40.0038,15.5999,1.3617],[40.0076,15.596,0.5211],[40.0121,15.5963,0.5211],[40.0121,15.5976,0.0],[40.0068,15.5988,0.0]]],
[[[40.0238,15.6426,0.0],[40.0224,15.6437,0.0],[40.019,15.6437,0.0],[40.0199,15.6421,0.0],[40.0238,15.6426,0.0]]],
[[[39.9437,15.7279,0.2845],[39.9418,15.7299,0.0],[39.9426,15.7271,0.2845],[39.939,15.7288,0.0],[39.9365,15.7268,1.3442],[39.9338,15.7199,7.2492],[39.9335,15.7143,0.0],[39.9276,15.7118,4.7435],[39.9243,15.7065,0.0],[39.924,15.7024,0.3513],[39.9268,15.7018,0.3103],[39.926,15.6976,1.0129],[39.9296,15.6965,2.0865],[39.931,15.6938,0.0],[39.941,15.7029,3.2498],[39.9526,15.7024,0.0],[39.954,15.7051,0.0],[39.9501,15.7107,0.0],[39.9496,15.7174,2.5856],[39.9457,15.7274,0.0],[39.9437,15.7279,0.2845]]],
[[[40.1621,15.5618,0.0],[40.1629,15.5621,0.0],[40.1601,15.5624,0.7038],[40.1604,15.5615,0.0],[40.1621,15.5618,0.0]]],
[[[40.2057,15.7379,0.9411],[40.2054,15.7396,0.2328],[40.1857,15.7388,0.0],[40.1763,15.7304,0.3325],[40.176,15.7293,0.3325],[40.1796,15.7274,1.4829],[40.181,15.7193,2.2414],[40.1793,15.7176,1.5296],[40.1749,15.7212,0.7922],[40.1738,15.7179,0.1542],[40.1774,15.7176,1.3085],[40.1804,15.7124,0.0],[40.1821,15.7124,0.4774],[40.1815,15.7146,0.7937],[40.1832,15.7151,1.8104],[40.1865,15.7107,1.1394],[40.1851,15.7085,1.6366],[40.1815,15.7085,0.6314],[40.1799,15.7038,0.2065],[40.1754,15.7018,0.7414],[40.1749,15.6985,0.7179],[40.1726,15.6962,0.8915],[40.1707,15.696,1.0462],[40.1738,15.6982,1.1201],[40.1724,15.7001,0.5152],[40.1665,15.6965,2.0358],[40.1649,15.694,1.2291],[40.166,15.6913,0.8957],[40.1649,15.6893,0.896],[40.164,15.6946,0.3212],[40.161,15.691,0.3841],[40.1618,15.6888,0.6784],[40.1599,15.6904,0.7987],[40.1607,15.6882,0.6184],[40.1618,15.6879,0.6184],[40.1599,15.6871,0.8066],[40.1585,15.6899,0.7987],[40.1568,15.6865,0.6778],[40.1551,15.6826,0.1884],[40.1549,15.6676,0.5856],[40.1618,15.6607,0.0],[40.1749,15.6599,0.0],[40.1876,15.6654,0.0],[40.2001,15.6685,0.0],[40.2049,15.6732,0.6422],[40.2099,15.6749,0.0],[40.2088,15.6987,0.8663],[40.206,15.7051,0.6707],[40.2137,15.7157,0.8927],[40.2146,15.7204,2.3441],[40.2115,15.731,0.0],[40.209,15.7324,1.7576],[40.2057,15.7379,0.9411]]],
[[[39.9576,15.8862,0.8811],[39.9535,15.8876,0.1634],[39.9543,15.8804,0.0],[39.9679,15.8785,0.0],[39.9726,15.8701,0.0],[39.9826,15.8612,0.0],[39.9935,15.8626,0.5267],[39.9974,15.8607,0.0],[40.0046,15.8651,1.7877],[40.0126,15.8654,0.0],[40.0185,15.8612,0.0541],[40.0171,15.8588,0.0],[40.0179,15.8535,0.291],[40.0143,15.8507,0.2201],[40.0146,15.849,0.6878],[40.0213,15.8471,0.4876],[40.021,15.8499,0.3241],[40.0235,15.8518,0.0],[40.024,15.8551,0.0661],[40.0365,15.8488,0.8059],[40.0421,15.8413,0.9444],[40.0412,15.8365,0.084],[40.0438,15.834,0.3228],[40.044,15.831,0.0308],[40.0435,15.8193,0.3623],[40.0382,15.8149,0.2401],[40.0365,15.8154,0.2401],[40.0357,15.8199,0.043],[40.0285,15.816,0.0],[40.0207,15.821,0.4013],[40.0199,15.8235,0.0],[40.0146,15.8237,0.7686],[40.0107,15.8287,1.5255],[40.0076,15.8296,0.2243],[39.999,15.8182,0.6923],[39.9971,15.8124,3.1269],[39.9943,15.811,1.3621],[39.9938,15.8085,3.4686],[39.9896,15.8085,1.698],[39.9871,15.8032,3.1929],[39.9871,15.7929,4.5924],[39.9924,15.7762,0.3462],[39.9946,15.7762,0.6183],[39.9976,15.7799,0.2364],[39.9987,15.7788,0.2364],[40.0049,15.7804,0.2425],[40.0107,15.7779,0.5995],[40.0101,15.7749,0.0379],[40.0137,15.7749,0.0],[40.0096,15.7685,0.0],[40.0101,15.7657,1.0129],[40.0074,15.7657,0.0],[40.0054,15.7638,0.0],[39.9974,15.7635,0.5956],[39.9918,15.7699,0.2347],[39.9837,15.7674,0.3916],[39.9765,15.7679,1.8412],[39.9718,15.771,0.0],[39.9646,15.7713,0.5404],[39.9629,15.7735,0.0],[39.964,15.7757,0.0],[39.9615,15.7746,0.4552],[39.956,15.7807,0.0],[39.9485,15.7854,1.1348],[39.9362,15.789,0.0],[39.9324,15.7882,0.0],[39.9313,15.7796,0.0],[39.9351,15.7715,0.9763],[39.934,15.769,1.484],[39.9379,15.7665,7.5992],[39.9379,15.7649,2.7545],[39.9365,15.7643,0.9108],[39.9343,15.7676,1.3884],[39.9315,15.7679,0.0],[39.9304,15.766,0.5345],[39.9318,15.7646,0.6105],[39.9274,15.7663,0.0],[39.9226,15.7624,0.0],[39.9251,15.7526,0.0],[39.9271,15.7507,2.2743],[39.9279,15.7424,4.9566],[39.9268,15.7418,1.4248],[39.9276,15.7357,8.9204],[39.9257,15.7329,4.1063],[39.9265,15.7313,5.4278],[39.9226,15.7249,0.0],[39.9271,15.7246,0.0],[39.9287,15.7282,1.0918],[39.9332,15.7293,2.2143],[39.9407,15.7385,0.0],[39.9404,15.7332,0.0],[39.9512,15.7262,0.0],[39.9549,15.719,3.286],[39.9568,15.7179,0.5656],[39.9588,15.7235,0.3429],[39.966,15.7276,3.5671],[39.9674,15.7315,6.0613],[39.9715,15.736,0.5935],[39.9735,15.736,0.0],[39.9715,15.7379,1.32],[39.9776,15.7382,0.0],[39.9768,15.7399,2.3757],[39.9829,15.741,3.5694],[39.9957,15.7385,1.9242],[39.9965,15.7371,1.9242],[40.001,15.7374,6.5975],[40.0029,15.7349,0.0],[40.0082,15.7338,8.8996],[40.0049,15.7318,0.0],[40.0121,15.7293,0.5645],[40.0149,15.7304,0.0],[40.0204,15.7288,7.4724],[40.0251,15.7265,2.9751],[40.0243,15.726,2.9751],[40.0207,15.7276,0.0],[40.0213,15.7251,0.0],[40.0288,15.7232,1.9977],[40.0262,15.7226,1.7923],[40.0288,15.7204,2.9849],[40.0265,15.7193,0.0],[40.0307,15.7176,9.9188],[40.0293,15.7163,0.0],[40.0329,15.7151,3.2556],[40.0368,15.7093,0.5103],[40.044,15.7032,2.3023],[40.0465,15.6929,0.0],[40.0482,15.6915,0.0],[40.0529,15.6918,0.9118],[40.0582,15.6879,4.7603],[40.0601,15.6818,0.0],[40.0621,15.6804,1.4952],[40.0621,15.6768,0.0],[40.0776,15.6676,3.7341],[40.0835,15.6599,0.0],[40.0804,15.6465,2.9479],[40.0724,15.6385,8.9175],[40.0557,15.6351,11.2064],[40.0457,15.6354,10.7195],[40.0374,15.6376,0.8633],[40.0376,15.6346,0.0],[40.0474,15.6299,1.34],[40.0479,15.6268,3.6329],[40.0465,15.6251,4.5227],[40.0357,15.6304,4.814],[40.031,15.6299,1.5187],[40.0243,15.6365,1.0014],[40.0229,15.641,0.0],[40.0185,15.6401,11.2045],[40.0176,15.6426,0.0],[40.016,15.6426,0.0],[40.0101,15.6349,6.4049],[40.0032,15.6307,0.5925],[40.0107,15.6415,0.691],[40.0104,15.6437,0.8778],[40.0082,15.6429,0.0],[40.0035,15.6549,3.4569],[39.9938,15.6604,3.6196],[39.9915,15.6637,1.0441],[39.9888,15.6618,6.8648],[39.9863,15.6637,0.0],[39.9868,15.6496,0.0],[39.9893,15.6424,4.607],[39.9843,15.6424,0.2604],[39.9818,15.6451,0.3565],[39.9793,15.6604,0.0],[39.974,15.661,1.9035],[39.9726,15.6749,1.5196],[39.9701,15.6743,0.0],[39.9554,15.6796,0.9659],[39.9554,15.6807,2.8477],[39.9635,15.6799,0.0],[39.9635,15.6815,0.0],[39.9613,15.6824,0.0],[39.961,15.686,3.6173],[39.9635,15.686,5.3907],[39.9637,15.684,1.4256],[39.9663,15.6826,1.2996],[39.9685,15.6829,2.9475],[39.9688,15.6843,1.5056],[39.9707,15.6838,0.0],[39.9715,15.6854,0.0],[39.9657,15.691,0.0],[39.9579,15.6946,3.5048],[39.9565,15.6987,0.0],[39.9515,15.7001,5.2362],[39.9426,15.699,0.0],[39.9385,15.6957,0.0],[39.9404,15.6954,0.0],[39.9421,15.689,0.0],[39.9485,15.6851,0.4198],[39.9512,15.6768,0.0],[39.9546,15.6726,1.5479],[39.9526,15.6615,0.5304],[39.9554,15.6521,0.3152],[39.9604,15.6493,1.7957],[39.9657,15.6493,2.2929],[39.9688,15.6462,2.6295],[39.9688,15.6379,2.4285],[39.9654,15.6349,1.3917],[39.9651,15.6304,3.1897],[39.9624,15.6288,1.0233],[39.9668,15.6282,2.2601],[39.9668,15.626,2.3574],[39.9637,15.6265,2.4641],[39.9599,15.6238,0.0],[39.9615,15.6235,0.0],[39.9643,15.624,2.2013],[39.9624,15.6193,0.0],[39.9746,15.6176,0.1995],[39.9751,15.6129,0.0],[39.9793,15.6076,0.9904],[39.9882,15.6054,0.7068],[39.9957,15.6007,2.165],[40.0013,15.6015,0.4234],[40.0065,15.6101,0.2218],[40.0113,15.6088,0.2713],[40.0174,15.6093,2.1425],[40.0224,15.6057,4.5788],[40.0343,15.601,2.3908],[40.0365,15.5968,1.2552],[40.0462,15.5879,0.0],[40.0543,15.5874,1.2956],[40.056,15.5857,0.6278],[40.0546,15.579,0.0],[40.056,15.5774,0.4694],[40.061,15.5785,0.0],[40.0618,15.5771,1.0401],[40.0693,15.5768,0.0],[40.0715,15.579,0.2193],[40.0713,15.5821,0.6239],[40.0768,15.5846,0.5496],[40.0932,15.5837,0.7583],[40.0957,15.5807,0.5145],[40.1024,15.5863,0.3631],[40.1076,15.586,0.2843],[40.111,15.589,0.7647],[40.1182,15.591,1.6279],[40.1218,15.5979,0.2491],[40.1215,15.6004,0.0676],[40.1257,15.601,0.5026],[40.1404,15.596,0.8287],[40.1518,15.589,0.8729],[40.1563,15.5885,1.2722],[40.1615,15.5832,0.3578],[40.1799,15.5907,2.6386],[40.1915,15.5885,0.0],[40.2046,15.5932,0.7734],[40.2076,15.5921,2.9697],[40.2204,15.5932,0.4758],[40.2365,15.5882,0.5516],[40.244,15.5887,0.0],[40.2465,15.5857,2.3759],[40.2593,15.5854,0.6199],[40.2701,15.5813,3.8065],[40.2885,15.5665,0.0],[40.3165,15.5615,0.0],[40.3238,15.5624,2.015],[40.3276,15.5674,2.736],[40.3304,15.5668,0.0],[40.3376,15.5699,0.0],[40.3429,15.5696,2.4586],[40.3457,15.5715,4.4621],[40.3624,15.5754,0.0],[40.3946,15.5643,3.1281],[40.409,15.5612,0.0],[40.4162,15.5626,0.0],[40.4188,15.5604,0.0],[40.426,15.5612,0.0],[40.4268,15.5696,0.0],[40.4235,15.5699,0.1973],[40.4226,15.5724,0.728],[40.4251,15.5788,0.0],[40.4174,15.5971,0.0],[40.4176,15.6018,0.0],[40.4201,15.6051,0.0],[40.4201,15.6115,0.0],[40.4188,15.6113,0.0],[40.4157,15.604,0.0],[40.4143,15.6068,0.5394],[40.4157,15.619,0.0],[40.4138,15.6313,0.1653],[40.4076,15.6357,0.0],[40.3879,15.6346,0.0],[40.3874,15.6249,1.3056],[40.3788,15.6215,1.1614],[40.3796,15.624,1.0668],[40.3838,15.626,0.2635],[40.3857,15.629,1.0686],[40.3854,15.6349,0.8636],[40.3868,15.6371,0.0],[40.3826,15.6374,0.0],[40.3704,15.6465,0.0],[40.3712,15.641,0.2673],[40.376,15.6379,0.0],[40.3757,15.6365,0.5142],[40.3696,15.6415,1.0038],[40.3682,15.6449,0.0],[40.3582,15.6507,0.0],[40.3535,15.6504,1.1419],[40.3485,15.6546,0.0],[40.3454,15.6546,0.0],[40.3438,15.6529,1.0118],[40.3424,15.661,0.0793],[40.3368,15.6596,1.4226],[40.336,15.6613,1.1972],[40.334,15.671,1.1724],[40.3379,15.6732,0.0],[40.3357,15.6771,0.0],[40.3326,15.679,0.6472],[40.3293,15.6851,0.0],[40.3157,15.691,0.0],[40.3054,15.6921,0.0],[40.2968,15.6957,0.0],[40.2635,15.6968,1.31],[40.2568,15.6996,0.4],[40.2293,15.6907,0.0],[40.2199,15.6846,0.4893],[40.219,15.6804,0.6889],[40.2124,15.6732,0.2169],[40.216,15.671,0.9648],[40.2396,15.6651,0.2565],[40.2449,15.6671,3.7842],[40.2676,15.6679,0.721],[40.2754,15.6649,0.8664],[40.2813,15.6571,0.8576],[40.2912,15.6571,4.6473],[40.2918,15.6543,1.1697],[40.2935,15.6538,1.1697],[40.2896,15.6493,3.6061],[40.2754,15.6501,0.7281],[40.2682,15.6524,0.1753],[40.2593,15.6504,0.9751],[40.251,15.6412,0.7911],[40.2532,15.6282,1.2575],[40.2482,15.619,0.0],[40.2374,15.6149,0.4727],[40.2299,15.6146,2.1583],[40.2118,15.6185,4.5675],[40.2082,15.6207,0.0],[40.1818,15.6246,2.0841],[40.1668,15.6313,0.4805],[40.1554,15.6437,0.8518],[40.1529,15.6579,0.5095],[40.1485,15.6682,0.334],[40.1493,15.6746,0.6969],[40.1512,15.6776,0.0],[40.1499,15.6835,0.0],[40.1482,15.6885,0.1274],[40.1446,15.691,0.9137],[40.1351,15.7188,1.4723],[40.1354,15.7357,0.0],[40.1429,15.7604,0.4048],[40.141,15.7626,1.1161],[40.1429,15.7657,0.8251],[40.1418,15.7685,1.4325],[40.1382,15.7674,0.0],[40.1407,15.7715,0.638],[40.139,15.7774,0.7508],[40.1463,15.7863,0.0],[40.1474,15.8049,0.8214],[40.1418,15.8074,0.0],[40.1285,15.806,0.0],[40.1251,15.8037,1.944],[40.1151,15.806,0.0],[40.1151,15.8015,0.937],[40.1115,15.7996,0.3433],[40.1104,15.7968,0.3261],[40.109,15.7971,0.3189],[40.1093,15.8004,0.2576],[40.1054,15.8007,0.0],[40.1021,15.7963,0.1091],[40.104,15.7935,0.0],[40.1079,15.7957,0.7777],[40.1099,15.794,0.1366],[40.1168,15.7951,0.4358],[40.1218,15.7888,2.1051],[40.1215,15.7863,0.9893],[40.119,15.786,0.9925],[40.121,15.7799,0.4985],[40.1071,15.7751,0.3506],[40.0979,15.776,0.5417],[40.0904,15.781,0.1253],[40.084,15.7918,0.0],[40.0857,15.796,0.4316],[40.0904,15.799,0.4832],[40.0962,15.8004,0.3468],[40.1004,15.799,0.0],[40.1043,15.8021,0.5755],[40.1054,15.8151,0.1671],[40.0965,15.8357,0.0],[40.0835,15.8468,2.1889],[40.0832,15.8496,0.3721],[40.074,15.8501,1.1597],[40.0438,15.8643,0.0],[40.0315,15.8665,0.8111],[40.0176,15.8813,1.1463],[40.0057,15.8801,1.6456],[39.9965,15.8837,2.5623],[39.9749,15.8835,1.0086],[39.9699,15.8849,0.447],[39.9696,15.8862,0.0],[39.9615,15.8849,1.0459],[39.9576,15.8862,0.8811]]],
[[[40.0876,15.7899,0.0],[40.0882,15.7938,0.0],[40.0868,15.7943,0.3553],[40.0865,15.7904,0.0],[40.0876,15.7899,0.0]]],
[[[40.1085,15.7918,0.0],[40.1079,15.7938,0.1829],[40.1054,15.7915,0.0],[40.1071,15.7913,0.0],[40.1085,15.7918,0.0]]],
[[[40.0965,15.7976,0.4787],[40.0951,15.799,0.0],[40.0879,15.7951,0.3553],[40.0921,15.7935,0.1966],[40.0921,15.7954,0.3554],[40.1007,15.7979,0.0],[40.0965,15.7976,0.4787]]],
[[[40.1096,15.8096,0.4642],[40.1076,15.8118,0.1602],[40.1065,15.8076,0.1695],[40.1076,15.8074,0.1695],[40.1096,15.8096,0.4642]]],
[[[40.1937,15.8468,1.8943],[40.1918,15.8482,0.9035],[40.1862,15.8435,0.0],[40.1876,15.8401,0.0],[40.1901,15.8396,0.0],[40.1937,15.8421,0.3876],[40.1937,15.8468,1.8943]]],
[[[40.3201,15.746,5.2057],[40.3185,15.7485,2.719],[40.3163,15.7443,0.0],[40.3187,15.7443,1.1503],[40.3201,15.746,5.2057]]],
[[[40.5021,15.7601,4.2899],[40.4996,15.7613,1.2129],[40.4957,15.759,0.8015],[40.4899,15.7588,0.8577],[40.4857,15.7562,2.3304],[40.4851,15.7535,0.7562],[40.4918,15.7493,1.3571],[40.499,15.7496,1.3056],[40.5018,15.7512,1.6464],[40.4993,15.7526,4.4753],[40.5051,15.7557,0.0],[40.5021,15.7601,4.2899]]],
[[[40.4538,15.7946,0.4717],[40.4488,15.7957,0.0],[40.4449,15.7918,1.8114],[40.4482,15.7857,2.3665],[40.4546,15.7868,0.4121],[40.4576,15.7851,0.0],[40.4571,15.7913,0.0],[40.4538,15.7946,0.4717]]],
[[[40.3668,15.8257,0.0],[40.364,15.8271,0.0],[40.3618,15.8251,5.1078],[40.3574,15.8168,0.2566],[40.3551,15.8154,0.0],[40.3568,15.8146,0.0],[40.3601,15.8179,1.4255],[40.3582,15.8118,0.262],[40.3646,15.8154,0.0],[40.3737,15.8165,1.1523],[40.3696,15.814,0.0],[40.3785,15.8146,0.0],[40.3743,15.821,0.0],[40.3668,15.8257,0.0]]],
[[[40.2776,15.8276,0.0],[40.276,15.8287,0.0],[40.276,15.8268,0.6308],[40.2626,15.8199,0.6267],[40.2535,15.8185,0.3179],[40.2554,15.8126,0.6267],[40.2599,15.8113,0.7827],[40.2715,15.8132,0.3907],[40.2765,15.8107,0.612],[40.2879,15.8224,0.0],[40.2871,15.8254,1.1508],[40.2813,15.8243,0.8182],[40.2776,15.8276,0.0]]],
[[[40.5062,15.864,0.0],[40.5051,15.8651,0.8619],[40.5018,15.8643,0.0],[40.4946,15.8554,0.0],[40.4924,15.8474,0.0],[40.4943,15.8438,0.7238],[40.501,15.8435,0.0],[40.5085,15.8471,0.0],[40.5118,15.8571,2.3484],[40.5062,15.864,0.0]]],
[[[40.2946,15.8551,0.0],[40.2932,15.8546,0.0],[40.2932,15.854,0.0],[40.2957,15.8549,0.0],[40.2946,15.8551,0.0]]],
[[[40.3726,15.901,0.0],[40.371,15.9021,0.0],[40.3693,15.901,0.0],[40.3693,15.8963,0.0],[40.3646,15.8921,0.9134],[40.3629,15.8879,0.0],[40.3546,15.8851,0.3867],[40.3501,15.8799,0.0],[40.3557,15.8837,0.0],[40.3721,15.8829,0.0],[40.3774,15.8862,0.6382],[40.3788,15.8915,0.0],[40.3726,15.901,0.0]]],
[[[40.599,15.8961,0.325],[40.5954,15.8968,0.402],[40.5887,15.8938,0.0],[40.5868,15.8899,0.0],[40.5871,15.8815,0.3201],[40.5926,15.871,0.3454],[40.6074,15.8732,0.0],[40.6104,15.8765,2.0833],[40.611,15.8807,0.4577],[40.6146,15.8837,0.3285],[40.6132,15.8887,0.2914],[40.599,15.8961,0.325]]],
[[[40.5618,15.9057,0.0],[40.5568,15.9063,0.0],[40.5549,15.9035,0.0],[40.559,15.8963,0.2854],[40.5635,15.9001,0.5034],[40.5618,15.9057,0.0]]],
[[[40.2571,15.9304,1.018],[40.2532,15.9315,1.7116],[40.2504,15.9301,0.0],[40.2399,15.9204,0.0],[40.2463,15.9188,0.4808],[40.2532,15.9199,0.0],[40.2607,15.9257,0.5449],[40.2601,15.9282,0.196],[40.2571,15.9304,1.018]]],
[[[40.2943,16.0032,0.0],[40.2882,16.0043,0.0],[40.2824,16.0024,0.0],[40.2818,15.9996,1.6689],[40.279,15.9976,0.247],[40.2804,15.9921,1.5659],[40.279,15.9824,2.0304],[40.2837,15.9804,0.0],[40.3013,15.9857,1.3544],[40.3015,15.9918,2.7151],[40.2996,15.999,0.0],[40.2943,16.0032,0.0]]],
[[[39.9045,15.7082,5.7598],[39.8988,15.7088,0.5132],[39.9076,15.6982,0.0],[39.9124,15.6962,0.0],[39.9174,15.7021,0.0],[39.9176,15.7046,0.0],[39.9154,15.7071,0.0],[39.9045,15.7082,5.7598]]],
[[[39.8918,15.7154,0.0],[39.894,15.7151,0.0],[39.8949,15.7163,0.0],[39.891,15.7165,0.0],[39.8918,15.7154,0.0]]],
[[[39.9118,15.721,2.3466],[39.9168,15.7235,0.0],[39.9129,15.7221,0.0],[39.9068,15.7226,0.0],[39.9038,15.7207,0.0],[39.8979,15.7212,0.0],[39.8971,15.7201,0.0],[39.8996,15.7193,2.9369],[39.899,15.7157,2.1529],[39.8951,15.7149,0.0],[39.9015,15.7143,4.1155],[39.9004,15.7126,4.7025],[39.8971,15.7129,0.0],[39.8976,15.7115,0.0],[39.9096,15.7101,0.0],[39.9143,15.7132,0.0],[39.9143,15.7138,0.0],[39.9082,15.7132,3.4829],[39.9082,15.7151,0.4617],[39.9121,15.7165,0.0],[39.9082,15.7176,6.5973],[39.9118,15.721,2.3466]]],
[[[39.9238,15.7146,2.0909],[39.9232,15.7129,0.0],[39.9287,15.7163,0.0],[39.9332,15.7221,3.3468],[39.9338,15.726,0.0],[39.9324,15.726,0.0],[39.9301,15.7207,1.0761],[39.9238,15.7146,2.0909]]],
[[[39.7974,15.7818,0.9983],[39.794,15.7829,0.2298],[39.7938,15.7701,0.0],[39.7985,15.7788,0.0],[39.7974,15.7818,0.9983]]],
[[[39.9174,15.8276,0.0],[39.9135,15.8287,1.0507],[39.9132,15.8271,1.0507],[39.904,15.8271,0.0],[39.9024,15.8215,0.0],[39.9057,15.8176,0.0],[39.9121,15.8185,1.7708],[39.9129,15.8163,0.0],[39.9135,15.8207,2.1547],[39.9154,15.8196,0.0],[39.9146,15.824,5.5907],[39.916,15.8232,0.0],[39.9162,15.8251,0.7663],[39.9151,15.8268,0.9375],[39.9171,15.826,0.9375],[39.9174,15.8276,0.0]]],
[[[39.9224,15.834,1.0433],[39.9224,15.8357,0.0],[39.919,15.8363,0.8863],[39.9146,15.8318,0.0],[39.9188,15.8304,0.0],[39.9224,15.834,1.0433]]],
[[[39.8424,15.8554,0.7744],[39.8351,15.8565,0.5719],[39.834,15.851,0.0],[39.8368,15.8474,0.0],[39.8429,15.8463,0.0],[39.8438,15.8538,0.0],[39.8424,15.8554,0.7744]]],
[[[39.7601,15.7857,0.5169],[39.7596,15.7879,0.0],[39.7546,15.7874,0.126],[39.749,15.7849,0.0],[39.7482,15.7829,0.0],[39.7546,15.786,0.6681],[39.7568,15.7851,0.694],[39.756,15.7838,0.0],[39.7601,15.7857,0.5169]]],
[[[39.5804,15.906,0.0],[39.5785,15.9087,0.4403],[39.5754,15.9013,0.0],[39.5796,15.9007,0.7917],[39.5818,15.9024,0.2829],[39.5804,15.906,0.0]]],
[[[39.6471,15.9271,-0.3196],[39.6385,15.9282,0.2531],[39.6326,15.926,-0.2189],[39.6246,15.919,-0.31],[39.6218,15.911,0.8614],[39.6185,15.9068,0.2693],[39.6101,15.9032,0.3711],[39.6087,15.901,0.2551],[39.6138,15.9013,0.3225],[39.6204,15.9051,0.1779],[39.6274,15.9054,0.9738],[39.6315,15.9024,1.3643],[39.6385,15.9007,1.7286],[39.6396,15.8974,0.6546],[39.6435,15.896,0.7229],[39.6421,15.8949,-0.1933],[39.6432,15.8938,-0.1933],[39.6493,15.896,0.8823],[39.6526,15.8938,-0.0677],[39.6657,15.8988,0.2089],[39.666,15.901,0.0955],[39.6632,15.9057,0.0],[39.6526,15.9124,2.9104],[39.6532,15.9215,0.9816],[39.6471,15.9271,-0.3196]]],
[[[39.5418,15.9485,1.1754],[39.5404,15.9501,2.859],[39.5371,15.9501,2.4403],[39.5326,15.9471,1.1802],[39.5321,15.9449,0.0],[39.5379,15.944,1.0028],[39.5424,15.9468,0.0],[39.5418,15.9485,1.1754]]],
[[[39.9404,15.911,0.1536],[39.9349,15.9121,0.0],[39.9271,15.8951,0.0],[39.9443,15.8949,0.0],[39.9401,15.904,0.4061],[39.9415,15.9096,0.9822],[39.9404,15.911,0.1536]]],
[[[39.8787,15.9099,0.7472],[39.8776,15.9121,0.0],[39.8743,15.911,1.796],[39.8729,15.9087,0.0],[39.874,15.904,0.9383],[39.8768,15.9051,0.0],[39.8787,15.9099,0.7472]]],
[[[39.9018,15.9188,0.0],[39.8993,15.9201,0.6605],[39.8974,15.9182,0.1991],[39.896,15.916,0.0],[39.8971,15.9121,1.3956],[39.8996,15.9115,0.0],[39.9015,15.9129,0.0],[39.9026,15.9149,1.3746],[39.9018,15.9188,0.0]]],
[[[39.8732,15.9346,0.8548],[39.8707,15.9354,0.5327],[39.8696,15.9324,0.0],[39.8726,15.9296,0.0],[39.8737,15.9299,0.0],[39.8732,15.9346,0.8548]]],
[[[40.109,15.8724,0.0],[40.1043,15.8729,0.0],[40.1032,15.8582,0.0],[40.1129,15.8568,1.3763],[40.1243,15.8513,0.0],[40.1368,15.849,1.1631],[40.1401,15.8496,0.0],[40.1429,15.8526,1.4616],[40.1437,15.8574,0.2017],[40.1407,15.8629,0.202],[40.1268,15.8699,1.1438],[40.109,15.8724,0.0]]],
[[[40.241,15.8832,0.6011],[40.2418,15.8849,0.1773],[40.2371,15.881,0.0],[40.2382,15.8807,0.0],[40.241,15.8832,0.6011]]],
[[[40.0899,15.8974,2.9152],[40.0874,15.8993,0.0],[40.0849,15.8976,1.1244],[40.0821,15.8887,1.2261],[40.0835,15.8818,0.0],[40.0868,15.8788,0.6545],[40.0885,15.8799,0.0],[40.0901,15.8871,0.0],[40.0899,15.8974,2.9152]]],
[[[40.1929,15.9171,0.0],[40.1888,15.9182,0.6272],[40.1826,15.911,4.1522],[40.1729,15.9068,1.458],[40.1693,15.9007,0.0],[40.1804,15.9051,1.5728],[40.1826,15.9049,1.9739],[40.1862,15.901,0.3892],[40.1896,15.9007,0.4128],[40.1954,15.9087,0.0],[40.196,15.9135,1.473],[40.1929,15.9171,0.0]]],
[[[39.9685,15.7271,0.0],[39.9696,15.7279,0.0],[39.9676,15.7285,0.0],[39.9654,15.7237,0.0],[39.9671,15.724,0.5492],[39.9685,15.7271,0.0]]],
[[[40.0568,15.9588,1.27],[40.0557,15.9621,0.0],[40.0515,15.9615,0.7462],[40.0474,15.9596,0.0],[40.0471,15.9551,2.7931],[40.0393,15.9535,0.7663],[40.0351,15.9585,0.184],[40.0332,15.9588,0.0],[40.0238,15.9479,0.3162],[40.0201,15.9407,0.315],[40.0262,15.9424,1.4956],[40.0262,15.939,2.7414],[40.0346,15.9349,0.185],[40.0465,15.9388,2.0635],[40.0532,15.9376,0.3444],[40.0615,15.944,0.0],[40.0632,15.9482,0.6651],[40.0615,15.954,0.0],[40.0568,15.9588,1.27]]],
[[[39.9488,15.9857,0.2496],[39.946,15.9871,0.0],[39.9437,15.9851,0.0],[39.9415,15.981,0.0],[39.9424,15.9765,0.5556],[39.9396,15.9746,0.0],[39.9404,15.971,1.0149],[39.9393,15.9687,0.0],[39.944,15.969,1.2892],[39.9471,15.9624,0.2549],[39.9499,15.9637,1.2629],[39.9535,15.9726,0.0],[39.9535,15.9774,0.0],[39.9488,15.9857,0.2496]]],
[[[40.051,16.1165,0.0],[40.0474,16.1176,0.0],[40.0429,16.114,0.1077],[40.039,16.1015,0.0],[40.0418,16.0815,0.4069],[40.0449,16.076,0.829],[40.044,16.0618,0.0],[40.0488,16.0671,3.1494],[40.0507,16.0654,0.0],[40.0504,16.0579,0.202],[40.0479,16.0574,0.0],[40.0465,16.0543,0.0],[40.0418,16.0532,1.2051],[40.0093,16.0599,0.3094],[39.9996,16.0601,0.4644],[39.9935,16.0571,0.0],[39.9904,16.0529,0.0],[39.9893,16.0474,1.5647],[39.9907,16.0413,1.29],[39.9888,16.0096,0.7037],[39.9912,16.0054,0.0],[39.9907,16.001,0.0],[39.9943,16.0032,0.8881],[40.0124,16.0026,0.0],[40.0163,16.0063,0.2929],[40.0357,16.0068,0.099],[40.046,16.0115,0.2412],[40.0504,16.0071,0.5646],[40.0537,16.0004,0.0],[40.0585,15.9976,0.491],[40.059,15.994,0.3426],[40.0551,15.9904,0.1539],[40.0554,15.989,0.1539],[40.0635,15.989,0.6791],[40.0732,15.9843,0.1135],[40.0829,15.984,1.0449],[40.0938,15.976,0.5039],[40.1074,15.9757,1.9984],[40.1138,15.9851,0.1029],[40.1199,15.9804,0.0],[40.1199,15.9896,0.0],[40.1135,15.9937,0.3926],[40.1063,15.9954,0.6954],[40.1043,15.999,0.1035],[40.0996,16.0004,0.4965],[40.0962,16.0093,0.0],[40.0926,16.0124,0.0],[40.079,16.0218,0.21],[40.0771,16.0215,0.0866],[40.0788,16.0157,0.1627],[40.0762,16.0146,0.1252],[40.0749,16.0174,0.8163],[40.0743,16.0338,0.5302],[40.0779,16.0415,0.0],[40.0849,16.0485,0.0],[40.0996,16.0535,0.1594],[40.1118,16.051,0.0844],[40.1201,16.0549,0.0],[40.1249,16.0663,0.5758],[40.1224,16.0729,0.1695],[40.1171,16.0774,0.0],[40.1132,16.0765,0.472],[40.1079,16.0796,0.2743],[40.0949,16.0826,1.009],[40.0851,16.0868,1.3378],[40.0815,16.0865,0.0],[40.0846,16.0821,1.3006],[40.0846,16.0804,0.4369],[40.0818,16.0801,1.8926],[40.0793,16.0835,2.9917],[40.0732,16.0868,5.6703],[40.0651,16.0957,4.0609],[40.0651,16.0985,2.0021],[40.0701,16.1024,0.0],[40.0674,16.1046,0.0],[40.0646,16.1015,0.2954],[40.0604,16.101,1.0378],[40.051,16.1165,0.0]]],
[[[40.1446,15.9618,1.0659],[40.1426,15.9635,0.2168],[40.1407,15.9599,0.0],[40.1429,15.9585,0.0],[40.144,15.9563,0.3357],[40.1432,15.9524,0.0],[40.1479,15.946,1.6531],[40.1532,15.9435,0.0],[40.1599,15.9371,0.5284],[40.1676,15.9338,0.6086],[40.1679,15.9404,2.2628],[40.1649,15.951,0.0],[40.1621,15.9521,0.0],[40.159,15.9563,0.5125],[40.1543,15.9582,0.5397],[40.1468,15.9585,0.9791],[40.1446,15.9618,1.0659]]],
[[[40.2126,15.9829,0.5391],[40.2115,15.9846,0.0],[40.2085,15.9846,0.0],[40.1965,15.9799,0.0],[40.2032,15.9785,0.0],[40.2126,15.9829,0.5391]]],
[[[40.1671,16.0615,0.1114],[40.1576,16.0624,0.0],[40.1476,16.061,0.0],[40.1465,16.0549,0.2485],[40.1432,16.0524,0.0774],[40.1404,16.0537,0.4665],[40.1379,16.0596,0.0],[40.1349,16.0593,0.0],[40.1351,16.0568,0.0],[40.131,16.0524,0.0],[40.131,16.0488,0.0],[40.1343,16.0457,0.0],[40.134,16.0435,0.4524],[40.1329,16.0449,0.1018],[40.1307,16.044,0.0],[40.1312,16.0415,0.1764],[40.1446,16.0335,0.0],[40.1554,16.0301,0.1299],[40.1632,16.0193,0.12],[40.169,16.0193,0.1358],[40.1871,16.0313,0.1439],[40.1907,16.0346,0.3023],[40.1935,16.0426,0.0],[40.1929,16.0457,0.0],[40.1826,16.0462,0.0975],[40.1785,16.0507,0.0],[40.1771,16.0554,0.1305],[40.1732,16.0565,0.2275],[40.1671,16.0615,0.1114]]],
[[[40.1718,16.194,0.0],[40.1665,16.1951,0.0],[40.1643,16.1929,0.0],[40.161,16.1751,0.7167],[40.1582,16.1735,0.4619],[40.1582,16.1604,0.0],[40.1618,16.1557,0.0],[40.159,16.146,0.0],[40.1532,16.1382,1.0518],[40.1396,16.1324,0.742],[40.1307,16.1335,0.4149],[40.1251,16.1268,0.4907],[40.124,16.1213,0.0],[40.1263,16.1162,0.0],[40.1265,16.0999,0.0],[40.1288,16.0921,0.2887],[40.1354,16.0893,0.4578],[40.1343,16.0879,0.0],[40.1354,16.0871,0.2731],[40.1538,16.0879,0.0],[40.1585,16.0926,0.0],[40.1574,16.0957,0.5762],[40.1593,16.0979,0.6288],[40.1662,16.0979,0.0],[40.1662,16.1037,0.0],[40.1643,16.109,0.0],[40.1671,16.1151,0.0],[40.1665,16.1235,0.0],[40.1626,16.1276,0.0],[40.1582,16.129,0.045],[40.1574,16.1335,0.6333],[40.1599,16.144,0.5605],[40.1646,16.154,0.2469],[40.1679,16.156,0.4748],[40.1715,16.1529,0.1433],[40.1813,16.1521,1.5422],[40.1957,16.1576,0.9447],[40.2021,16.1576,0.0],[40.2007,16.1665,0.5407],[40.1957,16.1732,1.308],[40.186,16.181,1.2757],[40.1765,16.1926,0.0],[40.1718,16.194,0.0]]],
[[[39.9765,16.0504,2.8964],[39.9779,16.061,0.0],[39.9732,16.0557,0.1318],[39.9707,16.0485,4.1749],[39.974,16.0388,0.1649],[39.9782,16.0432,0.5435],[39.976,16.0476,1.6501],[39.9765,16.0504,2.8964]]],
[[[39.9876,16.0999,0.0],[39.9846,16.1013,0.0],[39.9818,16.0996,0.2198],[39.9804,16.0957,0.0],[39.9813,16.0893,0.0878],[39.9879,16.0896,0.0],[39.9893,16.0943,0.0],[39.9876,16.0999,0.0]]],
[[[39.9718,16.1529,0.0],[39.9668,16.1535,0.6246],[39.9613,16.146,0.4613],[39.9626,16.1385,0.1097],[39.9685,16.1354,0.0],[39.9724,16.1363,0.0298],[39.9751,16.1418,0.0],[39.9749,16.1496,0.0],[39.9718,16.1529,0.0]]],
[[[40.0396,16.1718,0.2818],[40.0396,16.1746,0.4093],[40.036,16.1732,0.0],[40.0329,16.1685,1.1237],[40.0254,16.1649,0.2366],[40.0257,16.1618,0.0],[40.0274,16.1607,0.1111],[40.0335,16.1646,0.0],[40.0396,16.1718,0.2818]]],
[[[39.6046,15.9599,0.8845],[39.5951,15.9604,0.4617],[39.5951,15.9518,0.0],[39.5962,15.9496,0.2935],[39.5999,15.9482,-0.1202],[39.6004,15.9432,-0.1554],[39.6018,15.9457,0.6014],[39.6046,15.9463,0.5026],[39.6074,15.9429,0.6329],[39.6074,15.9404,0.0],[39.6115,15.9371,-0.3434],[39.6087,15.9432,0.8958],[39.6104,15.9513,2.3388],[39.606,15.956,4.4841],[39.6063,15.9585,3.6901],[39.6046,15.9599,0.8845]]],
[[[39.6768,16.0151,0.0],[39.6768,16.0168,0.0],[39.6746,16.0154,-0.0234],[39.6751,16.0149,-0.0234],[39.6768,16.0151,0.0]]],
[[[39.666,16.0199,0.4863],[39.6654,16.0224,0.0],[39.6613,16.0165,0.0995],[39.6635,16.0163,0.0],[39.666,16.0199,0.4863]]],
[[[39.4435,16.0321,3.4118],[39.4454,16.0332,0.0],[39.4454,16.0351,0.0],[39.4382,16.0332,2.1491],[39.441,16.0313,1.2944],[39.4435,16.0321,3.4118]]],
[[[39.8399,15.9996,0.0],[39.839,16.0021,0.0],[39.8324,16.0007,0.0],[39.8299,15.9946,2.4948],[39.8315,15.9899,0.0],[39.8351,15.991,0.0],[39.8399,15.9996,0.0]]],
[[[39.926,16.0026,0.0],[39.9243,16.0071,0.0],[39.9215,15.9988,3.3372],[39.9271,15.9976,0.0],[39.926,16.0026,0.0]]],
[[[39.8479,16.0029,0.0],[39.8488,16.0063,0.0],[39.8468,16.0046,0.0],[39.8465,16.0015,0.0],[39.8479,16.0029,0.0]]],
[[[39.861,16.0165,0.3783],[39.8615,16.0199,0.4711],[39.8601,16.0201,0.4711],[39.8571,16.0168,1.8179],[39.8563,16.0129,0.2243],[39.8596,16.014,0.0],[39.861,16.0165,0.3783]]],
[[[39.7693,16.0479,0.0],[39.766,16.0488,0.0],[39.7646,16.0454,0.5057],[39.7679,16.0446,0.0],[39.7693,16.0479,0.0]]],
[[[39.6126,16.0746,0.0],[39.611,16.0768,0.0],[39.6104,16.0721,0.0],[39.6121,16.0699,0.0],[39.6132,16.0724,0.0],[39.6126,16.0746,0.0]]],
[[[39.5993,16.0951,0.0],[39.5988,16.0979,0.0],[39.5968,16.096,0.7319],[39.5982,16.0921,0.0],[39.599,16.0929,0.0],[39.5993,16.0951,0.0]]],
[[[39.4329,16.1562,0.1358],[39.4313,16.1574,0.0],[39.4307,16.154,1.299],[39.4313,16.151,0.9224],[39.434,16.1482,4.5124],[39.4318,16.1426,1.6718],[39.4368,16.1338,2.5902],[39.4415,16.1296,0.3353],[39.4451,16.1193,0.9633],[39.4526,16.1087,0.7889],[39.4557,16.1071,1.1795],[39.4599,16.1087,0.256],[39.4585,16.1132,1.3487],[39.456,16.1135,1.2313],[39.4557,16.1154,0.6366],[39.4632,16.1101,1.7684],[39.4665,16.106,0.851],[39.4665,16.1018,1.2056],[39.4685,16.101,1.2056],[39.471,16.0943,1.0816],[39.4707,16.0938,1.0816],[39.4682,16.0951,1.0012],[39.4665,16.0999,0.1808],[39.464,16.101,0.0],[39.466,16.0987,1.6331],[39.4651,16.0879,0.6493],[39.4712,16.0776,2.6393],[39.4754,16.0562,1.8466],[39.4682,16.0443,0.1819],[39.464,16.0418,1.3846],[39.4582,16.0418,0.9441],[39.4557,16.0401,0.2934],[39.4562,16.0388,1.9818],[39.4671,16.0362,0.0931],[39.4746,16.041,0.6993],[39.4774,16.0507,0.8486],[39.4846,16.0582,0.0],[39.4868,16.0713,1.2838],[39.4857,16.0801,0.0],[39.4793,16.0935,0.0],[39.4674,16.1121,0.0],[39.4613,16.1349,0.0],[39.4549,16.1429,0.0],[39.4562,16.1471,0.0],[39.4532,16.1507,0.0],[39.4521,16.1493,0.0],[39.4488,16.1513,0.0],[39.4415,16.1515,1.2295],[39.4329,16.1562,0.1358]]],
[[[39.896,16.0596,0.0],[39.894,16.0615,0.1795],[39.8907,16.0607,0.3672],[39.8876,16.0557,0.3821],[39.8865,16.0482,0.0],[39.8949,16.056,0.0],[39.896,16.0596,0.0]]],
[[[39.859,16.1382,0.0],[39.856,16.1393,0.0],[39.8535,16.1354,1.0631],[39.8532,16.1299,0.0],[39.8549,16.1268,-0.0233],[39.859,16.1315,0.0],[39.859,16.1382,0.0]]],
[[[39.776,16.2115,0.0386],[39.7743,16.2129,0.0],[39.7735,16.2112,0.0234],[39.7746,16.2082,0.0561],[39.7765,16.2085,0.0147],[39.776,16.2115,0.0386]]],
[[[39.8213,16.3057,0.0],[39.8218,16.3074,0.0],[39.8193,16.3068,0.0],[39.8199,16.3054,0.0],[39.8213,16.3057,0.0]]],
[[[39.9801,16.1815,0.0927],[39.9796,16.1846,0.0],[39.9757,16.1851,0.397],[39.9688,16.1837,0.7804],[39.966,16.1804,0.0],[39.9688,16.1665,1.4952],[39.9721,16.1643,1.4898],[39.9735,16.1612,0.0],[39.9776,16.164,0.5332],[39.9807,16.1696,0.0779],[39.9815,16.1804,0.0],[39.9801,16.1815,0.0927]]],
[[[39.9413,16.1765,0.2123],[39.9365,16.1776,0.0],[39.9346,16.176,0.3007],[39.9393,16.1712,0.0],[39.9413,16.1712,0.0241],[39.9426,16.1746,0.1358],[39.9413,16.1765,0.2123]]],
[[[40.0835,16.2026,0.9438],[40.0815,16.204,0.0],[40.0765,16.2035,1.1951],[40.0718,16.1976,0.0],[40.0707,16.1896,0.0],[40.0721,16.1849,1.3139],[40.0657,16.1776,3.1229],[40.0604,16.164,0.0],[40.0624,16.1651,0.0],[40.0646,16.1682,0.8355],[40.0799,16.1757,0.0],[40.0801,16.1826,0.1437],[40.0843,16.1871,0.0],[40.0874,16.1968,0.0],[40.0854,16.2018,0.3625],[40.0835,16.2026,0.9438]]],
[[[40.0232,16.2274,0.0],[40.0174,16.2285,0.2318],[40.0129,16.2149,0.0997],[40.0068,16.209,0.2524],[40.0018,16.2071,0.0],[40.0032,16.1988,0.0],[40.0187,16.209,0.082],[40.0218,16.2157,0.8806],[40.0265,16.2213,0.0],[40.0232,16.2274,0.0]]],
[[[40.1732,16.2304,0.5223],[40.1721,16.2329,0.0],[40.1676,16.2313,0.0],[40.1651,16.2243,0.3048],[40.1668,16.2215,0.0],[40.1735,16.2282,0.0],[40.1732,16.2304,0.5223]]],
[[[40.2232,16.2824,1.7658],[40.2238,16.2879,0.0],[40.2201,16.2879,0.0],[40.2132,16.2774,0.0],[40.2115,16.2662,2.9481],[40.2065,16.2615,0.0],[40.206,16.2485,0.1507],[40.2113,16.2457,0.2463],[40.2212,16.246,0.1894],[40.2235,16.2424,0.0],[40.2229,16.2393,0.0],[40.2313,16.2393,0.0],[40.2346,16.2371,1.1749],[40.2354,16.2329,0.4828],[40.2376,16.2321,1.8903],[40.2418,16.2357,2.7634],[40.244,16.2435,0.4068],[40.239,16.2437,0.7026],[40.2343,16.2393,0.1801],[40.229,16.2407,0.4315],[40.2263,16.2457,0.0],[40.2265,16.2546,0.5999],[40.2279,16.256,0.0],[40.226,16.2579,0.0],[40.2265,16.2613,0.1164],[40.2318,16.2724,1.4751],[40.2349,16.2749,0.0],[40.236,16.2799,0.2209],[40.2296,16.2776,0.0],[40.224,16.2799,0.0],[40.2232,16.2824,1.7658]]],
[[[40.2435,16.3415,0.5518],[40.2429,16.3449,0.0],[40.2371,16.3401,1.1971],[40.2165,16.3132,0.0],[40.2407,16.336,0.0],[40.2435,16.3415,0.5518]]],
[[[40.0865,16.4318,0.0],[40.0868,16.4349,0.0],[40.0838,16.4354,0.0],[40.0812,16.4301,0.0],[40.0818,16.4268,0.0],[40.0849,16.4279,0.0],[40.0865,16.4318,0.0]]],
[[[40.0051,16.3274,0.0],[40.0062,16.3274,0.0],[40.006,16.3296,0.0],[40.0049,16.329,0.0],[40.0051,16.3274,0.0]]],
[[[40.084,16.3401,0.0],[40.0821,16.3415,0.6321],[40.0801,16.3385,1.0285],[40.0826,16.3351,1.0056],[40.0851,16.3357,1.0042],[40.0838,16.3343,1.0056],[40.0849,16.3338,0.6428],[40.086,16.3363,0.0],[40.084,16.3401,0.0]]],
[[[40.0443,16.5324,2.9614],[40.044,16.5354,0.7001],[40.0418,16.5357,0.0],[40.0393,16.5318,0.0],[40.0396,16.5296,0.0],[40.0424,16.5285,0.0],[40.0443,16.5324,2.9614]]],
[[[40.0951,16.4796,0.4673],[40.0954,16.4815,0.0],[40.0871,16.4813,0.0],[40.0857,16.4785,0.0],[40.0874,16.4743,2.5971],[40.0865,16.4718,0.0],[40.094,16.4713,0.1439],[40.0962,16.4729,0.0],[40.0979,16.4754,0.1621],[40.0957,16.4768,0.5668],[40.0951,16.4796,0.4673]]],
[[[40.184,16.4868,0.0],[40.1846,16.489,0.0],[40.181,16.4888,0.0],[40.1818,16.4857,2.5443],[40.1804,16.4846,0.0],[40.1824,16.4846,0.0],[40.184,16.4868,0.0]]],
[[[40.1568,16.5476,0.0],[40.1557,16.5515,0.6126],[40.1518,16.5515,0.0],[40.1521,16.5479,0.0],[40.1485,16.5479,0.0],[40.1463,16.546,1.0649],[40.1449,16.5426,0.0],[40.1457,16.5407,3.4503],[40.1421,16.5326,0.0],[40.1351,16.5246,0.1773],[40.1312,16.5235,0.307],[40.1304,16.5115,0.0],[40.1357,16.509,0.7801],[40.1357,16.5054,1.5652],[40.1346,16.5012,0.0],[40.1285,16.4935,1.2606],[40.1285,16.4893,1.7869],[40.1296,16.4857,0.5235],[40.1321,16.4865,0.2823],[40.1349,16.484,0.0],[40.136,16.4757,0.0],[40.139,16.4835,0.4499],[40.1374,16.4863,0.0],[40.1387,16.4968,0.4688],[40.1413,16.4999,1.496],[40.1493,16.5012,0.0],[40.1546,16.5051,0.0],[40.1563,16.5085,0.9424],[40.1596,16.5082,0.5395],[40.164,16.5046,0.0],[40.171,16.5049,0.3212],[40.1701,16.5024,0.3393],[40.1718,16.5021,0.1669],[40.1735,16.5062,0.2236],[40.1776,16.5101,0.2345],[40.1824,16.5115,0.1225],[40.1868,16.5101,0.0],[40.1893,16.5126,0.0],[40.1818,16.5238,0.0],[40.1749,16.5299,0.0],[40.1824,16.5443,1.0138],[40.1799,16.5496,1.0499],[40.1765,16.551,0.0],[40.1735,16.5474,0.0],[40.1732,16.5454,0.2059],[40.1749,16.5451,1.0646],[40.1696,16.5407,0.0],[40.1613,16.5393,0.0],[40.1599,16.5393,3.7519],[40.1568,16.5476,0.0]]],
[[[39.5899,16.1099,0.0839],[39.5876,16.111,0.0],[39.5857,16.1087,0.7964],[39.5871,16.1043,0.4727],[39.5899,16.1074,-0.0248],[39.5899,16.1099,0.0839]]],
[[[39.7454,16.1454,0.0],[39.744,16.1471,0.0],[39.7426,16.1424,0.1147],[39.7446,16.1421,0.0],[39.7454,16.1454,0.0]]],
[[[39.4293,16.1854,0.3002],[39.4282,16.1863,0.0],[39.4285,16.1832,0.3947],[39.4296,16.1837,0.0],[39.4293,16.1854,0.3002]]],
[[[39.7576,16.3068,0.974],[39.756,16.3085,1.0024],[39.7493,16.3037,7.447],[39.7476,16.3001,2.0705],[39.7487,16.294,2.143],[39.7546,16.2943,1.0816],[39.7601,16.2921,3.2215],[39.764,16.2943,0.0],[39.7604,16.299,0.0],[39.7604,16.3021,0.0],[39.7576,16.3068,0.974]]],
[[[39.8949,16.3493,0.0],[39.8846,16.3499,0.6168],[39.8657,16.3443,2.4309],[39.8579,16.3449,2.0445],[39.8521,16.3412,0.0],[39.8537,16.3385,0.0],[39.8579,16.3401,0.1149],[39.8599,16.3393,0.2077],[39.861,16.3415,1.6888],[39.8671,16.3404,0.0],[39.8682,16.3382,0.926],[39.8615,16.3374,1.0565],[39.8607,16.3385,1.0565],[39.864,16.3396,0.0],[39.861,16.3399,0.2077],[39.8529,16.3332,0.0],[39.8582,16.3324,0.0],[39.8604,16.3343,0.2696],[39.8604,16.3296,1.4548],[39.8568,16.3288,0.0],[39.8615,16.3282,0.0],[39.8638,16.3246,3.2457],[39.8707,16.3246,9.5457],[39.8707,16.3221,1.2215],[39.876,16.3213,3.447],[39.8815,16.3143,0.0],[39.8826,16.3104,0.0],[39.8857,16.3113,1.3308],[39.8918,16.3085,0.0],[39.8924,16.3121,0.7065],[39.8993,16.3115,3.2764],[39.9082,16.3007,0.2369],[39.909,16.2957,0.9444],[39.906,16.289,0.0],[39.9093,16.2907,1.1378],[39.9099,16.2857,0.4846],[39.911,16.2857,0.0],[39.9138,16.289,0.0],[39.9085,16.3021,2.0297],[39.9085,16.3079,0.1775],[39.9068,16.3104,0.2424],[39.9076,16.3146,-0.2549],[39.9104,16.3174,0.1544],[39.9135,16.3174,-0.1936],[39.9268,16.3235,-0.0002],[39.9321,16.3215,0.14],[39.9351,16.3238,0.0],[39.9351,16.326,0.0],[39.9343,16.3279,0.0],[39.9293,16.3301,1.234],[39.926,16.3299,0.6237],[39.926,16.3268,0.4181],[39.919,16.3254,1.0286],[39.906,16.3285,0.0625],[39.9124,16.3332,0.0],[39.9121,16.3365,0.0],[39.911,16.3351,0.3432],[39.9071,16.336,0.1612],[39.9029,16.3424,0.0],[39.9029,16.3465,0.0],[39.8985,16.3462,2.6318],[39.8949,16.3493,0.0]]],
[[[39.8179,16.3304,3.5023],[39.8165,16.3304,3.5023],[39.8163,16.3329,0.6094],[39.8129,16.3324,0.6198],[39.8135,16.3312,1.7579],[39.809,16.3274,0.0],[39.8085,16.3226,1.9783],[39.8013,16.3171,0.0],[39.8024,16.3157,3.73],[39.801,16.3124,0.0],[39.8088,16.3135,0.0],[39.8151,16.3207,1.5553],[39.8174,16.3196,0.0],[39.8196,16.3218,0.3975],[39.8235,16.3304,0.0],[39.8224,16.3318,0.3981],[39.8179,16.3304,3.5023]]],
[[[39.8257,16.3401,0.0],[39.8257,16.3388,0.0],[39.8301,16.3393,0.998],[39.8338,16.3421,0.0],[39.8299,16.3415,1.9399],[39.8257,16.3401,0.0]]],
[[[39.7588,16.3201,0.0],[39.7518,16.3207,0.0],[39.751,16.3143,6.128],[39.7551,16.3126,0.3691],[39.7579,16.3154,0.4105],[39.7588,16.3201,0.0]]],
[[[39.5749,16.3565,0.6122],[39.5721,16.3587,0.6227],[39.5665,16.3554,5.8772],[39.5571,16.3532,2.9573],[39.551,16.349,0.8005],[39.539,16.3465,0.8555],[39.5365,16.3424,2.5498],[39.5329,16.3412,1.0637],[39.5335,16.3388,3.8213],[39.5379,16.3354,0.0],[39.5438,16.3365,0.0],[39.5515,16.3443,1.3571],[39.5663,16.3504,0.8853],[39.5729,16.3496,1.6696],[39.5751,16.3446,0.0],[39.5799,16.3418,0.0],[39.5812,16.3454,1.7266],[39.5746,16.3512,0.7758],[39.5762,16.3535,0.0],[39.5749,16.3565,0.6122]]],
[[[39.499,16.4654,0.4887],[39.4985,16.4649,0.4887],[39.4985,16.4629,0.0],[39.501,16.4662,0.0],[39.499,16.4654,0.4887]]],
[[[39.6707,16.4813,0.4114],[39.6682,16.4824,0.0],[39.6662,16.481,0.39],[39.6676,16.4771,0.0991],[39.6715,16.4793,1.2225],[39.6707,16.4813,0.4114]]],
[[[39.319,16.5062,1.5537],[39.316,16.5065,0.0],[39.3154,16.5038,0.0],[39.3174,16.5015,0.0],[39.3196,16.5024,2.8449],[39.319,16.5062,1.5537]]],
[[[39.7729,16.5251,0.2576],[39.7724,16.5271,0.0],[39.7693,16.5265,0.6651],[39.7701,16.5235,0.0],[39.7729,16.5251,0.2576]]],
[[[39.3268,16.6201,2.1964],[39.3232,16.6215,2.1045],[39.3238,16.6179,1.4521],[39.3221,16.6171,0.0],[39.3207,16.6213,0.0],[39.319,16.6213,0.0],[39.3176,16.6179,0.0],[39.3193,16.6151,1.7133],[39.3174,16.6138,0.0],[39.3179,16.6113,0.0],[39.3262,16.6068,0.0],[39.3307,16.6076,0.0],[39.3324,16.6099,0.0],[39.329,16.614,0.0],[39.329,16.6165,0.6989],[39.3312,16.616,0.0],[39.3324,16.6182,1.162],[39.3304,16.6207,0.0],[39.3268,16.6201,2.1964]]]]}
,"properties": {"GID_2": "ERI.2.9_1","GID_0": "ERI","country": "Eritrea","GID_1": "ERI.2_1","province": "SemenawiKeyihBahri","NL_NAME_1": "ዞባሰሜናዊቀይሕባሕሪ","county": "Dahlak","VARNAME_2": "NA","NL_NAME_2": "NA","TYPE_2": "District","ENGTYPE_2": "District","CC_2": "NA","HASC_2": "ER.SK.DA","name": "Dahlak.county","area_km2": 1119.5781,"hist_schema_id": "Elevation0-9000","hist_area_km2": {"0": 960.4581,"25": 150.7724,"50": 8.3475}}}