{"type": "Feature","bbox": [39.528575066021205,15.205939032025356,41.063120964458705,16.528876043744106],"geometry": {"type": "Polygon","coordinates": [[[39.904746815494178,15.562862808961114,0.0],[40.009165886333761,15.876227117962799,2.6832],[40.339976433208761,15.704291082806549,0.0],[40.406138542583705,15.611639715619106,1.2426],[40.162213957423404,15.406824072249265,0.0],[40.630992058208705,15.205939032025356,0.0],[41.063120964458705,15.373480535931577,0.0],[40.551646355083705,16.220160223431577,0.0],[39.828379753521205,16.528876043744106,0.0],[39.528575066021205,16.034979559369106,0.0],[39.722544792583705,15.717474676556577,0.0],[39.904746815494178,15.562862808961114,0.0]]]}
,"properties": {"featurecla": "Island group","name": "Dahlak Arch.","namealt": null,"region": "Africa","subregion": null,"min_label": 6.7,"max_label": 12.0,"scalerank": 7,"area_km2": 11592.541,"hist_schema_id": "Elevation0-9000","hist_area_km2": {"0": 11578.219,"25": 14.322}}}