{"type":"Feature","properties":{"ISO3166-1-Alpha-3":"ERI","country":"Eritrea","id":"99?","name":null},
"geometry":{"type": "MultiPolygon","coordinates": [[[[43.15151,12.72053,4.4479],[43.14793,12.72092,0.0],[43.14587,12.71925,8.4389],[43.14357,12.71925,10.8542],[43.14203,12.72053,0.0],[43.14024,12.72015,2.8702],[43.13857,12.71835,0.0],[43.13934,12.71605,0.0],[43.14331,12.71182,0.0],[43.14754,12.71092,0.0],[43.15203,12.71284,0.0],[43.15331,12.71707,0.0],[43.15151,12.72053,4.4479]]],
[[[42.94988,12.83063,4.7786],[42.93914,12.84431,1.1957],[42.93279,12.84809,0.3487],[42.93124,12.84561,0.0],[42.93377,12.83255,0.0],[42.94158,12.82616,0.8585],[42.95167,12.8225,3.002],[42.94988,12.83063,4.7786]]],
[[[42.95029,12.88565,0.0],[42.94882,12.89822,0.9502],[42.94427,12.90579,1.002],[42.93466,12.90266,0.9754],[42.9358,12.89142,0.0],[42.94288,12.88231,0.257],[42.95623,12.87157,1.2204],[42.9603,12.87124,0.9151],[42.95029,12.88565,0.0]]],
[[[42.91228,12.96406,0.7054],[42.91228,12.96137,0.0],[42.91505,12.95474,0.0],[42.91163,12.95148,0.0],[42.90471,12.95685,1.4706],[42.89796,12.9597,0.0],[42.89186,12.95441,1.2561],[42.89405,12.93887,0.1054],[42.90219,12.92243,0.0],[42.90675,12.91787,0.0],[42.91009,12.91901,1.299],[42.91163,12.92227,0.0],[42.91432,12.92422,0.0],[42.92058,12.92569,0.0],[42.92872,12.92577,1.9041],[42.93352,12.92467,0.0],[42.93474,12.9197,0.0],[42.93727,12.91299,3.2548],[42.945,12.90856,1.2675],[42.95216,12.91254,0.3803],[42.95444,12.92801,0.0],[42.96306,12.93032,1.3836],[42.96152,12.93806,1.1693],[42.95598,12.94359,0.8775],[42.91228,12.96406,0.7054]]],
[[[42.87371,13.04291,0.0],[42.8615,13.04405,0.0],[42.85385,13.04348,0.8017],[42.8401,13.03368,0.318],[42.83782,13.02123,0.0],[42.84278,13.01838,0.0],[42.84571,13.01435,0.0],[42.85564,13.01154,0.4637],[42.87452,13.00503,0.4465],[42.87835,13.0113,0.0],[42.87151,13.01374,3.3194],[42.8672,13.01976,1.9191],[42.86215,13.02428,2.0631],[42.85743,13.03172,6.6295],[42.85279,13.03315,6.0563],[42.85149,13.03864,1.1351],[42.85743,13.04173,0.0],[42.86541,13.03832,0.0],[42.86809,13.04027,0.0],[42.87688,13.03718,0.0],[42.87371,13.04291,0.0]]],
[[[40.31007,14.98424,88.4268],[40.32871,15.00133,0.0],[40.33985,15.00662,0.0],[40.34588,15.01402,5.3733],[40.34156,15.03632,0.0],[40.33448,15.04694,0.0],[40.32993,15.05142,2.9638],[40.30869,15.0565,0.0],[40.29689,15.05553,29.4643],[40.29225,15.0493,0.0],[40.28842,15.03042,0.4927],[40.26531,14.98989,0.0],[40.26621,14.98163,0.0],[40.27019,14.97671,1.7008],[40.29217,14.97871,0.0],[40.299,14.97777,21.773],[40.31007,14.98424,88.4268]]],
[[[40.27996,15.11872,0.0],[40.2811,15.12975,0.2911],[40.27548,15.14415,1.0818],[40.2636,15.15668,2.1218],[40.26645,15.16108,0.0],[40.27524,15.16108,5.9836],[40.27923,15.16568,0.9893],[40.28484,15.17845,0.0],[40.2942,15.18692,1.8905],[40.29786,15.19269,1.7108],[40.29721,15.19839,3.8307],[40.29306,15.19929,5.015],[40.28085,15.19774,3.2898],[40.23788,15.17455,0.0],[40.23414,15.17137,5.8607],[40.23194,15.1658,0.3761],[40.23211,15.15563,0.0],[40.22788,15.14745,3.8374],[40.22747,15.13862,0.6919],[40.23113,15.12202,0.0],[40.233,15.11864,0.0],[40.24553,15.11514,0.0],[40.25042,15.10932,0.0],[40.25929,15.10916,0.3386],[40.27996,15.11872,0.0]]]]}}