{"type":"Feature","properties":{"featurecla":"Desert","name":"NUBIAN DESERT","namealt":null,"region":"Africa","subregion":null,"min_label":4.0,"max_label":8.0,"scalerank":3},
"geometry":{"type": "MultiPolygon","coordinates": [[[[36.869920596634728,22.023614182855738,2.8281],[36.890846002873531,21.95383600128244,0.0],[36.951328122916181,21.778749222985056,0.0],[36.882701042583705,22.023382879681606,4.9066],[36.869920596634728,22.023614182855738,2.8281]]],
[[[31.520375257960694,22.120274116066554,221.4346],[31.410288933208705,22.001349188275356,201.0898],[31.145640495708705,21.630926824994077,198.6112],[30.537119987896205,20.969488836712856,224.981],[30.365122917583761,20.307989813275327,227.0895],[30.378428581646205,19.673041082806577,220.0223],[30.397280106413717,19.551501919023252,222.6108],[30.920786980083705,19.673041082806577,280.1936],[31.714488151958761,19.831732489056577,359.1577],[32.521494987896261,20.215399481244106,389.2938],[33.209483269146205,20.665228582806577,312.2598],[33.751841667583705,21.3266665710878,550.6452],[34.386851433208761,22.027777410931606,372.3872],[34.404508469592059,22.041022039837856,378.2339],[34.439930985302425,22.067592641230021,348.6946],[31.520518425396261,22.120428778119077,226.2375],[31.520375257960694,22.120274116066554,221.4346]]]]}}