{"type": "Feature","bbox": [38.9221,14.7536,39.1898,15.2711],"geometry": {"type": "MultiPolygon","coordinates": [[[[39.0508,14.7539,1475.8175],[39.0535,14.7536,1484.0601],[39.0633,14.7578,1489.2159],[39.0752,14.7669,1522.9971],[39.0841,14.7826,1509.4181],[39.0848,14.7949,1569.5555],[39.0903,14.8065,1538.6433],[39.1004,14.811,1534.8104],[39.1044,14.8162,1556.6183],[39.1117,14.8206,1570.624],[39.116,14.83,1553.3513],[39.0909,14.8887,1804.1893],[39.0806,14.9347,1784.4756],[39.0751,14.9482,1899.7899],[39.0721,14.9689,1901.6653],[39.0786,14.9891,1958.6313],[39.0898,15.0055,2003.5984],[39.0977,15.0206,2061.7942],[39.1197,15.0525,2145.9167],[39.1223,15.0673,2248.5122],[39.123,15.1081,1788.2622],[39.1274,15.1258,1719.1307],[39.135,15.1411,1645.0878],[39.1541,15.1652,1487.9796],[39.1631,15.1802,1508.8737],[39.1701,15.1843,1520.9402],[39.1787,15.2268,1279.6624],[39.1898,15.2432,1337.5269],[39.1695,15.2539,1264.7698],[39.1447,15.2613,1292.5048],[39.0922,15.2689,1596.1315],[39.0853,15.2711,1624.1019],[39.0817,15.2634,1819.1207],[39.0795,15.2434,2012.5602],[39.076,15.2368,1992.8655],[39.0706,15.2336,1893.5962],[39.0568,15.234,1902.6918],[39.0506,15.2325,1746.6981],[39.0349,15.2097,1998.5229],[39.0274,15.1825,1859.7407],[39.0199,15.182,1898.1855],[39.0151,15.1763,1910.5546],[39.0082,15.1786,2071.532],[39.0088,15.1729,2226.3506],[39.0064,15.1656,2246.6104],[39.0075,15.1619,2228.3469],[39.0059,15.148,2199.105],[39.001,15.1409,2185.4922],[38.9874,15.1504,2174.647],[38.9806,15.1505,2136.5156],[38.9794,15.1457,2138.4209],[38.981,15.1361,2167.9714],[38.9782,15.1239,2110.3237],[38.9758,15.1235,2096.9221],[38.9692,15.1268,2091.3022],[38.9669,15.1186,2066.5212],[38.963,15.1183,2098.2832],[38.9592,15.1156,2034.238],[38.9535,15.1164,2081.4065],[38.9381,15.126,2108.4336],[38.9383,15.1142,2028.7162],[38.9421,15.0977,1987.4003],[38.9416,15.093,2003.1584],[38.9254,15.0617,1892.302],[38.9221,15.051,1931.4487],[38.9232,15.0419,1883.9647],[38.9307,15.0243,1850.9366],[38.9331,15.0041,1783.6862],[38.9368,15.0014,1770.6261],[38.9456,15.0013,1833.2267],[38.9498,14.9987,1777.8777],[38.9611,14.9603,1676.3407],[38.9675,14.9537,1698.3975],[38.9822,14.9224,1616.3484],[39.0123,14.8845,1575.3062],[39.0205,14.877,1563.949],[39.0369,14.866,1549.3275],[39.0384,14.8635,1545.3286],[39.0362,14.8546,1545.5873],[39.037,14.8477,1555.6748],[39.0562,14.8237,1522.578],[39.058,14.8183,1523.3247],[39.059,14.7972,1491.2849],[39.0508,14.7539,1475.8175]]]]}
,"properties": {"GID_2": "ERI.5.4_1","GID_0": "ERI","country": "Eritrea","GID_1": "ERI.5_1","province": "Debub","NL_NAME_1": "ዞባደቡብ","county": "Dekemehare","VARNAME_2": "Dekemhare","NL_NAME_2": "NA","TYPE_2": "District","ENGTYPE_2": "District","CC_2": "NA","HASC_2": "ER.AG.DK","name": "Dekemehare.county","area_km2": 710.0536,"hist_schema_id": "Elevation0-9000","hist_area_km2": {"1150": 0.0205,"1175": 0.1227,"1200": 0.5319,"1225": 1.1865,"1250": 1.4933,"1275": 1.1251,"1300": 1.8001,"1325": 2.5774,"1350": 2.3524,"1375": 3.2321,"1400": 3.764,"1425": 4.0505,"1450": 5.3394,"1475": 10.2715,"1500": 14.8196,"1525": 24.9215,"1550": 32.9976,"1575": 29.4116,"1600": 27.1513,"1625": 27.2328,"1650": 28.2555,"1675": 26.5147,"1700": 22.6252,"1725": 21.5399,"1750": 20.8242,"1775": 18.4499,"1800": 23.5918,"1825": 25.0028,"1850": 24.3461,"1875": 27.0904,"1900": 34.3394,"1925": 36.7755,"1950": 32.4748,"1975": 24.814,"2000": 23.2156,"2025": 21.7002,"2050": 18.5674,"2075": 15.7834,"2100": 13.5721,"2125": 14.8002,"2150": 14.4312,"2175": 12.8547,"2200": 7.6965,"2225": 3.8072,"2250": 2.1494,"2275": 0.4094,"2300": 0.0205}}}