{"type":"Feature","properties":{"GID_2":"ERI.4.1_1","GID_0":"ERI","country":"Eritrea","GID_1":"ERI.4_1","province":"GashBarka","NL_NAME_1":"ዞባጋሽባርካ","county":"Akordat","VARNAME_2":"Akurdet","NL_NAME_2":"NA","TYPE_2":"District","ENGTYPE_2":"District","CC_2":"NA","HASC_2":"ER.BA.AK","name":"Akordat.county"},
"geometry":{"type": "MultiPolygon","coordinates": [[[[37.8561,15.4505,639.5997],[37.8877,15.4583,723.5749],[37.9451,15.4659,842.8242],[37.9594,15.4713,842.6915],[37.9929,15.4799,1026.1321],[38.0132,15.4875,779.5551],[38.0213,15.494,692.2632],[38.0258,15.5056,669.6776],[38.0308,15.5121,660.021],[38.0459,15.521,658.3658],[38.0516,15.5289,640.352],[38.0558,15.5398,649.0037],[38.0624,15.576,676.9223],[38.0606,15.5842,691.0261],[38.0587,15.5868,687.6954],[38.0525,15.5881,682.4426],[38.0113,15.5885,812.7445],[38.0053,15.5901,674.092],[38.002,15.5933,674.2697],[37.987,15.6188,642.7238],[37.9769,15.6287,657.8291],[37.9447,15.6494,821.4636],[37.9337,15.6553,699.4688],[37.9244,15.6582,676.6768],[37.9095,15.6603,658.6631],[37.8758,15.6567,643.9255],[37.8418,15.6462,650.3695],[37.8294,15.6394,645.2681],[37.814,15.6208,644.3834],[37.8071,15.6051,653.0209],[37.8007,15.5963,717.3954],[37.7811,15.5776,619.9813],[37.7666,15.5703,582.9462],[37.7625,15.5639,591.2009],[37.7623,15.5591,578.2085],[37.7647,15.5545,589.269],[37.782,15.5463,576.142],[37.7921,15.5396,565.882],[37.8122,15.5225,583.0741],[37.8197,15.5132,597.8749],[37.8296,15.4957,625.7974],[37.8476,15.4751,626.9313],[37.8561,15.4505,639.5997]]]]}}