{"type": "Feature","bbox": [38.6088,15.5563,39.4437,16.0194],"geometry": {"type": "MultiPolygon","coordinates": [[[[38.8869,15.5874,2276.4697],[38.9029,15.6113,1859.8458],[38.9476,15.6425,655.4589],[38.9861,15.6575,526.5425],[39.0137,15.6659,314.5152],[39.0583,15.6726,228.5398],[39.0804,15.6726,202.2137],[39.0954,15.6706,193.9489],[39.1055,15.6673,183.7376],[39.1386,15.65,203.1714],[39.1442,15.6444,209.1561],[39.1529,15.6242,222.4615],[39.1692,15.6056,336.1276],[39.1715,15.5955,286.8773],[39.1774,15.5826,310.5468],[39.1787,15.5634,294.5348],[39.181,15.5584,314.2644],[39.1837,15.5566,324.3856],[39.1886,15.5563,344.4223],[39.2062,15.5614,329.2768],[39.2416,15.5673,188.3385],[39.2473,15.5671,192.3956],[39.2555,15.5638,201.5472],[39.2639,15.5574,188.0134],[39.2833,15.5776,142.8613],[39.2839,15.6039,126.5641],[39.2813,15.6139,117.6517],[39.2816,15.6185,125.7403],[39.2919,15.6405,86.743],[39.2998,15.6527,77.7281],[39.3167,15.6666,61.5772],[39.325,15.6757,71.88],[39.3341,15.6934,62.1258],[39.3388,15.6978,55.6601],[39.3592,15.7109,37.4286],[39.3739,15.7171,27.5491],[39.399,15.7242,13.5749],[39.4144,15.726,7.1493],[39.4276,15.7249,3.4495],[39.43,15.7217,3.922],[39.4437,15.7235,1.3883],[39.4399,15.731,0.0],[39.4335,15.7335,1.4162],[39.4279,15.7407,0.2765],[39.4251,15.7526,2.0791],[39.4276,15.769,0.806],[39.431,15.7732,1.5778],[39.4379,15.776,0.0],[39.441,15.7804,1.043],[39.4426,15.7904,1.9511],[39.4399,15.8001,0.3245],[39.4321,15.809,0.0],[39.4224,15.8126,2.3114],[39.416,15.8176,0.3573],[39.3751,15.8371,1.7541],[39.3679,15.844,1.183],[39.3638,15.8543,0.0],[39.3582,15.8612,0.0],[39.3365,15.8757,1.118],[39.3293,15.8857,0.6779],[39.3288,15.8926,0.0],[39.3243,15.8921,1.1048],[39.3235,15.894,0.423],[39.3207,15.8946,0.2941],[39.3104,15.8935,1.4207],[39.3054,15.8971,1.0847],[39.304,15.9101,0.0],[39.301,15.9199,2.1014],[39.3018,15.9235,1.5402],[39.2971,15.936,0.9716],[39.296,15.9462,0.0],[39.2935,15.949,1.5186],[39.2949,15.951,0.0],[39.2893,15.9607,1.3052],[39.2837,15.9629,1.5117],[39.2788,15.9699,1.6145],[39.2751,15.9704,0.4081],[39.2743,15.9724,0.8632],[39.2726,15.989,1.5806],[39.2704,15.9929,1.189],[39.2738,16.0021,0.0],[39.2663,16.0194,1.3668],[39.2408,16.0148,28.4274],[39.2256,16.0153,35.2842],[39.157,16.0119,141.1662],[39.144,16.0096,153.8353],[39.0987,15.9973,182.1758],[39.0935,15.9948,189.4243],[39.076,15.9788,190.5994],[39.0646,15.9758,200.7962],[39.0183,15.979,251.736],[38.9911,15.9761,282.7559],[38.9651,15.969,385.136],[38.9387,15.9679,588.8082],[38.8823,15.9713,627.5535],[38.8581,15.9693,1044.3557],[38.8055,15.9515,1761.5674],[38.7805,15.9464,1700.2213],[38.7629,15.9387,1527.0469],[38.7535,15.9322,1891.339],[38.7196,15.9189,1420.5857],[38.6971,15.9138,1281.1797],[38.6632,15.9026,2009.5157],[38.6472,15.8965,1841.4176],[38.6232,15.8811,1698.2476],[38.6122,15.8682,1856.7806],[38.6088,15.8616,1779.443],[38.6203,15.854,1969.8218],[38.6315,15.8543,2098.8181],[38.6355,15.8581,2129.6523],[38.6405,15.873,1892.9592],[38.6499,15.8784,2152.7666],[38.6608,15.8796,2176.7803],[38.6663,15.8774,2167.457],[38.6691,15.8731,2161.5186],[38.6714,15.8615,2174.7888],[38.6744,15.8564,2052.0847],[38.6846,15.8537,2050.8899],[38.717,15.8492,2370.8049],[38.7222,15.8505,2049.5894],[38.741,15.8642,1845.0896],[38.7509,15.8639,1862.6688],[38.7599,15.8564,1864.7544],[38.7671,15.8528,1860.3926],[38.7744,15.8508,1888.7389],[38.7886,15.8516,1720.7017],[38.7949,15.8501,1612.1588],[38.802,15.8461,1588.3698],[38.8347,15.8194,1591.0477],[38.8439,15.805,1559.3881],[38.8474,15.7863,1281.2329],[38.8545,15.7686,1174.7922],[38.8625,15.7398,1341.4434],[38.8641,15.7237,1727.7815],[38.8633,15.7169,1857.0756],[38.859,15.7046,2071.0188],[38.8591,15.6873,2022.7761],[38.8816,15.6473,1536.8076],[38.8826,15.6377,1484.3262],[38.88,15.6243,1604.4116],[38.8798,15.6013,1946.2017],[38.881,15.5956,2021.6333],[38.8869,15.5874,2276.4697]]]]}
,"properties": {"GID_2": "ERI.2.8_1","GID_0": "ERI","country": "Eritrea","GID_1": "ERI.2_1","province": "SemenawiKeyihBahri","NL_NAME_1": "ዞባሰሜናዊቀይሕባሕሪ","county": "Sheib","VARNAME_2": "Sh`eb","NL_NAME_2": "NA","TYPE_2": "District","ENGTYPE_2": "District","CC_2": "NA","HASC_2": "ER.SM.SI","name": "Sheib.county","area_km2": 2354.726,"hist_schema_id": "Elevation0-9000","hist_area_km2": {"-25": 0.306,"0": 154.57,"25": 130.283,"50": 88.898,"75": 108.455,"100": 141.241,"125": 157.378,"150": 199.978,"175": 213.093,"200": 181.77,"225": 95.576,"250": 58.389,"275": 38.344,"300": 26.41,"325": 22.205,"350": 21.265,"375": 17.405,"400": 15.036,"425": 12.262,"450": 14.485,"475": 14.73,"500": 13.791,"525": 12.668,"550": 12.628,"575": 14.076,"600": 13.708,"625": 14.238,"650": 14.911,"675": 14.361,"700": 15.135,"725": 15.482,"750": 15.952,"775": 15.503,"800": 16.176,"825": 14.218,"850": 15.749,"875": 14.117,"900": 11.179,"925": 10.2,"950": 9.098,"975": 8.323,"1000": 7.874,"1025": 6.895,"1050": 7.262,"1075": 7.262,"1100": 6.956,"1125": 6.915,"1150": 7.364,"1175": 6.793,"1200": 7.241,"1225": 6.528,"1250": 7.119,"1275": 7.731,"1300": 7.527,"1325": 8.159,"1350": 7.711,"1375": 8.893,"1400": 8.73,"1425": 9.424,"1450": 9.302,"1475": 10.648,"1500": 10.668,"1525": 9.709,"1550": 10.688,"1575": 10.056,"1600": 9.382,"1625": 9.179,"1650": 8.73,"1675": 8.383,"1700": 7.302,"1725": 7.527,"1750": 6.65,"1775": 5.732,"1800": 5.793,"1825": 5.528,"1850": 6.833,"1875": 9.321,"1900": 9.178,"1925": 8.056,"1950": 7.873,"1975": 7.852,"2000": 5.976,"2025": 5.976,"2050": 6.404,"2075": 5.813,"2100": 5.609,"2125": 5.629,"2150": 5.018,"2175": 3.875,"2200": 1.938,"2225": 1.346,"2250": 0.775,"2275": 0.755,"2300": 0.551,"2325": 0.469,"2350": 0.102,"2375": 0.102,"2425": 0.02}}}