{"type":"Feature","properties":{"GID_2":"ERI.5.5_1","GID_0":"ERI","country":"Eritrea","GID_1":"ERI.5_1","province":"Debub","NL_NAME_1":"ዞባደቡብ","county":"Dibarwa","VARNAME_2":"Debarwa","NL_NAME_2":"NA","TYPE_2":"District","ENGTYPE_2":"District","CC_2":"NA","HASC_2":"ER.SR.DI","name":"Dibarwa.county"},
"geometry":{"type": "MultiPolygon","coordinates": [[[[38.6881,15.0128,2057.0913],[38.6937,15.0153,2282.3613],[38.7013,15.022,2260.3794],[38.7242,15.0205,2190.4009],[38.7645,15.0128,2130.3228],[38.8297,14.9964,1902.1934],[38.8609,14.9948,1815.8176],[38.8909,14.99,1812.9711],[38.9466,14.9717,1782.1313],[38.9599,14.9646,1649.3004],[38.9498,14.9987,1777.8777],[38.9456,15.0013,1833.2267],[38.9368,15.0014,1770.6261],[38.9331,15.0041,1783.6862],[38.9307,15.0243,1850.9366],[38.9242,15.0392,1896.9539],[38.9221,15.0487,1918.806],[38.9239,15.0584,1904.5164],[38.9416,15.093,2003.1584],[38.9421,15.0977,1987.4003],[38.9383,15.1142,2028.7162],[38.9381,15.126,2108.4336],[38.935,15.1279,2079.9597],[38.9393,15.1332,2063.0039],[38.9394,15.1368,2069.4438],[38.9347,15.1376,2127.2234],[38.9324,15.1311,2007.0765],[38.9299,15.1299,2018.9879],[38.9254,15.1228,2046.8822],[38.9223,15.1313,2011.7528],[38.9212,15.1271,1988.7212],[38.9188,15.1257,1974.7385],[38.9026,15.1366,2009.8098],[38.8988,15.137,2026.5607],[38.8883,15.1427,2019.6855],[38.8835,15.1437,2024.7566],[38.8801,15.1386,2002.1099],[38.8771,15.1416,2022.4672],[38.8737,15.1421,1998.187],[38.8743,15.1458,2029.6042],[38.8727,15.1477,2021.3848],[38.8677,15.1478,2000.0608],[38.8651,15.1452,1994.0839],[38.861,15.145,2005.4447],[38.8609,15.1541,2027.2747],[38.8595,15.1565,2025.8044],[38.8563,15.1554,2022.8878],[38.8551,15.1605,2036.7865],[38.8532,15.161,2052.6016],[38.8493,15.1557,2052.895],[38.8458,15.155,2061.6128],[38.8444,15.163,2080.1956],[38.8278,15.177,2061.8691],[38.8212,15.1771,2009.1758],[38.8116,15.1817,2030.5598],[38.8097,15.1888,2017.6987],[38.7968,15.1917,2032.3728],[38.7893,15.1911,2052.0278],[38.7881,15.1881,2052.7671],[38.7856,15.188,2071.6287],[38.7829,15.1932,2090.4309],[38.785,15.1982,2069.4966],[38.7841,15.201599999999999,2074.2273],[38.7804,15.1973,2082.75],[38.7632,15.1952,2136.5586],[38.746,15.1999,2267.8154],[38.7189,15.2013,2440.5637],[38.7135,15.2084,2337.6621],[38.7102,15.2097,2290.6709],[38.7095,15.2147,2257.7446],[38.7072,15.2182,2246.05],[38.6986,15.2081,2209.55],[38.6687,15.1955,1960.762],[38.6539,15.1849,1649.7384],[38.6487,15.184,1629.2754],[38.6354,15.1861,1749.0032],[38.6156,15.1802,1636.3972],[38.6054,15.1804,1626.8131],[38.5821,15.1947,1456.9282],[38.5688,15.1983,1389.5817],[38.5583,15.194,1426.8245],[38.5426,15.1797,1490.0262],[38.537,15.1789,1330.8754],[38.5259,15.1813,1340.9957],[38.5168,15.1752,1221.9926],[38.5114,15.1736,1264.8765],[38.4761,15.181,1158.5425],[38.4573,15.1749,1075.8184],[38.453,15.1755,1141.5474],[38.4242,15.1849,1020.4771],[38.4084,15.1879,987.304],[38.397,15.1879,973.123],[38.3913,15.1855,968.8125],[38.3898,15.1783,965.2694],[38.3921,15.1728,954.4691],[38.397,15.1679,956.644],[38.4055,15.1541,1129.2891],[38.4216,15.133,1347.9563],[38.425,15.1106,1093.9419],[38.4316,15.1029,1177.726],[38.4374,15.0992,1143.0696],[38.4493,15.0957,1172.7665],[38.4636,15.095,1188.6005],[38.4733,15.0892,1245.1951],[38.4825,15.0913,1245.4309],[38.5005,15.0991,1244.6071],[38.5059,15.0997,1323.9847],[38.5375,15.097,1277.7828],[38.5534,15.0931,1283.5415],[38.5927,15.0735,1501.2405],[38.6194,15.056,1671.8682],[38.6316,15.044,1683.8142],[38.6353,15.0312,1558.8826],[38.6387,15.0271,1555.5863],[38.6526,15.0231,1714.4407],[38.667,15.0168,1959.1855],[38.6881,15.0128,2057.0913]]]]}}