{"type": "Feature","bbox": [38.5655,15.7112,38.8642,15.8796],"geometry": {"type": "MultiPolygon","coordinates": [[[[38.8611,15.7118,2073.6973],[38.8633,15.7169,1857.0756],[38.8642,15.7318,1698.9993],[38.8545,15.7686,1174.7922],[38.8474,15.7863,1281.2329],[38.8439,15.805,1559.3881],[38.8301,15.8242,1504.9547],[38.7949,15.8501,1612.1588],[38.7886,15.8516,1720.7017],[38.7744,15.8508,1888.7389],[38.7671,15.8528,1860.3926],[38.7599,15.8564,1864.7544],[38.7509,15.8639,1862.6688],[38.7465,15.8647,1858.1752],[38.741,15.8642,1845.0896],[38.7362,15.8616,1835.8143],[38.7222,15.8505,2049.5894],[38.717,15.8492,2370.8049],[38.6846,15.8537,2050.8899],[38.6744,15.8564,2052.0847],[38.6714,15.8615,2174.7888],[38.6691,15.8731,2161.5186],[38.6663,15.8774,2167.457],[38.6608,15.8796,2176.7803],[38.6499,15.8784,2152.7666],[38.6405,15.873,1892.9592],[38.6355,15.8581,2129.6523],[38.6315,15.8543,2098.8181],[38.6244,15.8535,2047.71],[38.6203,15.854,1969.8218],[38.6088,15.8616,1779.443],[38.603,15.8626,1841.7169],[38.5964,15.8719,1624.6886],[38.5931,15.8737,1684.6129],[38.5803,15.8721,1715.4286],[38.5687,15.8744,1677.4138],[38.5655,15.8641,1684.4854],[38.5656,15.8564,1570.7227],[38.5699,15.8504,1520.0614],[38.5868,15.8386,1801.832],[38.6096,15.8286,1702.8972],[38.6099,15.8249,1680.8573],[38.6044,15.8092,1614.7231],[38.6037,15.8039,1625.054],[38.6053,15.7984,1658.6062],[38.6166,15.7857,1721.582],[38.6304,15.7764,1960.6139],[38.6482,15.7703,2017.7195],[38.6911,15.7651,2021.8811],[38.7006,15.7647,1931.7703],[38.7142,15.7678,1855.0193],[38.7199,15.7661,1771.3236],[38.7505,15.7245,2012.99],[38.7631,15.7157,1698.868],[38.7812,15.7118,1602.1438],[38.7978,15.7139,1483.6863],[38.8374,15.7112,1575.1835],[38.8611,15.7118,2073.6973]]]]}
,"properties": {"GID_2": "ERI.6.4_1","GID_0": "ERI","country": "Eritrea","GID_1": "ERI.6_1","province": "Anseba","NL_NAME_1": "ዞባዓንሰባ","county": "Gheleb","VARNAME_2": "NA","NL_NAME_2": "NA","TYPE_2": "District","ENGTYPE_2": "District","CC_2": "NA","HASC_2": "ER.AN.GH","name": "Gheleb.county","area_km2": 331.6659,"hist_schema_id": "Elevation0-9000","hist_area_km2": {"1025": 0.0408,"1050": 0.102,"1075": 0.1224,"1100": 0.2041,"1125": 0.2857,"1150": 0.3265,"1175": 0.3265,"1200": 0.4081,"1225": 0.4898,"1250": 0.8367,"1275": 0.9591,"1300": 1.3469,"1325": 1.4897,"1350": 1.7958,"1375": 1.7958,"1400": 2.0815,"1425": 2.2652,"1450": 2.9795,"1475": 3.6733,"1500": 4.2648,"1525": 5.4684,"1550": 6.4681,"1575": 7.3655,"1600": 10.4261,"1625": 9.7935,"1650": 11.2217,"1675": 11.3848,"1700": 11.7108,"1725": 12.7104,"1750": 12.7101,"1775": 15.7291,"1800": 16.6468,"1825": 16.7689,"1850": 15.5041,"1875": 12.1182,"1900": 10.3637,"1925": 10.7921,"1950": 9.9351,"1975": 9.6496,"2000": 9.1802,"2025": 9.833,"2050": 9.0984,"2075": 8.7106,"2100": 8.7717,"2125": 7.8536,"2150": 8.0164,"2175": 7.3227,"2200": 5.1809,"2225": 3.2026,"2250": 2.2644,"2275": 1.8361,"2300": 1.1832,"2325": 1.3057,"2350": 1.0201,"2375": 0.816,"2400": 0.9181,"2425": 0.714,"2450": 0.4692,"2475": 0.5508,"2500": 0.2652,"2525": 0.306,"2550": 0.1428,"2575": 0.1428}}}