{"type": "Feature","bbox": [38.2217,14.3923,39.6707,15.2711],"geometry": {"type": "MultiPolygon","coordinates": [[[[38.6649,14.4504,1210.1152],[38.6751,14.453,1239.2061],[38.6872,14.4602,1224.4835],[38.7029,14.4653,1232.4954],[38.7158,14.461,1264.2007],[38.7305,14.4589,1251.613],[38.7502,14.4651,1255.2725],[38.7589,14.4646,1274.877],[38.7748,14.4669,1288.9222],[38.794,14.4632,1326.777],[38.8152,14.4743,1316.2466],[38.8167,14.4819,1320.9301],[38.8245,14.482,1317.2275],[38.8352,14.4853,1307.6099],[38.8484,14.4957,1349.0273],[38.8642,14.494,1326.868],[38.9049,14.5012,1372.5493],[38.921,14.5113,1503.2227],[38.9373,14.5321,1415.0824],[38.9496,14.5311,1393.9308],[38.9541,14.536,1353.4358],[38.9673,14.5385,1383.205],[38.9747,14.5416,1384.7806],[38.9809,14.5527,1369.0497],[38.9939,14.5656,1370.9836],[39.0012,14.5858,1410.1306],[39.01,14.5903,1406.3248],[39.0127,14.6034,1402.5315],[39.0085,14.6162,1422.6887],[39.0235,14.6324,1410.6963],[39.0287,14.6345,1421.6272],[39.0414,14.6316,1432.1703],[39.0484,14.6355,1418.6621],[39.0552,14.6362,1436.3705],[39.0753,14.6334,1458.459],[39.0807,14.6365,1449.2727],[39.0868,14.6333,1482.3961],[39.0976,14.6334,1475.9249],[39.1044,14.63,1485.3383],[39.114,14.6176,1512.2521],[39.1247,14.6134,1507.233],[39.1575,14.6203,1580.0225],[39.1777,14.6185,1565.1615],[39.2003,14.611,1601.4971],[39.2081,14.6033,1622.5999],[39.2159,14.5915,1672.0133],[39.221,14.5796,1794.967],[39.2215,14.5725,1741.6527],[39.2265,14.5682,1821.6708],[39.2332,14.5682,1638.6138],[39.2386,14.5659,1603.0746],[39.2382,14.5607,1616.3486],[39.2401,14.5557,1621.5934],[39.2385,14.5476,1628.9127],[39.2323,14.5403,1665.8689],[39.2315,14.5192,1853.259],[39.2279,14.5116,1784.0381],[39.2167,14.4961,1660.4995],[39.2085,14.4931,1701.3385],[39.2145,14.4828,1720.155],[39.2191,14.4782,1696.0442],[39.221,14.4538,1748.4888],[39.2242,14.4433,1758.167],[39.2318,14.4308,1847.2375],[39.2398,14.4116,1894.1843],[39.2468,14.4053,1788.1676],[39.2497,14.3923,1896.5957],[39.2607,14.3931,1855.0944],[39.2758,14.4022,1891.8785],[39.2902,14.4047,2107.041],[39.2929,14.4106,1967.1461],[39.3008,14.4114,2008.6169],[39.3011,14.4182,1895.4492],[39.2979,14.4242,1868.5177],[39.2977,14.4362,1833.455],[39.3148,14.4376,1999.6959],[39.3199,14.4419,2024.3364],[39.3233,14.45,2054.3098],[39.3178,14.4528,1938.2419],[39.3224,14.459,2058.2227],[39.3163,14.4598,1929.0254],[39.3143,14.4658,1966.9622],[39.3138,14.4789,1868.8325],[39.33,14.4804,1998.7598],[39.3235,14.4924,1935.6219],[39.324,14.4983,1905.7976],[39.34,14.5113,2019.5671],[39.3534,14.505,2005.8877],[39.3647,14.4963,2267.741],[39.3711,14.4946,2358.1455],[39.3694,14.4998,2349.9895],[39.3646,14.5058,2347.23],[39.3648,14.5118,2340.9163],[39.3686,14.5187,2320.5642],[39.3677,14.5266,2301.3352],[39.3646,14.534,2082.8721],[39.3687,14.5383,2106.2988],[39.3836,14.5358,2364.5889],[39.3985,14.5382,2322.1853],[39.4122,14.531,2449.7319],[39.4282,14.5307,2285.7588],[39.4291,14.5244,2207.5498],[39.4355,14.5193,2460.0525],[39.4533,14.5269,2419.9202],[39.4521,14.5109,2612.9087],[39.4571,14.5072,2605.2637],[39.4619,14.513,2479.209],[39.4693,14.5156,2557.5879],[39.4678,14.5084,2691.8718],[39.471,14.5044,2677.8987],[39.4726,14.4983,2595.5913],[39.4851,14.5014,2334.6167],[39.4931,14.5089,2164.415],[39.5004,14.5438,2179.2305],[39.4944,14.5644,2287.436],[39.4917,14.5825,2390.2166],[39.4778,14.5976,2392.3003],[39.4775,14.6036,2521.5676],[39.4901,14.625,2357.7578],[39.4866,14.6402,2385.7166],[39.4884,14.6453,2418.2068],[39.4971,14.6543,2554.0249],[39.5027,14.677,2352.3564],[39.51,14.6718,2135.0676],[39.5158,14.6771,1889.2195],[39.5374,14.6695,1851.3398],[39.5752,14.6699,1768.8733],[39.5912,14.6621,1731.6128],[39.6058,14.6471,1429.3571],[39.6227,14.6359,1462.6473],[39.6288,14.6088,1443.8213],[39.6317,14.6053,1288.353],[39.6323,14.6128,1200.8015],[39.638,14.6304,1760.0508],[39.6377,14.6508,1746.6765],[39.6329,14.6632,2036.6322],[39.6238,14.6751,1788.7085],[39.6238,14.6834,1815.6771],[39.6322,14.7041,2420.1394],[39.6329,14.717,2052.2495],[39.6364,14.7222,1897.7883],[39.6477,14.732,2042.4841],[39.6523,14.7421,1569.9396],[39.6535,14.7809,1448.6681],[39.6566,14.788,1593.3328],[39.667,14.8006,1919.792],[39.6685,14.8096,2007.7643],[39.6623,14.8192,1654.344],[39.6707,14.8367,1906.5336],[39.666,14.8424,1865.2825],[39.639,14.8565,1685.4631],[39.6327,14.8727,1915.7114],[39.6272,14.8823,2004.5189],[39.625,14.8818,2105.7729],[39.6203,14.8677,1924.6025],[39.6076,14.8716,2431.8481],[39.5943,14.8715,2335.728],[39.5881,14.8735,2047.4893],[39.5838,14.8858,1558.5425],[39.5768,14.8976,1616.981],[39.5726,14.9173,1509.1978],[39.5698,14.9233,1456.8988],[39.5601,14.9265,1946.2177],[39.5447,14.9234,1829.0417],[39.5396,14.9247,1861.6998],[39.5462,14.9444,1490.4883],[39.5448,14.9539,1695.3555],[39.5384,14.9567,1309.4092],[39.5299,14.9564,1247.918],[39.5275,14.9608,1110.9852],[39.5233,14.964,1119.3157],[39.5113,14.9648,1406.652],[39.5053,14.9729,1278.1628],[39.4842,14.9935,1859.9639],[39.4699,15.0051,1728.8611],[39.4603,15.0107,2169.1689],[39.4461,15.0171,2026.2991],[39.4246,15.0191,1783.9266],[39.4176,15.0184,1670.533],[39.4141,15.0204,1789.5538],[39.4113,15.0259,1712.3728],[39.4102,15.0356,1894.5461],[39.4042,15.0423,1521.957],[39.405,15.0508,1738.2473],[39.4021,15.0558,1525.5388],[39.3992,15.0584,1464.4805],[39.3779,15.0591,1521.2334],[39.3726,15.0627,1843.4417],[39.3645,15.0737,1838.1616],[39.3568,15.0906,1712.7629],[39.3383,15.1109,2157.8357],[39.3255,15.1163,2277.0181],[39.3216,15.1198,2320.7573],[39.3195,15.1295,2387.4297],[39.3149,15.135,2362.0571],[39.3099,15.1368,2428.2542],[39.304,15.1362,2375.3408],[39.2824,15.1232,1794.3221],[39.2748,15.1233,1752.652],[39.2672,15.1274,1896.5204],[39.2619,15.1374,1747.3022],[39.2656,15.1563,1837.1028],[39.2596,15.1599,1802.6942],[39.2656,15.1692,1657.5797],[39.2648,15.1711,1633.4707],[39.2583,15.1733,1606.8322],[39.2432,15.1735,1655.307],[39.2312,15.1814,1822.0391],[39.2183,15.1977,1884.7704],[39.2125,15.2114,1520.9769],[39.2023,15.229,1442.0654],[39.1898,15.2432,1337.5269],[39.1695,15.2539,1264.7698],[39.1447,15.2613,1292.5048],[39.0922,15.2689,1596.1315],[39.0853,15.2711,1624.1019],[39.0817,15.2634,1819.1207],[39.0795,15.2434,2012.5602],[39.076,15.2368,1992.8655],[39.0706,15.2336,1893.5962],[39.0568,15.234,1902.6918],[39.0506,15.2325,1746.6981],[39.0349,15.2097,1998.5229],[39.0274,15.1825,1859.7407],[39.0199,15.182,1898.1855],[39.0151,15.1763,1910.5546],[39.0082,15.1786,2071.532],[39.0088,15.1729,2226.3506],[39.0064,15.1656,2246.6104],[39.0075,15.1619,2228.3469],[39.0059,15.148,2199.105],[39.001,15.1409,2185.4922],[38.9874,15.1504,2174.647],[38.9806,15.1505,2136.5156],[38.9794,15.1457,2138.4209],[38.981,15.1361,2167.9714],[38.9782,15.1239,2110.3237],[38.9758,15.1235,2096.9221],[38.9692,15.1268,2091.3022],[38.9669,15.1186,2066.5212],[38.963,15.1183,2098.2832],[38.9592,15.1156,2034.238],[38.9535,15.1164,2081.4065],[38.935,15.1279,2079.9597],[38.9397,15.1341,2059.7769],[38.9394,15.1368,2069.4438],[38.9374,15.1382,2097.8281],[38.9347,15.1376,2127.2234],[38.9324,15.1311,2007.0765],[38.9299,15.1299,2018.9879],[38.9254,15.1228,2046.8822],[38.9223,15.1313,2011.7528],[38.9212,15.1271,1988.7212],[38.9188,15.1257,1974.7385],[38.9026,15.1366,2009.8098],[38.8988,15.137,2026.5607],[38.8883,15.1427,2019.6855],[38.8835,15.1437,2024.7566],[38.8801,15.1386,2002.1099],[38.8771,15.1416,2022.4672],[38.8737,15.1421,1998.187],[38.8743,15.1458,2029.6042],[38.8727,15.1477,2021.3848],[38.8677,15.1478,2000.0608],[38.8651,15.1452,1994.0839],[38.861,15.145,2005.4447],[38.8609,15.1541,2027.2747],[38.8595,15.1565,2025.8044],[38.8563,15.1554,2022.8878],[38.8551,15.1605,2036.7865],[38.8532,15.161,2052.6016],[38.8493,15.1557,2052.895],[38.8458,15.155,2061.6128],[38.8444,15.163,2080.1956],[38.8278,15.177,2061.8691],[38.8212,15.1771,2009.1758],[38.8116,15.1817,2030.5598],[38.8097,15.1888,2017.6987],[38.7968,15.1917,2032.3728],[38.7893,15.1911,2052.0278],[38.7881,15.1881,2052.7671],[38.7856,15.188,2071.6287],[38.7829,15.1932,2090.4309],[38.785,15.1982,2069.4966],[38.7841,15.201599999999999,2074.2273],[38.7804,15.1973,2082.75],[38.7632,15.1952,2136.5586],[38.746,15.1999,2267.8154],[38.7189,15.2013,2440.5637],[38.7135,15.2084,2337.6621],[38.7102,15.2097,2290.6709],[38.7095,15.2147,2257.7446],[38.7072,15.2182,2246.05],[38.6986,15.2081,2209.55],[38.6687,15.1955,1960.762],[38.6539,15.1849,1649.7384],[38.6487,15.184,1629.2754],[38.6354,15.1861,1749.0032],[38.6156,15.1802,1636.3972],[38.6054,15.1804,1626.8131],[38.5821,15.1947,1456.9282],[38.5688,15.1983,1389.5817],[38.5583,15.194,1426.8245],[38.5426,15.1797,1490.0262],[38.537,15.1789,1330.8754],[38.5259,15.1813,1340.9957],[38.5168,15.1752,1221.9926],[38.5114,15.1736,1264.8765],[38.4761,15.181,1158.5425],[38.4573,15.1749,1075.8184],[38.4456,15.177,1065.5847],[38.4182,15.1865,979.5482],[38.4032,15.1881,986.6577],[38.3929,15.187,971.0963],[38.3898,15.1823,957.056],[38.3921,15.1728,954.4691],[38.397,15.1679,956.644],[38.4055,15.1541,1129.2891],[38.4216,15.133,1347.9563],[38.4235,15.115,1079.3965],[38.4272,15.1069,1123.301],[38.4316,15.1029,1177.726],[38.4427,15.0971,1120.6636],[38.4636,15.095,1188.6005],[38.4733,15.0892,1245.1951],[38.4727,15.0627,1191.2405],[38.4649,15.0175,1568.6613],[38.462,15.0096,1553.5652],[38.4561,15.004,1587.7617],[38.4344,14.9958,1535.5654],[38.4228,14.9959,1510.5388],[38.4143,14.9939,1631.4463],[38.4091,14.9896,1583.2358],[38.4001,14.9767,1480.8577],[38.3942,14.9723,1541.4385],[38.3679,14.9651,1588.6572],[38.3539,14.9486,1582.0013],[38.3222,14.9335,1375.7522],[38.3133,14.9214,1288.3781],[38.3116,14.9208,1270.3691],[38.2943,14.9304,1296.3602],[38.2793,14.9346,1416.0618],[38.2692,14.9344,1296.5593],[38.2566,14.9318,1271.8051],[38.2486,14.9364,1238.9534],[38.2431,14.9375,1327.98],[38.2366,14.9265,1342.4779],[38.2271,14.9197,1282.8479],[38.2217,14.9123,1242.4918],[38.2236,14.9083,1239.1643],[38.228,14.9058,1186.3396],[38.2602,14.8958,1267.9031],[38.2698,14.8953,1363.9238],[38.2907,14.899,1274.4066],[38.3001,14.8965,1254.496],[38.3067,14.8899,1362.3555],[38.3147,14.8743,1294.3772],[38.3305,14.8655,1344.7324],[38.3415,14.8541,1480.5471],[38.3673,14.8444,1468.5121],[38.3864,14.8327,1577.0546],[38.4072,14.8239,1635.4092],[38.4128,14.8158,1725.6022],[38.412,14.7986,1830.3239],[38.4089,14.7848,1799.2389],[38.3754,14.7504,1583.97],[38.3642,14.7089,1336.0959],[38.3531,14.6927,1155.9163],[38.341,14.6909,1121.1267],[38.3146,14.6995,1133.6971],[38.3059,14.6985,1211.4163],[38.2908,14.6936,1170.5469],[38.2707,14.6933,1070.5684],[38.2626,14.6908,1093.6576],[38.2493,14.6758,1048.2793],[38.2611,14.6671,1055.0601],[38.2645,14.6388,1050.356],[38.2691,14.6344,1051.4414],[38.2663,14.6278,1064.147],[38.2645,14.6141,1077.5149],[38.2711,14.6105,1086.0656],[38.2861,14.6075,1150.9851],[38.292,14.6024,1093.0181],[38.2931,14.5948,1088.7493],[38.3079,14.5851,1087.0509],[38.3104,14.5787,1093.8232],[38.3153,14.5735,1079.2682],[38.3134,14.5681,1095.2882],[38.3152,14.5507,1216.3451],[38.3297,14.5315,1115.6584],[38.3364,14.5289,1121.8374],[38.3409,14.522,1094.121],[38.3398,14.5138,1120.306],[38.3432,14.5077,1141.6418],[38.3493,14.5095,1111.6987],[38.3559,14.5067,1114.0692],[38.3561,14.4993,1108.1956],[38.3622,14.4868,1132.9344],[38.3689,14.4844,1129.1489],[38.3734,14.4802,1232.6372],[38.3884,14.4796,1221.5515],[38.3948,14.4815,1224.9434],[38.3981,14.4765,1142.9023],[38.3989,14.4701,1206.8853],[38.4015,14.465,1147.5649],[38.4208,14.4637,1269.2205],[38.4322,14.428,1157.8683],[38.4387,14.4268,1268.0585],[38.4427,14.4222,1282.6104],[38.4427,14.4161,1397.8621],[38.4474,14.4104,1383.1292],[38.4562,14.4094,1309.3259],[38.4723,14.4131,1224.8521],[38.4776,14.4166,1145.6973],[38.4837,14.4182,1165.1182],[38.4986,14.4119,1305.8628],[38.506,14.4133,1431.9585],[38.5159,14.4051,1367.1102],[38.521,14.4109,1238.6808],[38.5374,14.4201,1268.2966],[38.5436,14.4225,1225.5864],[38.5491,14.4223,1328.9666],[38.5547,14.4257,1174.0754],[38.5611,14.426,1386.6184],[38.5721,14.433,1185.5408],[38.6013,14.4393,1250.7939],[38.6083,14.4386,1286.8976],[38.6158,14.4335,1211.0244],[38.6313,14.4405,1241.8146],[38.6391,14.4395,1282.1239],[38.6468,14.4412,1252.024],[38.6542,14.445,1268.375],[38.6616,14.4455,1244.4171],[38.6649,14.4504,1210.1152]]]]}
,"properties": {"GID_1": "ERI.5_1","GID_0": "ERI","country": "Eritrea","province": "Debub","VARNAME_1": "Southern|al-Janubiyah","NL_NAME_1": "ዞባደቡብ","TYPE_1": "Zoba","ENGTYPE_1": "Region","CC_1": "NA","HASC_1": "ER.DU","ISO_1": "NA","name": "Debub.province","area_km2": 9465.358,"hist_schema_id": "Elevation0-9000","hist_area_km2": {"950": 1.248,"975": 6.63,"1000": 5.157,"1025": 5.097,"1050": 14.905,"1075": 24.979,"1100": 29.782,"1125": 38.193,"1150": 45.184,"1175": 59.84,"1200": 78.765,"1225": 83.105,"1250": 93.315,"1275": 105.033,"1300": 115.373,"1325": 115.964,"1350": 119.821,"1375": 124.434,"1400": 129.621,"1425": 149.486,"1450": 184.956,"1475": 242.264,"1500": 316.6,"1525": 318.298,"1550": 295.968,"1575": 276.194,"1600": 277.659,"1625": 259.074,"1650": 254.675,"1675": 242.328,"1700": 236.752,"1725": 229.389,"1750": 236.538,"1775": 235.527,"1800": 264.681,"1825": 266.308,"1850": 263.805,"1875": 289.114,"1900": 309.128,"1925": 325.74,"1950": 318.222,"1975": 269.561,"2000": 241.501,"2025": 203.409,"2050": 181.383,"2075": 149.374,"2100": 122.106,"2125": 121.119,"2150": 105.092,"2175": 97.559,"2200": 87.206,"2225": 76.582,"2250": 66.976,"2275": 60.564,"2300": 56.834,"2325": 62.398,"2350": 73.655,"2375": 78.664,"2400": 66.916,"2425": 64.695,"2450": 38.9,"2475": 34.309,"2500": 31.502,"2525": 29.166,"2550": 29.245,"2575": 24.961,"2600": 19.921,"2625": 16.088,"2650": 15.167,"2675": 12.769,"2700": 10.393,"2725": 7.832,"2750": 4.797,"2775": 3.219,"2800": 2.829,"2825": 2.419,"2850": 2.296,"2875": 1.415,"2900": 1.374,"2925": 0.8,"2950": 0.841,"2975": 0.328}}}