{"type":"Feature","properties":{"ISO3166-1-Alpha-3":"ERI","country":"Eritrea","fill":"#FF0","id":"1562","name":"Debub"},
"geometry":{"type": "MultiPolygon","coordinates": [[[[40.02622,15.88264,0.0],[39.98748,15.89106,0.0],[39.95094,15.89395,0.0],[39.95102,15.89387,0.0],[39.96315,15.8771,0.0],[39.97438,15.87177,4.0923],[40.00929,15.87401,3.0551],[40.00937,15.87397,3.0551],[40.01938,15.86811,0.8797],[40.03077,15.85432,0.8421],[40.03745,15.83845,0.0],[40.03745,15.83841,0.0],[40.03346,15.82624,0.0],[40.03216,15.82632,0.0],[40.02125,15.82705,0.0],[39.99497,15.82469,0.0],[39.97527,15.81538,0.0],[39.97527,15.81533,0.0],[39.97641,15.81196,0.0],[39.98194,15.79523,0.0],[39.99391,15.7779,1.3462],[39.99,15.76992,0.5842],[39.97674,15.77098,0.0],[39.97055,15.77485,0.0],[39.94679,15.78986,0.0],[39.93377,15.78823,1.8175],[39.92498,15.77704,0.0],[39.92359,15.75731,0.3733],[39.93043,15.73957,10.7902],[39.94215,15.7364,1.2891],[39.97511,15.74307,10.8359],[40.0088,15.73656,22.5188],[40.03858,15.71898,32.2789],[40.063,15.69286,30.6315],[40.08131,15.66112,0.0],[40.03932,15.6481,0.0],[40.0267,15.64749,0.0],[40.02662,15.64745,0.0],[40.01539,15.65192,0.0],[40.00148,15.65961,0.0],[39.98829,15.6647,0.0],[39.97885,15.66112,0.0],[39.97153,15.66112,5.0366],[39.97145,15.66112,5.0366],[39.969,15.6704,1.945],[39.9673,15.67373,5.4761],[39.9651,15.67792,0.0],[39.95899,15.68391,3.324],[39.95094,15.68842,5.6851],[39.95688,15.69538,3.5048],[39.95672,15.69595,0.4987],[39.95574,15.69969,0.0],[39.94874,15.70185,0.0],[39.93735,15.70209,7.8621],[39.96388,15.62629,2.4641],[39.97039,15.61766,0.0],[39.97885,15.60651,0.0],[39.97901,15.60651,0.0],[40.00148,15.61127,7.5182],[40.01515,15.60859,0.0568],[40.02036,15.60757,3.2646],[40.0608,15.59223,9.473],[40.0853,15.58763,3.297],[40.10222,15.58906,2.3091],[40.11378,15.59756,1.0607],[40.12281,15.61396,3.4706],[40.12289,15.61388,3.4706],[40.12705,15.61034,2.5463],[40.12941,15.6083,1.6436],[40.13339,15.60326,1.4879],[40.13933,15.59585,0.1726],[40.14332,15.59223,0.0],[40.14877,15.59125,0.7819],[40.1587,15.58954,4.1525],[40.20826,15.59968,7.1079],[40.23113,15.59642,10.3841],[40.26596,15.57998,0.0],[40.28736,15.57298,11.9233],[40.30812,15.57453,11.8224],[40.35662,15.58617,10.423],[40.3659,15.58413,9.0151],[40.37289,15.58259,8.9723],[40.39357,15.5725,12.6463],[40.39389,15.57233,12.6463],[40.40805,15.58002,6.9353],[40.41424,15.59829,0.9936],[40.40626,15.63813,0.0],[40.40113,15.64077,0.0],[40.3864,15.64126,0.0],[40.37355,15.64435,0.0],[40.35271,15.65803,0.0],[40.33855,15.66112,0.0],[40.32993,15.66425,3.049],[40.32691,15.67182,3.4488],[40.32545,15.68085,0.8607],[40.32154,15.68842,0.0],[40.31511,15.69343,0.0],[40.31145,15.69526,0.0],[40.30763,15.69721,0.0],[40.29859,15.70002,0.0],[40.28736,15.70209,0.0],[40.26694,15.70352,0.0],[40.24448,15.70209,0.0],[40.22657,15.69648,0.0],[40.21909,15.68537,0.0],[40.21917,15.68533,0.0],[40.22779,15.67402,6.4746],[40.24806,15.66812,4.7307],[40.26157,15.66323,0.0],[40.25318,15.66112,0.0],[40.24741,15.65502,0.0],[40.23211,15.62702,0.0],[40.17359,15.64362,0.0],[40.16383,15.64435,0.0],[40.16017,15.65241,0.0],[40.14243,15.68146,6.2219],[40.14129,15.68411,6.1062],[40.13592,15.69587,6.6759],[40.13307,15.71117,5.4916],[40.13893,15.79222,6.4691],[40.13876,15.79332,6.4691],[40.13649,15.80622,1.3737],[40.12599,15.81192,0.0],[40.12599,15.81196,0.0],[40.11541,15.80903,0.0],[40.11622,15.80256,0.3828],[40.1211,15.7958,4.3246],[40.12281,15.79214,0.6682],[40.11459,15.78779,0.0],[40.10515,15.78425,0.0],[40.09571,15.78461,0.0],[40.08815,15.79214,0.0],[40.09018,15.80313,0.8273],[40.1006,15.81415,2.9312],[40.10556,15.82864,0.0],[40.10564,15.82868,0.0],[40.101,15.83564,0.0],[40.09156,15.84984,0.0],[40.08481,15.85432,0.0],[40.06267,15.86884,0.0],[40.02622,15.88264,0.0]]],
[[[40.11451,15.98591,0.4401],[40.10963,15.9951,0.1919],[40.09938,16.0021,0.0],[40.0923,16.00878,0.7977],[40.08367,16.01333,0.9198],[40.0774,16.01903,0.0596],[40.08058,16.03417,0.0],[40.09539,16.04735,0.0],[40.11199,16.05288,0.3017],[40.11883,16.062,2.1838],[40.11101,16.07396,2.3471],[40.09295,16.08173,4.8558],[40.08302,16.08397,0.1973],[40.07569,16.08808,0.0],[40.05047,16.10725,3.7481],[40.04322,16.10309,2.3596],[40.04135,16.09211,1.7699],[40.04176,16.08161,0.4069],[40.04379,16.07184,0.5071],[40.04721,16.06346,0.0],[40.03834,16.05793,0.0],[40.01588,16.05614,1.324],[39.99822,16.04963,7.3812],[39.99024,16.03425,3.0311],[39.99,16.01773,2.8319],[40.00001,16.00776,2.8703],[40.04298,16.0034,0.0],[40.06739,15.99046,0.8991],[40.09669,15.981019999999999,3.478],[40.11451,15.98591,0.4401]]],
[[[38.78972,17.66889,0.0],[38.69581,17.80663,0.0],[38.69093,17.82364,0.0],[38.68784,17.82941,0.0],[38.66977,17.85399,0.0],[38.66749,17.86445,0.0],[38.66627,17.88496,0.0],[38.66293,17.89496,0.0],[38.62037,17.95258,0.0],[38.61305,17.98347,0.0],[38.60369,17.99437,0.0],[38.60157,18.00483,0.0],[38.45929,17.89074,58.8376],[38.43159,17.85199,83.432],[38.37133,17.69882,165.2908],[38.34374,17.65593,517.9725],[38.32348,17.64089,330.559],[38.27387,17.61779,1363.3252],[38.25661,17.60254,969.6051],[38.25155,17.5828,946.9344],[38.25279,17.56162,1472.7578],[38.2502,17.54182,1403.4113],[38.23336,17.5257,1637.5701],[38.20969,17.52229,1547.4883],[38.19201,17.53273,2165.9189],[38.17682,17.54756,1616.8479],[38.1606,17.55733,1154.0122],[38.12535,17.54653,1216.7366],[38.11946,17.5456,1469.0714],[38.11491,17.53666,1402.3386],[38.11615,17.5303,1355.3835],[38.11874,17.52343,1433.2164],[38.11843,17.51294,1340.5662],[38.10799,17.49382,1717.9341],[38.09145,17.48002,1546.4446],[38.07647,17.47986,1908.8368],[38.07078,17.50147,2516.49],[38.07223,17.52146,2451.2041],[38.0712,17.5381,2467.189],[38.06179,17.54808,2475.6335],[38.03885,17.54818,2478.885],[38.01538,17.53996,2309.1877],[38.01442,17.53934,2309.1877],[38.01601,17.52924,2426.0706],[38.02329,17.41744,1680.5963],[38.00624,17.00733,771.6121],[37.99492,16.95801,632.8201],[37.98779,16.93731,637.3961],[37.98593,16.91352,548.8955],[37.99306,16.89308,577.1968],[38.01492,16.86543,598.6308],[38.03058,16.84889,635.4464],[38.0435,16.83135,756.4615],[38.04892,16.81081,793.1757],[38.05001,16.77874,922.0872],[38.03538,16.71386,926.3514],[38.03228,16.68402,899.8524],[38.03833,16.66133,1027.1532],[38.06102,16.63793,600.2174],[38.08582,16.62601,811.8112],[38.31361,16.58661,1956.9786],[38.32462,16.5778,2032.0273],[38.33071,16.56318,1604.124],[38.33707,16.54256,1443.5316],[38.34591,16.52256,1772.0825],[38.36575,16.49455,1754.6077],[38.37815,16.47269,2284.4209],[38.39293,16.41884,1621.5447],[38.40301,16.39347,2169.3926],[38.42549,16.36903,2136.2107],[38.44895,16.34931,1923.4297],[38.47453,16.32009,1761.9293],[38.50326,16.26994,1536.874],[38.51551,16.23601,1538.1467],[38.52171,16.2064,1638.6409],[38.52249,16.18356,1409.8625],[38.5197,16.16387,1655.8793],[38.51473,16.14969,1820.5636],[38.5059,16.13398,1427.5369],[38.49923,16.11597,1316.7214],[38.49613,16.09129,1449.5442],[38.49846,16.01003,1617.4406],[38.50931,15.97706,1357.5106],[38.53101,15.94967,1830.9814],[38.5799,15.91758,1647.2126],[38.62661,15.89867,1492.147],[38.67395,15.88513,2042.6796],[38.80893,15.86867,1657.6492],[38.8218,15.85968,1494.9885],[38.83658,15.8412,1323.0485],[38.92468,15.69806,767.9167],[38.95869,15.57569,1098.5969],[38.97605,15.53164,1017.8549],[39.00044,15.48616,1611.5868],[39.0915,15.35023,1984.421],[39.14999,15.28801,1571.7375],[39.19795,15.2469,1241.3352],[39.28456,15.20235,1747.5082],[39.32626,15.17602,1798.975],[39.35794,15.12592,1772.2712],[39.37871,15.07908,1431.2543],[39.66769,14.59456,1164.9502],[39.72283,14.50198,1299.7216],[39.72298,14.50172,1299.7216],[39.73507,14.50372,1174.5764],[39.76691,14.50477,822.4406],[39.79688,14.49511,832.7565],[39.82447,14.47814,688.5663],[39.87708,14.43362,411.5106],[39.89227,14.42656,406.3973],[39.91119,14.42341,216.3379],[39.93072,14.42878,205.4647],[39.96152,14.45421,188.2276],[39.97981,14.45873,159.4071],[39.99984,14.45524,261.3767],[40.02322,14.45116,253.0148],[40.03748,14.45152,343.1508],[40.08689,14.46576,895.7012],[40.10456,14.46597,375.7029],[40.19437,14.44465,-121.2041],[40.23768,14.42744,-122.4619],[40.27706,14.40457,-122.4637],[40.35369,14.33524,-119.919],[40.35369,14.33525,-119.919],[40.36439,14.3539,-114.9718],[40.43637,14.47059,-29.6284],[40.48666,14.57805,76.9025],[40.57575,14.70153,11.3032],[40.59109,14.73879,23.3278],[40.59543,14.776,23.1196],[40.59295,14.81703,14.6968],[40.57327,14.91322,7.5145],[40.57125,14.94454,28.3961],[40.57234,14.95121,11.9696],[40.57234,14.95121,11.9696],[40.5687,14.95051,21.5563],[40.56105,14.95539,38.4127],[40.55592,14.9641,5.2428],[40.55584,14.97297,0.8793],[40.55665,14.98168,1.474],[40.55421,14.99018,1.4203],[40.52703,14.99702,0.0],[40.52312,15.0017,0.0],[40.51832,15.01252,0.0],[40.51271,15.01748,0.0],[40.51295,14.99877,0.0],[40.51515,14.99079,0.0],[40.52019,14.98273,0.0],[40.51637,14.97663,0.0],[40.51149,14.97053,0.0],[40.50563,14.96528,0.0],[40.49903,14.96223,-0.0188],[40.48951,14.96255,0.0],[40.48561,14.96768,0.0],[40.4826,14.97358,0.0],[40.47535,14.97651,0.3572],[40.46315,14.97968,0.0],[40.46111,14.98656,0.0],[40.46323,14.9936,0.0],[40.46485,14.99702,0.1193],[40.45444,15.00446,0.0],[40.45143,15.00385,8.4886],[40.44068,15.00324,0.0],[40.4227,14.99901,0.0],[40.42075,14.98924,1.7172],[40.42302,14.97785,2.5888],[40.41774,14.96906,0.0],[40.40138,14.96613,0.0],[40.3921,14.97358,0.0],[40.38852,14.98737,0.9906],[40.38982,15.00324,0.0],[40.37574,14.98672,0.0],[40.36297,14.9641,0.0],[40.34718,14.94408,0.0],[40.32455,14.93553,0.0],[40.30177,14.9169,0.0],[40.28679,14.91348,0.0],[40.27996,14.93183,0.0],[40.27263,14.93757,0.0],[40.2566,14.94526,0.0],[40.18263,14.97085,0.7459],[40.15943,14.98225,1.2836],[40.14959,15.00007,83.8726],[40.15089,15.00707,93.7698],[40.1565,15.02204,4.7279],[40.15707,15.03115,1.3224],[40.15431,15.0373,0.0],[40.14967,15.03832,19.3716],[40.14527,15.04019,8.3111],[40.14332,15.04853,3.4623],[40.13893,15.05866,0.0],[40.12794,15.06623,0.0],[40.11427,15.06904,0.1976],[40.10182,15.06464,12.8999],[40.0975,15.07583,0.0],[40.09848,15.08881,7.0602],[40.10125,15.10187,0.7276],[40.10182,15.11302,0.0],[40.09718,15.12588,0.0],[40.08416,15.1518,0.0],[40.08131,15.16454,0.0],[40.07594,15.17316,0.0],[40.0525,15.19013,0.0],[40.04721,15.19843,2.8447],[40.04623,15.201,2.443],[40.04151,15.20498,2.1486],[40.03972,15.2093,0.8648],[40.04127,15.21247,0.8395],[40.05152,15.21625,0.9286],[40.05397,15.21922,3.9757],[40.05201,15.22956,5.1419],[40.04623,15.23579,0.0],[40.03777,15.23819,0.0],[40.02662,15.23721,0.5081],[40.04176,15.27485,9.1592],[40.04721,15.28437,6.7401],[40.05616,15.2934,9.6052],[40.07407,15.30728,6.9977],[40.08131,15.31916,3.5798],[40.08318,15.33023,1.9281],[40.07993,15.34073,0.0],[40.07244,15.35073,0.0],[40.0608,15.36009,0.0],[40.05079,15.36612,0.0],[40.04282,15.36888,0.0],[40.01979,15.37377,4.8118],[40.00514,15.38101,7.796],[39.91,15.45742,1.2549],[39.88998,15.47822,0.8151],[39.87525,15.5041,10.7229],[39.86598,15.49299,0.0],[39.85271,15.47158,0.0],[39.84164,15.46312,0.0],[39.84205,15.47297,0.866],[39.84164,15.47614,0.0],[39.83562,15.47614,5.4378],[39.82911,15.45685,1.8469],[39.82814,15.44888,0.0],[39.8213,15.44888,0.0],[39.80714,15.45889,0.0],[39.80047,15.44892,0.0],[39.79379,15.41474,0.0],[39.78793,15.40868,0.0],[39.78126,15.40672,0.0],[39.77573,15.40274,0.0],[39.77345,15.39053,0.0],[39.77459,15.37938,0.0],[39.77963,15.36042,0.0],[39.78094,15.34927,0.0],[39.77849,15.29759,0.0],[39.78094,15.27814,0.0],[39.78972,15.25747,0.0],[39.7964,15.26602,9.4753],[39.80445,15.28144,4.3096],[39.81772,15.28124,5.5631],[39.82594,15.26691,12.3059],[39.83676,15.22679,0.0],[39.85678,15.19294,33.5099],[39.85467,15.17349,10.0518],[39.83562,15.14037,0.0],[39.8235,15.13227,0.0],[39.81967,15.1258,0.0],[39.82472,15.11652,12.3212],[39.82618,15.10822,27.3883],[39.82374,15.09565,1.0132],[39.81821,15.08397,0.0],[39.81129,15.07892,0.0],[39.7894,15.07559,0.0],[39.77369,15.07103,0.0],[39.76222,15.07392,5.9117],[39.75229,15.0926,0.0],[39.73813,15.08564,0.5844],[39.72511,15.08617,1.2138],[39.71559,15.09406,0.0],[39.71209,15.10932,0.0],[39.70981,15.11302,0.0],[39.70045,15.11953,0.6369],[39.69825,15.1236,0.0],[39.70338,15.20938,1.4983],[39.71827,15.2639,0.0],[39.70769,15.27387,0.0],[39.69899,15.28803,0.0],[39.69304,15.30467,0.0],[39.69077,15.32221,0.0],[39.68653,15.32563,0.0],[39.66774,15.33251,0.0],[39.66358,15.33617,0.0],[39.61134,15.49999,0.0],[39.58717,15.5314,0.0],[39.57203,15.5384,0.0],[39.55177,15.5423,0.0],[39.53395,15.53978,0.0],[39.52638,15.52802,3.2325],[39.51686,15.52009,6.5388],[39.49488,15.51752,0.0],[39.47169,15.51944,1.2817],[39.45753,15.5246,2.0399],[39.45525,15.53189,3.7295],[39.45069,15.56558,1.0511],[39.43247,15.59365,5.4246],[39.43019,15.60309,8.5779],[39.44093,15.60318,3.3393],[39.46339,15.6059,0.0],[39.48276,15.61494,0.0],[39.48487,15.63386,0.0],[39.47495,15.64265,7.3218],[39.46404,15.63833,0.552],[39.45493,15.62812,1.7038],[39.45069,15.61957,3.9378],[39.44459,15.63524,4.929],[39.44874,15.64981,8.2612],[39.46062,15.65961,6.68],[39.47788,15.66112,0.0],[39.45086,15.6905,0.0],[39.44532,15.70653,1.0731],[39.44386,15.73314,0.0],[39.44068,15.74091,0.0],[39.42652,15.7558,0.0],[39.42335,15.76756,2.3525],[39.42644,15.77814,1.8834],[39.43263,15.78815,1.5866],[39.43751,15.79902,1.6757],[39.43702,15.81196,0.0],[39.42701,15.82038,0.0],[39.39039,15.83633,0.0],[39.3825,15.84296,0.0],[39.37322,15.85847,0.0],[39.31349,15.89395,1.2057],[39.29412,15.92878,1.1381],[39.25896,16.05899,0.0],[39.23561,16.10871,0.0],[39.23219,16.12385,0.0],[39.22804,16.16804,0.0],[39.19744,16.29857,0.0],[39.19728,16.31281,1.0721],[39.20338,16.33755,0.0],[39.20484,16.3498,0.0],[39.20314,16.36221,0.0],[39.1941,16.37812,1.6059],[39.1906,16.38736,5.4032],[39.18922,16.39989,0.3753],[39.1906,16.43944,1.9429],[39.18898,16.45181,0.0],[39.18507,16.46052,0.0],[39.18067,16.46821,0.0],[39.17701,16.47736,0.2439],[39.17555,16.48664,0.0],[39.17701,16.52143,0.0],[39.17164,16.52485,0.6407],[39.16066,16.52513,0.0],[39.15089,16.52945,1.1326],[39.14967,16.54499,0.7445],[39.1565,16.53815,0.0],[39.16098,16.56379,2.1797],[39.14487,16.60936,1.9843],[39.16334,16.62816,0.0],[39.16139,16.65717,0.0],[39.15594,16.67914,0.0],[39.136,16.72378,0.0],[39.14967,16.71695,0.0],[39.12794,16.79487,0.0],[39.09498,16.86774,0.0],[39.09002,16.88422,0.0],[39.08448,16.92487,0.0],[39.06886,16.95392,0.0],[39.06365,16.97427,0.0],[39.06031,17.01484,0.0],[39.05592,17.03413,0.0],[39.02613,17.09309,0.0],[39.01759,17.1267,0.0],[39.01246,17.16535,0.0],[38.99855,17.19595,0.0],[38.9712,17.22333,0.0],[38.95265,17.25349,3.8025],[38.96469,17.2923,0.0],[38.9533,17.31224,0.0],[38.92905,17.39712,0.0],[38.85963,17.51325,5.2515],[38.78972,17.66889,0.0]]]]}}