{"type": "Feature","id": "1563","bbox": [36.87654,15.54487,38.95869,17.53934],"geometry": {"type": "Polygon","coordinates": [[[38.95869,15.57569,1098.5969],[38.92468,15.69806,767.9167],[38.83658,15.8412,1323.0485],[38.8218,15.85968,1494.9885],[38.80893,15.86867,1657.6492],[38.67395,15.88513,2042.6796],[38.62661,15.89867,1492.147],[38.5799,15.91758,1647.2126],[38.53101,15.94967,1830.9814],[38.50931,15.97706,1357.5106],[38.49846,16.01003,1617.4406],[38.49613,16.09129,1449.5442],[38.49923,16.11597,1316.7214],[38.5059,16.13398,1427.5369],[38.51473,16.14969,1820.5636],[38.5197,16.16387,1655.8793],[38.52249,16.18356,1409.8625],[38.52171,16.2064,1638.6409],[38.51551,16.23601,1538.1467],[38.50326,16.26994,1536.874],[38.47453,16.32009,1761.9293],[38.44895,16.34931,1923.4297],[38.42549,16.36903,2136.2107],[38.40301,16.39347,2169.3926],[38.39293,16.41884,1621.5447],[38.37815,16.47269,2284.4209],[38.36575,16.49455,1754.6077],[38.34591,16.52256,1772.0825],[38.33707,16.54256,1443.5316],[38.33071,16.56318,1604.124],[38.32462,16.5778,2032.0273],[38.31361,16.58661,1956.9786],[38.08582,16.62601,811.8112],[38.06102,16.63793,600.2174],[38.03833,16.66133,1027.1532],[38.03228,16.68402,899.8524],[38.03538,16.71386,926.3514],[38.05001,16.77874,922.0872],[38.04892,16.81081,793.1757],[38.0435,16.83135,756.4615],[38.03058,16.84889,635.4464],[38.01492,16.86543,598.6308],[37.99306,16.89308,577.1968],[37.98593,16.91352,548.8955],[37.98779,16.93731,637.3961],[37.99492,16.95801,632.8201],[38.00624,17.00733,771.6121],[38.02329,17.41744,1680.5963],[38.01601,17.52924,2426.0706],[38.01442,17.53934,2309.1877],[37.94686,17.49573,1344.1838],[37.91555,17.45702,526.1576],[37.89591,17.44255,553.1122],[37.87203,17.43728,659.8275],[37.84919,17.444,495.2408],[37.81922,17.4717,512.1512],[37.79886,17.47713,516.1741],[37.76393,17.45909,402.0316],[37.72042,17.38385,502.086],[37.67959,17.36344,573.3291],[37.63918,17.35801,583.041],[37.50679,17.31848,183.2326],[37.49604,17.31217,182.8262],[37.49356,17.30075,178.2245],[37.50472,17.25497,237.1688],[37.50565,17.23678,197.6271],[37.501,17.19508,200.5407],[37.49469,17.17461,205.7327],[37.47278,17.13699,228.5846],[37.46803,17.11467,224.5439],[37.45976,17.09472,255.9542],[37.40343,17.02992,246.6254],[37.30979,17.05534,345.1797],[37.28096,17.05297,426.0873],[37.23342,17.02465,417.932],[37.20313,17.02279,448.822],[37.18825,17.02491,474.197],[37.13399,17.01643,565.4631],[37.12407,17.01803,568.8931],[37.08542,17.04087,631.3619],[37.07508,17.04454,665.7809],[37.04935,17.04878,710.1824],[37.03147,17.05581,674.4556],[37.01638,17.06583,682.0081],[37.00046,17.0726,776.8738],[36.9801,17.07002,625.2977],[36.97348,17.06253,632.6843],[36.97337,17.06208,625.4631],[36.97131,17.0541,610.0844],[36.97359,17.04521,623.97],[36.99343,17.01865,680.9987],[36.99705,16.99953,968.072],[36.9924,16.9802,833.926],[36.96811,16.94662,617.5944],[36.97152,16.93581,629.8821],[36.98196,16.926,655.6143],[36.99064,16.91365,657.2192],[36.99312,16.90093,662.9703],[36.99126,16.86078,677.6632],[36.9926,16.85696,669.9274],[36.9985,16.84796,682.9066],[36.99974,16.84213,692.473],[36.99788,16.83799,696.4825],[36.99064,16.82998,675.0459],[36.98878,16.82554,675.9484],[36.98496,16.7657,802.7497],[36.96036,16.70565,727.4013],[36.94961,16.69185,679.7596],[36.91664,16.66896,597.8555],[36.90145,16.65573,622.1617],[36.89235,16.63687,648.8289],[36.8907,16.61914,599.6423],[36.89256,16.58653,593.8413],[36.88956,16.56721,597.3675],[36.87726,16.52731,579.8745],[36.87654,16.51357,584.1812],[36.88336,16.49042,598.1823],[36.89638,16.47274,594.9736],[36.91209,16.45662,772.5104],[36.92625,16.43827,658.4064],[36.92731,16.43539,668.2517],[36.95509,16.43088,837.3129],[36.97483,16.40298,868.2388],[36.98305,16.3814,709.6359],[36.9894,16.35518,538.3202],[36.99607,16.29963,566.1672],[37.00258,16.27474,576.9636],[37.00909,16.25927,568.1284],[37.01622,16.24919,587.509],[37.02366,16.24216,584.4154],[37.0325,16.23557,536.6585],[37.04092,16.22705,532.3655],[37.04914,16.21578,718.5946],[37.06309,16.18467,824.4403],[37.06991,16.1749,537.8128],[37.08371,16.16687,475.8164],[37.10655,16.1586,457.1059],[37.20024,16.13708,452.999],[37.25145,16.12023,429.4175],[37.31352,16.08385,419.8553],[37.3517,16.04664,407.8647],[37.38199,16.00158,412.8198],[37.40075,15.95926,427.6738],[37.41733,15.93562,431.4032],[37.43707,15.92151,441.286],[37.47165,15.91141,461.3763],[37.50193,15.89887,472.2757],[37.52053,15.88722,498.7448],[37.52813,15.87702,548.8085],[37.52968,15.86797,691.6098],[37.52906,15.85836,550.963],[37.53603,15.8512,503.9477],[37.55112,15.84616,505.744],[37.62388,15.84655,558.2169],[37.69447,15.85547,606.5571],[37.72243,15.85513,606.0315],[37.75034,15.84841,628.261],[37.78574,15.83136,717.6379],[37.81395,15.81188,710.5557],[37.83493,15.80121,839.6287],[37.85757,15.79679,748.6812],[37.8925,15.79586,747.8463],[37.91901,15.79237,760.2992],[37.95162,15.78273,903.166],[38.00918,15.7579,1307.7166],[38.1068,15.69426,747.2092],[38.12494,15.68832,740.554],[38.15021,15.69033,762.5917],[38.17165,15.69798,797.0826],[38.22721,15.72444,829.618],[38.25155,15.73222,863.4702],[38.27857,15.73149,901.2037],[38.31175,15.72188,923.2256],[38.35893,15.69201,946.939],[38.39231,15.66028,1053.5067],[38.41898,15.6252,992.4744],[38.44647,15.57321,871.8153],[38.46755,15.55833,938.3422],[38.50078,15.55011,948.5151],[38.68387,15.54487,1806.4324],[38.78629,15.5568,2236.6592],[38.79808,15.56569,2266.5474],[38.80629,15.56662,2271.811],[38.81978,15.56437,2242.9626],[38.82753,15.56034,2285.1372],[38.83906,15.55135,2267.0449],[38.84681,15.55073,2300.9707],[38.85812,15.55285,2497.0],[38.89554,15.56559,2323.1958],[38.95869,15.57569,1098.5969]]]}
,"properties": {"ISO3166-1-Alpha-3": "ERI","country": "Eritrea","fill": "#00F","name": "Semenawi Keyih Bahri","area_km2": 22450.09,"hist_schema_id": "Elevation0-9000","hist_area_km2": {"175": 15.41,"200": 32.42,"225": 45.28,"250": 88.52,"275": 174.34,"300": 297.92,"325": 546.11,"350": 742.98,"375": 858.14,"400": 959.34,"425": 985.5,"450": 867.59,"475": 805.03,"500": 749.6,"525": 668.26,"550": 580.25,"575": 532.7,"600": 540.41,"625": 477.45,"650": 426.54,"675": 415.27,"700": 379.05,"725": 355.14,"750": 364.43,"775": 374.42,"800": 342.7,"825": 330.17,"850": 317.36,"875": 318.41,"900": 302.66,"925": 277.19,"950": 262.89,"975": 248.2,"1000": 239.83,"1025": 227.16,"1050": 220.14,"1075": 205.21,"1100": 195.05,"1125": 189.55,"1150": 182.69,"1175": 177.4,"1200": 180.3,"1225": 181.57,"1250": 187.34,"1275": 202.66,"1300": 201.93,"1325": 200.82,"1350": 201.88,"1375": 211.07,"1400": 208.59,"1425": 209.93,"1450": 200.78,"1475": 200.16,"1500": 191.92,"1525": 188.83,"1550": 185.58,"1575": 180.88,"1600": 176.07,"1625": 172.73,"1650": 168.06,"1675": 170.36,"1700": 167.25,"1725": 164.33,"1750": 156.22,"1775": 152.16,"1800": 150.2,"1825": 144.36,"1850": 148.75,"1875": 141.74,"1900": 127.88,"1925": 116.01,"1950": 103.35,"1975": 87.48,"2000": 76.25,"2025": 61.87,"2050": 50.93,"2075": 47.36,"2100": 42.66,"2125": 40.15,"2150": 38.31,"2175": 36.99,"2200": 34.27,"2225": 29.09,"2250": 25.49,"2275": 25.85,"2300": 21.89,"2325": 20.77,"2350": 17.83,"2375": 15.77,"2400": 12.81,"2425": 10.91,"2450": 8.41,"2475": 8.79,"2500": 7.1,"2525": 5.68,"2550": 4.54,"2575": 3.18,"2600": 1.86,"2625": 0.99,"2650": 0.49}}}