{"type": "Feature","bbox": [37.9654,14.3801,40.8785,18.0067],"geometry": {"type": "MultiPolygon","coordinates": [[[[39.6345,14.6193,1481.2183],[39.6317,14.6053,1288.353],[39.6377,14.5984,1489.2977],[39.6574,14.5898,1388.3289],[39.6665,14.5922,1166.947],[39.6738,14.5882,1166.6932],[39.6803,14.5888,1098.694],[39.6968,14.569,1264.3079],[39.699,14.562,1049.1534],[39.7093,14.5514,1153.7716],[39.7152,14.5517,1085.6947],[39.7288,14.5468,1246.9786],[39.7503,14.5452,874.7489],[39.7668,14.5408,895.573],[39.7685,14.5332,771.07],[39.7745,14.5271,726.5954],[39.7854,14.5111,765.2731],[39.7915,14.5063,703.194],[39.7926,14.5002,823.1395],[39.801,14.4992,565.9883],[39.8067,14.4934,494.1162],[39.8132,14.4824,501.6246],[39.82,14.479,541.2087],[39.8257,14.4801,604.1396],[39.8313,14.4849,605.1885],[39.8414,14.4794,514.3911],[39.8468,14.4745,576.5054],[39.8566,14.472,337.0307],[39.8619,14.4658,322.7096],[39.8726,14.4619,299.0253],[39.8798,14.4521,282.006],[39.8905,14.4436,263.6125],[39.8952,14.4359,293.7649],[39.9114,14.4229,216.3379],[39.9237,14.415,200.8177],[39.9385,14.4087,200.9235],[39.9499,14.4106,185.4477],[39.958,14.4179,174.0652],[39.9714,14.4263,173.2909],[39.9715,14.4316,166.5407],[39.9809,14.4408,154.4247],[39.9843,14.4323,161.7023],[40.0102,14.4396,349.4612],[40.0553,14.4869,550.817],[40.0753,14.494,531.5999],[40.0891,14.4903,676.3333],[40.1399,14.4981,-112.751],[40.2226,14.4786,-118.6257],[40.2685,14.4533,-117.4125],[40.331,14.424,-103.8694],[40.3847,14.3897,-90.4344],[40.4067,14.3801,-80.844],[40.4131,14.4186,-56.263],[40.4215,14.4346,-54.7268],[40.4501,14.4789,-22.8277],[40.4652,14.5085,12.5433],[40.4771,14.5388,-4.5559],[40.4812,14.5543,10.22],[40.4926,14.5755,150.9375],[40.498,14.5826,74.1398],[40.5023,14.5856,136.0292],[40.5139,14.591,4.4089],[40.5335,14.5958,3.9898],[40.5448,14.6034,16.7829],[40.5633,14.6252,16.8976],[40.5713,14.6393,16.2456],[40.5716,14.656,10.8199],[40.5673,14.6712,17.4781],[40.5648,14.6772,14.1128],[40.5498,14.6997,10.0338],[40.5367,14.7464,36.1924],[40.5373,14.759,40.4343],[40.5351,14.802,38.271],[40.5297,14.8424,24.2249],[40.5299,14.8684,15.0215],[40.5277,14.9126,9.563],[40.5249,14.9356,1.3003],[40.5257,14.9407,3.9605],[40.522,14.946,0.8905],[40.5113,14.9531,2.7147],[40.5113,14.9588,0.7615],[40.5101,14.9613,0.0565],[40.5079,14.9618,1.2148],[40.5082,14.9632,0.1312],[40.504,14.9618,1.2127],[40.4949,14.9632,0.0312],[40.4935,14.9607,0.0195],[40.4974,14.9576,1.1202],[40.4974,14.9551,1.655],[40.4957,14.9551,1.655],[40.4904,14.9593,0.0403],[40.4821,14.9726,0.0],[40.4765,14.9774,0.0],[40.4668,14.9771,0.0],[40.4649,14.9699,1.1303],[40.4626,14.9699,0.7343],[40.4582,14.976,0.2536],[40.4457,14.9774,0.8171],[40.4443,14.9804,0.0],[40.4465,14.9812,2.0644],[40.4529,14.9788,0.9532],[40.4618,14.9801,0.0],[40.4621,14.9821,0.0],[40.4599,14.9815,0.8677],[40.4615,14.9829,0.0],[40.4646,14.9946,0.0334],[40.4674,14.9979,0.0538],[40.4618,15.0049,1.0519],[40.4546,15.0026,0.0],[40.4512,15.0065,1.6894],[40.4457,15.0068,0.0],[40.444,15.0054,2.6835],[40.4463,15.0026,2.2928],[40.4451,14.999,0.6239],[40.4338,15.0004,0.0736],[40.4207,14.9982,-0.0187],[40.4162,14.9921,0.0],[40.4138,14.9857,0.0],[40.414,14.9818,0.2181],[40.4104,14.9799,-0.06],[40.4093,14.9774,-0.051],[40.4143,14.9804,0.3294],[40.4207,14.9746,0.0],[40.429,14.971,0.5573],[40.4254,14.9696,2.3055],[40.424,14.9663,2.8538],[40.419,14.9663,0.1279],[40.414,14.964,0.0],[40.4099,14.956,0.3974],[40.4018,14.9518,1.6255],[40.3982,14.9532,0.779],[40.391,14.9513,0.7953],[40.3879,14.9532,0.963],[40.3904,14.9599,0.6238],[40.3885,14.9629,0.0277],[40.3899,14.966,1.6652],[40.3838,14.971,0.2449],[40.3843,14.974,0.0655],[40.3874,14.9743,-0.0471],[40.3865,14.9762,0.1773],[40.3935,14.9818,0.0],[40.3924,14.9854,0.2605],[40.396,14.9876,0.0426],[40.3926,14.9921,0.0],[40.3924,14.9976,0.0],[40.3887,14.9957,0.0],[40.3887,14.9921,0.287],[40.3846,14.9885,0.5711],[40.3832,14.9904,0.0],[40.3857,14.9957,-0.0057],[40.3793,14.9937,0.0],[40.3704,14.984,0.0],[40.3632,14.9696,0.0],[40.3651,14.9646,0.0],[40.3615,14.9643,0.0],[40.3618,14.9618,0.0],[40.3596,14.9585,0.0],[40.3607,14.9571,0.0],[40.3557,14.9485,0.0],[40.356,14.9468,0.0],[40.3596,14.9457,0.3068],[40.361,14.9479,0.9133],[40.3624,14.9471,0.0],[40.3587,14.9446,0.0],[40.3579,14.9412,0.5155],[40.3532,14.9385,0.9023],[40.3524,14.9404,0.3355],[40.3513,14.9399,0.4494],[40.3515,14.9432,0.0],[40.3468,14.9424,0.0],[40.3449,14.9374,0.0],[40.3462,14.9354,0.0],[40.3457,14.931,0.0],[40.3429,14.9288,0.0],[40.3385,14.9293,0.0],[40.3376,14.9357,0.0],[40.3324,14.9379,0.0],[40.3312,14.9363,0.0],[40.3332,14.9354,1.0239],[40.3296,14.9349,0.4509],[40.3276,14.931,0.0],[40.3285,14.9235,0.0],[40.3199,14.9196,0.0],[40.3151,14.9193,0.0],[40.3165,14.9146,0.3841],[40.3143,14.9129,0.0],[40.3157,14.9107,0.0],[40.3135,14.9065,0.0639],[40.3099,14.9049,0.0],[40.3082,14.9065,0.0],[40.3065,14.9049,0.0],[40.2985,14.9054,0.0],[40.2965,14.904,0.0],[40.2951,14.9046,0.0],[40.2957,14.9071,0.0],[40.2885,14.911,0.0],[40.2854,14.9201,0.0],[40.2815,14.9221,0.0],[40.2796,14.9276,0.0],[40.2718,14.9307,0.0],[40.2721,14.9349,0.0],[40.2696,14.9315,0.6873],[40.259,14.9357,0.0],[40.2546,14.9351,1.071],[40.2401,14.9385,1.4283],[40.2357,14.9435,1.154],[40.2343,14.9482,0.0],[40.2218,14.946,0.5818],[40.2118,14.9474,0.1933],[40.2113,14.9499,0.0],[40.2093,14.9507,0.0],[40.2085,14.9557,0.0],[40.2043,14.9571,0.0],[40.204,14.9607,0.0],[40.2029,14.959,0.0],[40.1976,14.9632,0.0],[40.1901,14.9654,0.8049],[40.1846,14.9712,0.7459],[40.1807,14.9796,0.0],[40.1774,14.9788,0.0],[40.1724,14.9804,0.0],[40.1668,14.9879,0.0],[40.161,14.9882,0.0],[40.1565,14.9963,0.0],[40.156,15.0026,0.0],[40.1599,15.0096,1.0297],[40.164,15.0132,0.0],[40.1651,15.0232,0.6363],[40.164,15.0262,0.3407],[40.1585,15.0346,0.375],[40.1518,15.0382,0.3534],[40.151,15.0415,11.4925],[40.1465,15.0407,0.0],[40.1457,15.0382,25.8463],[40.1443,15.0382,15.5194],[40.1426,15.0449,15.4226],[40.1432,15.0485,3.4623],[40.1471,15.051,0.2353],[40.1457,15.0543,0.0],[40.1404,15.0565,0.0],[40.1374,15.0546,11.63],[40.1371,15.0563,0.0],[40.1301,15.059,0.0],[40.1254,15.0571,0.0],[40.1229,15.0588,6.1251],[40.1249,15.064,6.1189],[40.1285,15.0665,0.0],[40.1282,15.0682,0.0],[40.1185,15.0693,2.7843],[40.1154,15.0751,0.2288],[40.1135,15.0757,0.0],[40.114,15.0704,0.1976],[40.1113,15.0682,1.5461],[40.1126,15.0651,0.2677],[40.1113,15.0638,0.2677],[40.1065,15.0626,0.7631],[40.1026,15.0668,0.779],[40.1001,15.0674,0.6155],[40.0985,15.0726,0.0],[40.094,15.0787,0.3132],[40.094,15.0812,4.7396],[40.0971,15.0821,3.4912],[40.0976,15.0843,1.6008],[40.0929,15.0849,2.6601],[40.0937,15.0874,0.0],[40.0907,15.0932,0.0],[40.0932,15.094,0.4825],[40.0965,15.0926,4.7229],[40.0965,15.0904,0.0],[40.1007,15.0865,6.5251],[40.1043,15.0796,0.0],[40.1096,15.0793,3.1073],[40.1113,15.0807,0.0],[40.1113,15.0826,0.0],[40.1032,15.0849,0.8398],[40.104,15.0929,0.1344],[40.0993,15.0938,4.4563],[40.1032,15.1024,0.0],[40.1021,15.1057,0.908],[40.1032,15.109,0.0],[40.0982,15.109,7.9717],[40.1013,15.1118,0.0],[40.1021,15.1165,0.0],[40.1001,15.1174,3.6647],[40.1015,15.1207,0.0],[40.0957,15.1199,0.3796],[40.0943,15.126,0.0],[40.0863,15.1332,0.0],[40.0874,15.1451,0.0],[40.084,15.1529,0.0],[40.0804,15.1587,0.0],[40.0726,15.1646,0.0],[40.0715,15.1682,0.0],[40.0649,15.1754,1.3286],[40.0632,15.1843,0.0],[40.0557,15.184,0.0],[40.0524,15.1854,0.1071],[40.0504,15.1887,0.0],[40.0565,15.1907,0.0],[40.0612,15.1965,0.0],[40.0676,15.1957,0.3593],[40.0713,15.191,0.0],[40.081,15.1927,0.0],[40.0779,15.1935,0.0],[40.0721,15.1921,0.2889],[40.0788,15.1965,0.0],[40.0801,15.1946,0.0],[40.0799,15.1968,0.0],[40.0826,15.1982,0.0],[40.0846,15.1901,3.0701],[40.0821,15.1851,1.1111],[40.076,15.1804,2.2675],[40.0796,15.1785,0.0],[40.081,15.1829,0.2698],[40.0857,15.1807,0.5853],[40.089,15.1815,1.001],[40.0913,15.1879,4.1296],[40.0974,15.1963,0.0],[40.0971,15.1985,0.0],[40.0921,15.2029,0.0],[40.0901,15.2071,0.0],[40.0887,15.2054,1.5644],[40.0854,15.206,0.6584],[40.0863,15.2101,0.0],[40.0799,15.2071,0.0],[40.0693,15.2082,0.0],[40.0582,15.2029,0.7913],[40.0524,15.204,0.0],[40.0515,15.1999,1.8287],[40.0471,15.1996,0.0],[40.0435,15.2054,1.5995],[40.0435,15.2104,0.0],[40.0504,15.2151,0.1418],[40.054,15.2154,0.0],[40.056,15.2135,0.0],[40.0582,15.2146,0.0],[40.0579,15.2165,0.0],[40.0554,15.2179,0.6125],[40.0582,15.2215,0.0],[40.0557,15.2307,0.9685],[40.0563,15.2338,0.0],[40.049,15.2315,2.0228],[40.0388,15.2349,0.7447],[40.0276,15.2407,0.3781],[40.0254,15.2463,0.4442],[40.0232,15.2443,0.5281],[40.0232,15.2399,0.4736],[40.0268,15.2379,0.5081],[40.0282,15.2351,3.3258],[40.0385,15.2318,1.0591],[40.0349,15.2301,2.3512],[40.0307,15.2335,0.9195],[40.0238,15.2343,5.387],[40.0224,15.2371,1.039],[40.0143,15.2357,1.0972],[40.0118,15.2374,1.4191],[40.0118,15.2446,0.8604],[40.0149,15.2488,3.0026],[40.021,15.2507,2.9816],[40.026,15.2485,0.7968],[40.0332,15.2501,0.0],[40.0401,15.2604,3.504],[40.0454,15.2632,0.0],[40.0485,15.2687,4.2867],[40.051,15.2696,0.0],[40.0546,15.2835,1.2528],[40.0568,15.2835,0.3061],[40.0585,15.2876,0.8904],[40.0635,15.2924,2.382],[40.0693,15.2935,0.3519],[40.0812,15.3024,3.6877],[40.0854,15.3165,0.7224],[40.0879,15.3171,1.3955],[40.089,15.3251,1.309],[40.0879,15.331,0.809],[40.0843,15.334,0.0],[40.0829,15.3329,0.4404],[40.0801,15.3338,0.4519],[40.0757,15.3426,0.0],[40.0679,15.349,0.0],[40.0643,15.3551,2.2393],[40.0588,15.3604,2.5776],[40.0432,15.3685,1.9462],[40.0326,15.3665,0.8277],[40.0137,15.3832,2.4122],[40.004,15.3851,2.5423],[39.9965,15.3918,0.7268],[39.9899,15.3951,1.2953],[39.9865,15.3951,3.9144],[39.9868,15.3965,3.452],[39.9829,15.3982,4.9843],[39.9807,15.4012,1.1991],[39.9785,15.4113,3.3318],[39.9749,15.4185,0.0],[39.9676,15.4249,0.0],[39.9643,15.424,0.0],[39.9632,15.4218,2.9986],[39.9615,15.4218,0.9922],[39.9599,15.4243,0.0],[39.9574,15.4238,0.064],[39.956,15.4279,0.1361],[39.9524,15.4296,0.2678],[39.9501,15.4329,0.2181],[39.9379,15.4393,0.7688],[39.9332,15.4457,0.0],[39.9321,15.4463,0.0],[39.9318,15.4438,0.8297],[39.9251,15.4499,1.7702],[39.9196,15.4474,2.5853],[39.9188,15.4521,1.3865],[39.9149,15.4482,4.6099],[39.9124,15.4537,1.877],[39.9126,15.456,1.0878],[39.9149,15.4565,1.1202],[39.9143,15.4585,0.403],[39.9101,15.4587,1.2549],[39.9087,15.4554,6.1905],[39.9082,15.4585,1.5164],[39.9038,15.4587,4.3653],[39.899,15.4632,0.0984],[39.8971,15.4632,4.8617],[39.8907,15.4718,1.6025],[39.8937,15.476,0.0],[39.8926,15.4812,0.0],[39.8937,15.4865,0.0],[39.8893,15.4821,0.0],[39.8857,15.4829,0.1018],[39.8851,15.4854,0.0662],[39.8826,15.4835,1.1354],[39.8846,15.4938,0.0],[39.8815,15.4965,4.7395],[39.8793,15.5051,5.0985],[39.8757,15.5065,3.6865],[39.869,15.5063,0.0],[39.8671,15.5029,2.7118],[39.869,15.4982,0.513],[39.8751,15.4935,2.2294],[39.8707,15.4862,0.2115],[39.8635,15.4826,1.5296],[39.8604,15.4826,2.5155],[39.8599,15.4851,0.2829],[39.8554,15.484,0.0],[39.8549,15.4821,0.0],[39.8568,15.481,4.219],[39.8543,15.4679,0.0],[39.8549,15.4615,0.5525],[39.8496,15.4576,0.9507],[39.8451,15.4557,0.0],[39.8407,15.4568,0.9938],[39.8396,15.4646,0.2419],[39.8421,15.4654,0.0],[39.8429,15.4676,2.0491],[39.8426,15.4699,2.3027],[39.8401,15.4704,1.5212],[39.8418,15.4757,0.0],[39.8387,15.4765,4.4192],[39.8376,15.4785,2.1853],[39.8335,15.4765,2.1281],[39.831,15.464,7.259],[39.8296,15.4632,2.3581],[39.8304,15.4587,2.5343],[39.8293,15.4562,1.8469],[39.831,15.4551,5.612],[39.8307,15.4513,0.1386],[39.8332,15.4471,3.3052],[39.8304,15.4338,0.2974],[39.8315,15.4374,0.9698],[39.8338,15.4376,2.0836],[39.8335,15.4299,3.3246],[39.8315,15.4296,1.6021],[39.8321,15.4307,0.9309],[39.8301,15.4315,1.118],[39.8304,15.4296,1.3608],[39.8282,15.4296,2.8046],[39.8226,15.4357,0.0],[39.8213,15.441,0.0],[39.819,15.4429,2.1094],[39.8176,15.4576,0.0],[39.8174,15.4435,0.4381],[39.821,15.434,4.493],[39.8174,15.4324,1.4444],[39.8174,15.4376,0.2717],[39.8151,15.4393,0.629],[39.8138,15.4446,2.3491],[39.8154,15.4471,0.0],[39.8146,15.4526,0.3009],[39.8132,15.4546,0.0],[39.811,15.4546,0.0],[39.8104,15.4496,0.6066],[39.8063,15.4457,4.4659],[39.8054,15.4351,3.3245],[39.8021,15.4262,9.7489],[39.8046,15.4149,4.9981],[39.7996,15.4096,0.6971],[39.7929,15.406,2.0243],[39.7821,15.404,0.634],[39.776,15.3974,0.0],[39.7771,15.3888,0.0],[39.7813,15.3796,0.0],[39.7801,15.3774,1.7784],[39.7824,15.3757,11.8005],[39.7824,15.366,0.0],[39.7849,15.3629,0.0],[39.7857,15.3554,0.0784],[39.7835,15.3524,0.0357],[39.7865,15.3526,0.0],[39.7857,15.3546,0.0784],[39.7871,15.3546,0.0784],[39.7896,15.351,0.3553],[39.7896,15.3496,0.4331],[39.7782,15.3421,0.1524],[39.7782,15.3388,0.7815],[39.7824,15.3335,0.0],[39.7829,15.329,0.0],[39.7796,15.3212,2.5032],[39.7804,15.319,0.9849],[39.7762,15.3132,0.0],[39.7796,15.3038,16.9183],[39.7776,15.301,11.6807],[39.7815,15.296,18.7741],[39.7826,15.2915,2.1888],[39.7832,15.284,0.0],[39.7818,15.2799,0.2027],[39.7849,15.2779,0.1803],[39.7837,15.2738,0.394],[39.7857,15.2699,5.167],[39.7851,15.2632,0.0],[39.7876,15.2604,0.3623],[39.7926,15.2585,0.3836],[39.7935,15.2529,0.0],[39.7968,15.2526,1.6583],[39.7976,15.251,0.7195],[39.8035,15.251,0.0],[39.8043,15.2565,0.0],[39.8013,15.2568,0.8056],[39.8004,15.2615,0.332],[39.8049,15.2671,0.2027],[39.8057,15.2721,0.5159],[39.8135,15.2754,0.0598],[39.8182,15.2721,0.119],[39.8218,15.2665,0.6157],[39.8268,15.2457,0.4599],[39.8307,15.2399,0.3329],[39.8338,15.231,0.7144],[39.8379,15.2271,0.2396],[39.8421,15.219,0.6902],[39.8407,15.2132,0.0],[39.8435,15.2113,0.5611],[39.8454,15.2071,0.5128],[39.8479,15.2063,0.4018],[39.8507,15.2001,3.4682],[39.8507,15.1893,0.8101],[39.8537,15.1862,6.9425],[39.8515,15.1843,0.3221],[39.8526,15.1643,1.1806],[39.8418,15.1488,0.7344],[39.8407,15.1385,1.0193],[39.8301,15.1285,9.2491],[39.8254,15.126,0.3895],[39.826,15.1224,0.6423],[39.8229,15.119,1.2064],[39.8221,15.114,3.5631],[39.8254,15.0985,1.3558],[39.8185,15.0885,2.9932],[39.8135,15.0707,8.3964],[39.7971,15.0685,3.1652],[39.7929,15.071,0.0],[39.7915,15.0649,1.1531],[39.7882,15.0651,1.1121],[39.7871,15.0679,5.3228],[39.7835,15.0688,0.0],[39.7835,15.0624,18.508],[39.7804,15.061,0.4833],[39.7693,15.061,0.4612],[39.7649,15.0629,0.3451],[39.7612,15.0774,0.0],[39.7529,15.0874,0.0],[39.7371,15.0851,1.2703],[39.7262,15.0857,0.9956],[39.7176,15.0879,0.7567],[39.7115,15.0935,2.4153],[39.7068,15.1118,4.2675],[39.7021,15.1176,0.8934],[39.6963,15.1204,4.6472],[39.6929,15.1274,2.0187],[39.696,15.1337,1.0923],[39.701,15.1601,0.4072],[39.6982,15.1718,1.07],[39.6985,15.1782,0.8374],[39.7054,15.1943,0.6111],[39.7051,15.199,1.3187],[39.7082,15.2101,0.3469],[39.7076,15.2149,0.5733],[39.7096,15.2165,0.1685],[39.7085,15.2262,0.7114],[39.7132,15.2307,0.9952],[39.716,15.2443,0.0],[39.7143,15.2615,0.0],[39.7126,15.2646,0.0],[39.7065,15.269,0.9625],[39.7051,15.2782,1.0362],[39.7038,15.2799,0.0],[39.701,15.2799,1.9526],[39.6954,15.2874,0.0],[39.6935,15.2965,0.1056],[39.6893,15.2999,0.0],[39.6874,15.304,0.3018],[39.6874,15.3104,0.2951],[39.6851,15.311,0.2577],[39.6871,15.3085,0.2169],[39.6871,15.306,0.3239],[39.6854,15.3057,1.3741],[39.6818,15.3079,1.06],[39.6815,15.306,1.6413],[39.6799,15.306,1.5923],[39.6787,15.3093,-0.159],[39.6707,15.3107,1.7952],[39.6724,15.3149,1.6792],[39.6801,15.3113,1.0259],[39.6835,15.3124,0.0],[39.6704,15.3179,0.7198],[39.6668,15.3226,0.3231],[39.6665,15.3274,0.0],[39.6613,15.3307,0.9763],[39.6587,15.3349,1.1669],[39.6551,15.351,0.1786],[39.6524,15.3565,1.0837],[39.6515,15.3687,2.3448],[39.6482,15.3771,0.4293],[39.6479,15.3921,0.0],[39.639,15.4171,2.0382],[39.636,15.4399,0.0],[39.6304,15.449,1.9145],[39.6287,15.4582,0.1669],[39.6226,15.4713,1.7682],[39.6218,15.4793,0.0],[39.6138,15.489,0.6532],[39.6146,15.4943,4.0048],[39.6007,15.5068,0.4076],[39.5982,15.5124,0.0369],[39.6004,15.5188,0.0],[39.5918,15.521,2.3505],[39.591,15.5271,0.0],[39.5815,15.5271,0.5574],[39.5743,15.5335,1.5196],[39.5665,15.5376,0.0],[39.5579,15.5362,1.4233],[39.5457,15.5379,0.0],[39.5371,15.5371,0.0],[39.5243,15.5282,1.3523],[39.5079,15.5221,0.0],[39.5029,15.5171,0.1836],[39.4963,15.5146,1.6559],[39.4874,15.5146,0.0],[39.4796,15.5179,0.0],[39.4632,15.5296,0.0874],[39.461,15.5421,0.0],[39.4624,15.5457,0.0],[39.4599,15.549,1.1633],[39.4599,15.554,0.5219],[39.4574,15.5601,0.5008],[39.4521,15.5662,0.0],[39.4524,15.5735,0.0],[39.451,15.5746,1.8482],[39.4496,15.5835,0.6676],[39.4443,15.5879,0.2098],[39.4424,15.5982,0.5985],[39.446,15.6007,0.4197],[39.4476,15.5979,0.0],[39.4471,15.6015,0.4197],[39.4529,15.6026,0.0],[39.4562,15.6082,0.0],[39.4538,15.6115,2.7839],[39.4601,15.6121,1.2364],[39.4621,15.6151,0.0],[39.4643,15.6138,0.4764],[39.4663,15.6151,0.0],[39.4657,15.6132,0.0],[39.4679,15.6127,0.0],[39.4746,15.6138,1.1727],[39.4729,15.6171,0.0],[39.4646,15.6182,1.5803],[39.4635,15.6199,0.9154],[39.4748,15.6213,1.0571],[39.4768,15.6207,4.9438],[39.4774,15.6162,0.0],[39.4793,15.6171,0.1771],[39.4807,15.6201,2.0565],[39.479,15.6285,0.0],[39.4757,15.6276,3.0679],[39.4743,15.6288,0.8013],[39.4751,15.6301,0.7908],[39.4721,15.6304,0.4596],[39.471,15.6257,4.1359],[39.4682,15.6246,2.0666],[39.464,15.6257,0.4689],[39.4626,15.6293,0.0],[39.4637,15.6315,0.4558],[39.4629,15.6351,0.0],[39.4671,15.6401,0.0],[39.4676,15.6443,0.916],[39.4715,15.6424,4.9281],[39.4726,15.6385,0.0],[39.4785,15.6407,2.6499],[39.4804,15.6437,0.0],[39.4779,15.6479,5.8974],[39.4785,15.6518,1.1107],[39.4765,15.651,2.2099],[39.474,15.6524,2.3788],[39.4732,15.6551,0.6519],[39.4701,15.6554,1.7969],[39.4663,15.661,1.6134],[39.4607,15.6646,0.2613],[39.4601,15.6668,0.8469],[39.4551,15.6674,1.8657],[39.4557,15.6687,1.8657],[39.449,15.6804,0.9281],[39.4501,15.6854,0.0],[39.4476,15.699,1.3037],[39.4488,15.7024,0.3965],[39.4463,15.7038,0.5955],[39.4479,15.7107,0.677],[39.4465,15.719,0.5567],[39.4399,15.731,0.0],[39.4335,15.7335,1.4162],[39.4285,15.7399,1.223],[39.4257,15.7485,0.0],[39.4251,15.7576,2.3585],[39.4274,15.7685,0.0],[39.431,15.7732,1.5778],[39.4379,15.776,0.0],[39.4415,15.7824,1.7558],[39.4426,15.7904,1.9511],[39.4399,15.8001,0.3245],[39.4321,15.809,0.0],[39.4224,15.8126,2.3114],[39.416,15.8176,0.3573],[39.3751,15.8371,1.7541],[39.3679,15.844,1.183],[39.3638,15.8543,0.0],[39.3582,15.8612,0.0],[39.3365,15.8757,1.118],[39.3293,15.8857,0.6779],[39.3288,15.8926,0.0],[39.3243,15.8921,1.1048],[39.3235,15.894,0.423],[39.3207,15.8946,0.2941],[39.3104,15.8935,1.4207],[39.3054,15.8971,1.0847],[39.304,15.9101,0.0],[39.301,15.9199,2.1014],[39.3018,15.9235,1.5402],[39.2971,15.936,0.9716],[39.296,15.9462,0.0],[39.2935,15.949,1.5186],[39.2949,15.951,0.0],[39.2893,15.9607,1.3052],[39.2837,15.9629,1.5117],[39.2785,15.9701,1.6145],[39.2746,15.9715,0.3979],[39.2726,15.989,1.5806],[39.2704,15.9929,1.189],[39.2738,16.0021,0.0],[39.2657,16.0201,1.3668],[39.2626,16.0379,0.0],[39.2415,16.074,1.1249],[39.2315,16.1188,1.6801],[39.2301,16.1415,0.0],[39.2251,16.1554,0.3487],[39.2199,16.186,0.0],[39.2182,16.1885,0.0],[39.2188,16.2051,0.0],[39.2176,16.2051,0.0],[39.2046,16.2493,1.5757],[39.2054,16.2549,0.8842],[39.209,16.2579,0.1818],[39.2101,16.2718,0.0],[39.1979,16.2888,0.0],[39.1985,16.3085,0.0],[39.2018,16.3157,0.4573],[39.2054,16.3165,0.0],[39.2035,16.3187,0.0],[39.2043,16.3229,0.0],[39.2029,16.3299,0.5293],[39.2046,16.344,0.0],[39.1935,16.3624,0.0],[39.1935,16.3674,0.4832],[39.196,16.3715,0.0],[39.1943,16.3749,1.3153],[39.1949,16.3829,0.0],[39.191,16.3907,0.0],[39.1901,16.3954,0.0],[39.1918,16.3993,0.0],[39.1893,16.4029,0.0],[39.1876,16.4124,0.8998],[39.1882,16.4154,1.0934],[39.1946,16.4229,0.9914],[39.1929,16.4387,0.0],[39.1868,16.4438,1.57],[39.181,16.4604,0.0],[39.1757,16.4835,0.0],[39.1724,16.4854,0.0],[39.1738,16.4893,0.0],[39.1701,16.4954,1.7839],[39.1693,16.5012,1.4229],[39.1746,16.5051,0.0],[39.1757,16.5149,0.3461],[39.1718,16.5165,0.6873],[39.1685,16.5218,0.1664],[39.1668,16.5221,0.5698],[39.1651,16.521,0.0],[39.166,16.5146,0.0],[39.1638,16.5071,0.0],[39.1615,16.5057,1.0675],[39.1571,16.5079,0.5241],[39.1571,16.5143,1.383],[39.1593,16.5132,0.3529],[39.1596,16.5099,0.0],[39.1618,16.5104,0.0],[39.1582,16.5213,0.0],[39.1599,16.5263,0.0],[39.1543,16.5274,0.0],[39.1482,16.5376,0.0],[39.1493,16.5393,0.0],[39.151,16.5365,0.0],[39.1532,16.5368,0.0],[39.1576,16.5399,0.0],[39.1601,16.5449,0.7681],[39.1649,16.5457,0.0],[39.1649,16.5488,0.7181],[39.1674,16.5524,0.6192],[39.1657,16.5637,0.0],[39.1621,16.571,0.0],[39.1551,16.5738,0.0],[39.1515,16.5779,1.324],[39.1507,16.5826,1.1461],[39.1529,16.5862,1.0959],[39.1524,16.5885,0.5763],[39.1454,16.5893,2.0138],[39.1387,16.5987,0.8474],[39.1401,16.6032,0.0],[39.1446,16.6029,0.8234],[39.1407,16.6151,0.3593],[39.1421,16.6146,2.8687],[39.1435,16.6085,0.0],[39.1454,16.6085,0.0],[39.1479,16.6126,0.0],[39.1468,16.6193,0.0],[39.1488,16.6213,0.3999],[39.1479,16.6293,0.0],[39.151,16.6301,0.0],[39.1529,16.6288,0.0],[39.1538,16.6338,0.0],[39.151,16.6374,0.7965],[39.151,16.6432,0.6179],[39.1485,16.6482,0.7368],[39.144,16.6696,0.2174],[39.1451,16.6749,0.426],[39.1499,16.681,0.0],[39.1451,16.6935,1.0579],[39.1451,16.699,0.9569],[39.1338,16.7187,0.1864],[39.1307,16.721,0.8283],[39.1246,16.7335,1.2866],[39.1232,16.7399,0.0],[39.1249,16.7518,0.6211],[39.1243,16.761,0.0],[39.1188,16.7713,0.0],[39.1182,16.7796,1.9005],[39.1013,16.8032,2.6325],[39.0971,16.8179,0.4654],[39.0985,16.8307,0.0],[39.0962,16.831,0.0],[39.0929,16.8354,0.382],[39.0921,16.8476,0.0],[39.0887,16.8515,0.0],[39.0863,16.859,0.0],[39.0835,16.861,1.3993],[39.0782,16.8696,0.0],[39.0774,16.8732,0.0],[39.0751,16.8743,1.7325],[39.074,16.879,0.0],[39.0679,16.8851,0.5558],[39.0632,16.9013,0.0],[39.0618,16.9196,0.0],[39.0607,16.9199,2.0535],[39.0593,16.931,0.0],[39.0537,16.9404,0.6272],[39.0554,16.9488,0.0],[39.0501,16.9593,0.0],[39.0493,16.9649,0.0],[39.0426,16.9765,0.0],[39.0429,17.0007,0.0],[39.0379,17.0101,7.0593],[39.0357,17.0215,0.0],[39.0313,17.0301,0.0],[39.0274,17.0449,0.0],[39.0246,17.0471,0.0],[39.0218,17.064,2.3315],[39.0199,17.0671,3.6497],[39.0182,17.0818,0.0],[39.0146,17.0915,0.0],[39.0149,17.096,0.0],[39.0076,17.111,1.7969],[39.0051,17.1282,6.0831],[38.9985,17.1413,0.0],[38.9974,17.1612,0.0],[38.9993,17.1746,0.4497],[38.9965,17.1929,0.0],[38.9924,17.2001,2.4068],[38.9735,17.2143,0.265],[38.9696,17.2218,4.0937],[38.9674,17.2357,1.6419],[38.9685,17.2551,2.8719],[38.9663,17.2746,1.3221],[38.9562,17.306,0.0],[38.9532,17.311,0.0],[38.9454,17.3179,1.5213],[38.9421,17.3246,0.7591],[38.939,17.369,1.1542],[38.9362,17.3779,0.0],[38.9296,17.3885,1.2364],[38.9299,17.3924,0.0],[38.9274,17.3935,1.3448],[38.9224,17.4174,0.0],[38.9185,17.4232,0.4154],[38.9157,17.4318,0.0],[38.9099,17.4385,2.0505],[38.9024,17.4529,2.3024],[38.9001,17.4621,1.5305],[38.8926,17.4746,0.6144],[38.8904,17.4826,0.0],[38.8713,17.5032,1.3416],[38.8674,17.5107,0.3096],[38.8629,17.5154,1.6432],[38.8532,17.5438,1.779],[38.8513,17.5563,0.0],[38.8393,17.5821,0.0],[38.8285,17.5968,1.5886],[38.8229,17.6015,0.76],[38.8213,17.6137,0.8436],[38.8163,17.616,0.8368],[38.816,17.6204,1.3687],[38.8115,17.6246,1.3973],[38.811,17.6282,0.8525],[38.8076,17.6285,0.6063],[38.8071,17.6318,0.8528],[38.8054,17.6299,0.1876],[38.806,17.6268,0.7961],[38.8035,17.6285,1.6323],[38.8013,17.6338,0.1952],[38.7985,17.6357,0.6807],[38.801,17.641,0.8586],[38.8007,17.6457,0.3864],[38.7921,17.6601,0.4761],[38.7851,17.6671,1.6984],[38.776,17.6801,1.1728],[38.7676,17.686,3.0881],[38.7546,17.7113,0.0],[38.7382,17.7346,0.0],[38.7315,17.7401,2.3469],[38.7274,17.7401,2.3145],[38.7251,17.7421,0.0],[38.7251,17.7446,0.5544],[38.7274,17.7463,1.2547],[38.7271,17.7496,0.7513],[38.7212,17.7607,1.052],[38.7088,17.774,0.0],[38.7001,17.7804,0.0],[38.6918,17.796,0.0],[38.6729,17.8196,0.0],[38.6721,17.826,1.4431],[38.664,17.8415,0.0],[38.6571,17.8493,0.871],[38.6515,17.8632,0.9026],[38.6468,17.8674,0.6233],[38.6457,17.8918,0.0],[38.6426,17.8982,1.8715],[38.6424,17.9037,0.792],[38.6368,17.9101,2.351],[38.6329,17.9179,0.468],[38.6226,17.9193,0.3427],[38.6151,17.9182,0.6746],[38.6149,17.9263,0.0],[38.6087,17.926,1.2408],[38.6065,17.9276,0.0],[38.6046,17.9307,1.0927],[38.6099,17.9332,2.5627],[38.6104,17.9351,4.0244],[38.6076,17.9376,0.509],[38.6046,17.9368,2.7321],[38.6029,17.9387,0.948],[38.6018,17.9421,1.5949],[38.6035,17.9438,0.0],[38.5999,17.949,2.0537],[38.5996,17.9529,1.4119],[38.594,17.9565,1.3853],[38.5951,17.9618,0.0],[38.5887,17.9632,1.4784],[38.5868,17.9676,0.0],[38.5821,17.9682,0.6938],[38.5726,17.981,1.7787],[38.5754,17.9865,0.6628],[38.5693,17.9868,2.3984],[38.5674,17.989,0.0],[38.5671,18.0004,2.0543],[38.5699,18.0065,0.113],[38.5644,18.0031,1.9649],[38.4524,17.8983,95.7492],[38.39,17.756,138.4341],[38.3876,17.7319,150.6466],[38.3649,17.6859,174.3672],[38.3508,17.6618,259.7825],[38.3483,17.6541,534.9067],[38.3417,17.6496,409.6199],[38.299,17.6393,1200.6002],[38.2882,17.6334,1267.2993],[38.2804,17.6254,1352.2544],[38.2757,17.5927,950.5873],[38.2727,17.585,1010.1925],[38.2664,17.5762,1191.9712],[38.2648,17.5651,1358.7356],[38.2601,17.5586,1297.934],[38.2435,17.5543,1422.553],[38.2315,17.5559,1587.1735],[38.2124,17.5631,2033.2949],[38.1951,17.5451,2362.8547],[38.1894,17.5652,1908.6919],[38.1807,17.5792,1754.2957],[38.1766,17.5819,1726.0144],[38.1662,17.573,1547.0165],[38.1303,17.5731,1369.1938],[38.1124,17.5629,1805.4276],[38.1089,17.5589,1900.4952],[38.1064,17.5331,1760.9216],[38.1013,17.5224,2219.729],[38.1032,17.4954,1695.3853],[38.1072,17.4846,1326.9712],[38.1066,17.4805,1194.4666],[38.0898,17.4827,1666.229],[38.0707,17.482,2422.6216],[38.0676,17.5523,2578.9634],[38.0616,17.5636,2612.0989],[38.0568,17.5647,2605.7302],[38.041,17.5538,2481.4856],[38.0256,17.5491,2583.3765],[38.0184,17.5491,2604.4019],[38.0122,17.5536,2578.5293],[38.0194,17.5209,2468.7471],[38.0191,17.5052,2312.8281],[38.0245,17.4673,2326.5217],[38.0211,17.455,2304.7249],[38.0063,17.4261,1325.6724],[38.0043,17.4115,1868.1124],[38.0172,17.3802,2414.2373],[38.0221,17.3597,2423.0479],[38.0263,17.312,2279.9268],[38.0343,17.2827,2102.853],[38.0416,17.267,1904.7202],[38.0474,17.2428,2016.9506],[38.0489,17.2317,2180.2251],[38.0481,17.2102,1414.4465],[38.0424,17.1824,1946.9912],[38.037,17.1432,1930.4858],[38.0287,17.1295,1385.5457],[38.0303,17.1081,1256.2534],[38.0291,17.1022,1172.761],[38.0177,17.0777,983.0416],[38.0032,17.0648,1373.5068],[37.9893,17.0451,979.1572],[37.9741,17.0139,903.7043],[37.9654,16.9763,544.1218],[37.9655,16.9702,523.9474],[37.9804,16.9303,578.0323],[37.9863,16.9215,529.4499],[37.9989,16.9107,553.1683],[38.0089,16.898,571.6112],[38.0154,16.8799,591.2549],[38.013,16.8523,606.3925],[37.993,16.8038,639.129],[37.9767,16.758,640.0933],[37.9779,16.7261,599.8577],[37.9716,16.6738,563.385],[37.9733,16.6627,585.6445],[37.9811,16.6549,614.1683],[37.9964,16.6514,807.5269],[38.0111,16.6522,695.5743],[38.022,16.6494,626.8512],[38.0647,16.6531,628.5112],[38.0691,16.6513,635.2803],[38.0798,16.64,683.1232],[38.0955,16.6296,790.2488],[38.1137,16.6314,910.7129],[38.1411,16.6371,1678.7656],[38.1442,16.6328,1543.7991],[38.1435,16.6252,1640.5175],[38.1478,16.6229,1827.4839],[38.1712,16.624,1784.9285],[38.1775,16.6253,1727.322],[38.1869,16.6306,1469.7651],[38.1899,16.6308,1537.358],[38.1935,16.6281,1697.5337],[38.1986,16.6129,1532.9915],[38.2031,16.6064,1488.7357],[38.2156,16.6044,1535.074],[38.22,16.6021,1410.9419],[38.2275,16.5935,1029.2386],[38.2358,16.5802,911.7507],[38.2358,16.5769,905.6886],[38.2252,16.5551,841.335],[38.2245,16.5493,835.2679],[38.2331,16.5359,845.5176],[38.2269,16.5127,860.7916],[38.2232,16.4861,848.7672],[38.2276,16.4573,869.1528],[38.2369,16.4328,1294.9866],[38.243,16.4276,1704.4685],[38.2569,16.4228,1972.8737],[38.2795,16.4254,1445.9675],[38.3036,16.4363,1430.0669],[38.3175,16.4353,1354.3376],[38.3312,16.4303,1813.7557],[38.3383,16.425,1862.3545],[38.3408,16.4207,1817.5946],[38.3411,16.3962,1405.5332],[38.3442,16.3909,1528.9358],[38.3539,16.3823,1515.7736],[38.3561,16.3773,1684.3685],[38.3592,16.327,1401.9987],[38.368,16.323,1488.6729],[38.3838,16.3197,1633.8726],[38.404,16.319,1610.146],[38.407,16.3132,1583.7117],[38.4416,16.2926,1444.5554],[38.4461,16.2865,1436.5999],[38.4504,16.2698,1677.1748],[38.4719,16.2067,1937.842],[38.4751,16.1883,1646.0264],[38.4724,16.1648,1983.0265],[38.4693,16.1582,2041.9122],[38.4589,16.139,1832.8293],[38.4441,16.125,1581.6049],[38.4372,16.1152,1538.2573],[38.434,16.1073,1381.5977],[38.4299,16.0904,1485.958],[38.4265,16.0585,1795.5713],[38.4256,16.0434,1603.3611],[38.4288,16.0247,1260.6201],[38.4143,16.0118,1226.0192],[38.4098,16.0014,1313.3422],[38.4113,15.9936,1254.9753],[38.4135,15.9923,1241.2211],[38.4257,15.9941,1291.0928],[38.4301,15.9898,1319.1448],[38.4321,15.9635,1289.2562],[38.4368,15.96,1377.6338],[38.4389,15.9603,1427.3599],[38.4524,15.9674,1428.116],[38.4582,15.9676,1408.9564],[38.491,15.9569,1517.8031],[38.5088,15.9448,1484.1218],[38.5276,15.9218,1621.7676],[38.5462,15.8764,1761.6571],[38.5531,15.8701,1856.2867],[38.5699,15.8747,1637.2874],[38.5803,15.8721,1715.4286],[38.5931,15.8737,1684.6129],[38.5964,15.8719,1624.6886],[38.603,15.8626,1841.7169],[38.6088,15.8616,1779.443],[38.6203,15.854,1969.8218],[38.6285,15.8538,2044.5734],[38.6315,15.8543,2098.8181],[38.6355,15.8581,2129.6523],[38.6405,15.873,1892.9592],[38.6499,15.8784,2152.7666],[38.6608,15.8796,2176.7803],[38.6663,15.8774,2167.457],[38.6691,15.8731,2161.5186],[38.6714,15.8615,2174.7888],[38.6744,15.8564,2052.0847],[38.6846,15.8537,2050.8899],[38.717,15.8492,2370.8049],[38.7222,15.8505,2049.5894],[38.741,15.8642,1845.0896],[38.7509,15.8639,1862.6688],[38.7599,15.8564,1864.7544],[38.7671,15.8528,1860.3926],[38.7744,15.8508,1888.7389],[38.7886,15.8516,1720.7017],[38.7949,15.8501,1612.1588],[38.802,15.8461,1588.3698],[38.8347,15.8194,1591.0477],[38.8439,15.805,1559.3881],[38.8474,15.7863,1281.2329],[38.8545,15.7686,1174.7922],[38.8642,15.7318,1698.9993],[38.8633,15.7169,1857.0756],[38.859,15.7046,2071.0188],[38.8591,15.6873,2022.7761],[38.8816,15.6473,1536.8076],[38.8826,15.6377,1484.3262],[38.8796,15.6183,1809.8835],[38.881,15.5956,2021.6333],[38.8876,15.5867,2304.5767],[38.8887,15.5825,2356.9653],[38.8946,15.5773,2384.3674],[38.8987,15.5759,2328.2483],[38.9062,15.5678,1840.8759],[38.9092,15.5422,2507.2434],[38.9181,15.5266,2441.6326],[38.9165,15.5213,2552.272],[38.9175,15.5155,2543.3994],[38.9275,15.5073,2214.9124],[38.9338,15.4953,2424.0283],[38.9291,15.4882,2538.9814],[38.9307,15.4821,2522.1213],[38.9383,15.4769,2208.4348],[38.9517,15.4712,2052.8538],[38.9631,15.4584,1859.7007],[38.9672,15.4561,1819.3936],[38.9756,15.4545,2128.3081],[38.9855,15.4589,2280.4121],[38.9844,15.4411,1738.6871],[38.9863,15.4335,1732.8667],[38.9835,15.427,1509.9387],[38.9841,15.4225,1447.7539],[38.981,15.4132,1675.1359],[38.9797,15.4005,1549.9259],[38.9841,15.3803,1664.9261],[38.988,15.3739,1781.6089],[38.9972,15.3769,2193.9912],[39.0062,15.3717,2008.3066],[39.0208,15.3561,1770.8248],[39.021,15.3518,2084.8669],[39.0172,15.3489,2113.186],[39.0178,15.3444,2140.0723],[39.019,15.3432,2145.7446],[39.0253,15.344,2078.4841],[39.0293,15.3375,2131.3062],[39.0394,15.3043,1705.5298],[39.0431,15.2777,1719.1311],[39.0482,15.266,1626.9528],[39.0457,15.2546,1706.8326],[39.0502,15.2442,1707.2194],[39.0506,15.2325,1746.6981],[39.0568,15.234,1902.6918],[39.0706,15.2336,1893.5962],[39.076,15.2368,1992.8655],[39.0795,15.2434,2012.5602],[39.0817,15.2634,1819.1207],[39.0853,15.2711,1624.1019],[39.0922,15.2689,1596.1315],[39.1447,15.2613,1292.5048],[39.1695,15.2539,1264.7698],[39.1898,15.2432,1337.5269],[39.2023,15.229,1442.0654],[39.2125,15.2114,1520.9769],[39.2183,15.1977,1884.7704],[39.2312,15.1814,1822.0391],[39.2432,15.1735,1655.307],[39.2583,15.1733,1606.8322],[39.2648,15.1711,1633.4707],[39.2656,15.1692,1657.5797],[39.2596,15.1599,1802.6942],[39.2656,15.1563,1837.1028],[39.2619,15.1374,1747.3022],[39.2672,15.1274,1896.5204],[39.2748,15.1233,1752.652],[39.2824,15.1232,1794.3221],[39.304,15.1362,2375.3408],[39.3099,15.1368,2428.2542],[39.3149,15.135,2362.0571],[39.3195,15.1295,2387.4297],[39.3216,15.1198,2320.7573],[39.3255,15.1163,2277.0181],[39.3383,15.1109,2157.8357],[39.3568,15.0906,1712.7629],[39.3645,15.0737,1838.1616],[39.3726,15.0627,1843.4417],[39.3779,15.0591,1521.2334],[39.3992,15.0584,1464.4805],[39.4021,15.0558,1525.5388],[39.405,15.0508,1738.2473],[39.4042,15.0423,1521.957],[39.4102,15.0356,1894.5461],[39.4113,15.0259,1712.3728],[39.4141,15.0204,1789.5538],[39.4176,15.0184,1670.533],[39.4246,15.0191,1783.9266],[39.4461,15.0171,2026.2991],[39.4603,15.0107,2169.1689],[39.4699,15.0051,1728.8611],[39.4842,14.9935,1859.9639],[39.5053,14.9729,1278.1628],[39.5113,14.9648,1406.652],[39.5233,14.964,1119.3157],[39.5275,14.9608,1110.9852],[39.5299,14.9564,1247.918],[39.5384,14.9567,1309.4092],[39.5448,14.9539,1695.3555],[39.5462,14.9444,1490.4883],[39.5396,14.9247,1861.6998],[39.5447,14.9234,1829.0417],[39.5601,14.9265,1946.2177],[39.5698,14.9233,1456.8988],[39.5726,14.9173,1509.1978],[39.5768,14.8976,1616.981],[39.5838,14.8858,1558.5425],[39.5881,14.8735,2047.4893],[39.5943,14.8715,2335.728],[39.6076,14.8716,2431.8481],[39.6203,14.8677,1924.6025],[39.625,14.8818,2105.7729],[39.6272,14.8823,2004.5189],[39.6327,14.8727,1915.7114],[39.639,14.8565,1685.4631],[39.6629,14.8443,1776.4159],[39.6701,14.8383,2107.8755],[39.6695,14.8323,1821.2963],[39.6647,14.8256,1828.7411],[39.6623,14.8192,1654.344],[39.6685,14.8096,2007.7643],[39.667,14.8006,1919.792],[39.6566,14.788,1593.3328],[39.6535,14.7809,1448.6681],[39.6523,14.7421,1569.9396],[39.6477,14.732,2042.4841],[39.6364,14.7222,1897.7883],[39.6329,14.717,2052.2495],[39.6322,14.7041,2420.1394],[39.6238,14.6834,1815.6771],[39.6238,14.6751,1788.7085],[39.6329,14.6632,2036.6322],[39.6377,14.6508,1746.6765],[39.6384,14.6334,1768.531],[39.6345,14.6193,1481.2183]]],
[[[40.0946,15.1585,0.0],[40.0918,15.1593,0.0],[40.0918,15.1571,0.0],[40.0949,15.156,0.0],[40.0946,15.1585,0.0]]],
[[[40.1079,15.2129,4.4881],[40.1074,15.216,0.9029],[40.1054,15.2165,1.0928],[40.1043,15.2115,0.2111],[40.0943,15.2107,0.0],[40.094,15.2087,0.4089],[40.0924,15.2085,0.4089],[40.0926,15.2063,0.892],[40.0996,15.2018,0.0],[40.1085,15.2096,3.2342],[40.1079,15.2129,4.4881]]],
[[[40.0582,15.2121,0.0],[40.056,15.2132,0.0],[40.0551,15.2129,0.0],[40.056,15.2107,0.0],[40.0582,15.2121,0.0]]],
[[[40.0899,15.2488,0.0],[40.086,15.251,0.0],[40.0846,15.2479,2.6785],[40.081,15.2474,0.0],[40.0754,15.2421,0.0],[40.0713,15.2346,0.0],[40.0738,15.2329,0.4545],[40.0804,15.2349,0.0],[40.084,15.234,0.0],[40.0857,15.2393,2.7436],[40.0893,15.2401,0.0],[40.0907,15.244,0.7199],[40.0899,15.2488,0.0]]],
[[[40.0468,15.3957,0.9428],[40.0451,15.3985,0.6028],[40.044,15.3951,0.0],[40.0476,15.3946,1.3223],[40.0468,15.3957,0.9428]]],
[[[39.9888,15.5551,1.8432],[39.9804,15.5562,0.0],[39.9815,15.5535,0.5742],[39.9782,15.5507,0.0],[39.9801,15.5493,3.2272],[39.9799,15.5463,0.3394],[39.9846,15.5451,2.7526],[39.9935,15.5387,0.7913],[40.0026,15.524,0.5506],[40.0093,15.5243,1.3753],[40.014,15.5304,0.0],[40.0126,15.5374,0.8379],[39.9888,15.5551,1.8432]]],
[[[40.0435,15.574,0.0],[40.0401,15.5751,0.0],[40.0396,15.5749,0.0],[40.0438,15.5729,0.6676],[40.0435,15.574,0.0]]],
[[[40.0274,15.5849,2.8257],[40.0246,15.586,1.0357],[40.0262,15.5829,0.7139],[40.0304,15.5804,0.132],[40.0301,15.5829,2.3161],[40.0274,15.5849,2.8257]]],
[[[40.0279,15.5901,0.0],[40.0293,15.5901,0.0],[40.0296,15.5915,0.7021],[40.0271,15.5918,0.4116],[40.0279,15.5901,0.0]]],
[[[40.0176,15.5932,0.0],[40.0179,15.5949,1.2533],[40.0157,15.5943,0.0],[40.0157,15.5937,0.0],[40.0176,15.5932,0.0]]],
[[[40.0074,15.5988,0.0],[40.0038,15.5999,1.3617],[40.0076,15.596,0.5211],[40.0121,15.5963,0.5211],[40.0121,15.5976,0.0],[40.0074,15.5988,0.0]]],
[[[39.9032,15.5093,0.0],[39.8976,15.5104,0.0],[39.8971,15.5079,2.247],[39.8951,15.5074,0.0],[39.8976,15.5026,3.0859],[39.8957,15.4996,4.3028],[39.8907,15.5038,0.0],[39.8871,15.5024,0.0],[39.8887,15.5004,1.7204],[39.8882,15.4935,0.0],[39.891,15.4921,6.0779],[39.8921,15.489,0.0186],[39.8985,15.4868,0.0],[39.9024,15.4876,0.8225],[39.9024,15.4935,1.124],[39.9063,15.504,2.0807],[39.9032,15.5093,0.0]]],
[[[39.9296,15.5265,0.0],[39.926,15.5274,0.0],[39.9287,15.5224,0.7163],[39.931,15.5226,0.6901],[39.9296,15.5265,0.0]]],
[[[39.9171,15.536,1.8917],[39.914,15.5371,0.0],[39.9107,15.5351,0.0],[39.9121,15.5329,0.0],[39.9182,15.5318,0.0],[39.9188,15.5349,0.0],[39.9171,15.536,1.8917]]],
[[[39.9045,15.7082,5.7598],[39.8988,15.7088,0.5132],[39.9076,15.6982,0.0],[39.9124,15.6962,0.0],[39.9174,15.7021,0.0],[39.9176,15.7046,0.0],[39.9154,15.7071,0.0],[39.9045,15.7082,5.7598]]],
[[[39.4801,15.5937,0.0],[39.4804,15.5965,0.0],[39.479,15.5968,0.0],[39.4768,15.5918,0.0692],[39.4801,15.5921,0.0],[39.4801,15.5937,0.0]]],
[[[39.8157,15.4551,0.7846],[39.8135,15.4557,0.0],[39.8149,15.4521,0.3009],[39.8165,15.4532,0.6943],[39.8157,15.4551,0.7846]]],
[[[39.8138,15.4654,2.7997],[39.8107,15.4665,0.5997],[39.8096,15.4654,0.0],[39.8126,15.4607,0.8851],[39.8146,15.4615,0.0],[39.8138,15.4654,2.7997]]],
[[[39.7513,15.4974,0.0],[39.7476,15.4988,0.0],[39.749,15.494,0.0],[39.7465,15.4904,2.3502],[39.7463,15.4826,0.3985],[39.7385,15.4793,0.5116],[39.7371,15.4729,0.0],[39.7415,15.4596,0.0],[39.744,15.4596,4.2703],[39.744,15.4579,0.0],[39.749,15.4529,0.0],[39.7538,15.4524,7.0264],[39.7546,15.4415,1.6777],[39.7579,15.4388,0.0],[39.7562,15.4326,0.0],[39.7593,15.4307,0.0],[39.7618,15.4332,5.1599],[39.7663,15.4329,2.246],[39.7626,15.434,15.5856],[39.759,15.4415,0.0],[39.7607,15.4446,9.3049],[39.7635,15.444,0.0],[39.7637,15.4454,0.0],[39.7599,15.4465,5.2759],[39.7593,15.4485,0.0],[39.7607,15.4499,0.0],[39.7568,15.4521,0.0],[39.7582,15.4549,15.3529],[39.7568,15.4585,1.2272],[39.7532,15.4621,0.5637],[39.7515,15.4615,5.4775],[39.7507,15.4668,2.0871],[39.7568,15.4635,0.0],[39.7571,15.4668,1.5854],[39.7551,15.469,1.1022],[39.7562,15.4738,5.0881],[39.7521,15.4885,8.417],[39.7526,15.4946,0.0],[39.7513,15.4974,0.0]]],
[[[39.8115,15.4774,1.7332],[39.8121,15.4796,0.0],[39.809,15.4776,0.0],[39.8104,15.4754,0.0],[39.8115,15.4774,1.7332]]],
[[[39.8213,15.5046,0.0],[39.8174,15.5057,0.0],[39.8149,15.5026,4.4054],[39.8138,15.4921,1.3565],[39.816,15.4824,0.0],[39.8174,15.4829,0.3072],[39.8171,15.4882,2.3704],[39.8215,15.4985,0.0],[39.8224,15.5029,1.0429],[39.8213,15.5046,0.0]]],
[[[39.761,15.5754,0.0],[39.7635,15.5749,0.0],[39.7632,15.579,0.1989],[39.7651,15.5829,0.0],[39.7624,15.5813,0.0],[39.7615,15.5776,0.0],[39.7596,15.5774,0.0],[39.761,15.5754,0.0]]],
[[[39.7974,15.7818,0.9983],[39.794,15.7829,0.2298],[39.7938,15.7701,0.0],[39.7985,15.7788,0.0],[39.7974,15.7818,0.9983]]],
[[[39.7601,15.7857,0.5169],[39.7596,15.7879,0.0],[39.7546,15.7874,0.126],[39.749,15.7849,0.0],[39.7482,15.7829,0.0],[39.7546,15.786,0.6681],[39.7568,15.7851,0.694],[39.756,15.7838,0.0],[39.7601,15.7857,0.5169]]],
[[[39.4693,15.6101,2.9005],[39.4679,15.6121,0.0],[39.4665,15.6085,6.9727],[39.4637,15.6068,0.0],[39.4635,15.6038,1.5948],[39.4607,15.6018,1.9122],[39.4637,15.5999,2.4977],[39.4624,15.5976,2.2696],[39.4632,15.5957,0.4993],[39.4665,15.5976,0.0],[39.4657,15.6007,2.8017],[39.4688,15.6035,0.0],[39.4693,15.6101,2.9005]]],
[[[39.481,15.6126,0.0],[39.4793,15.6146,0.7689],[39.4718,15.6096,0.9269],[39.4735,15.5999,0.0],[39.4743,15.6024,0.236],[39.4735,15.6051,1.06],[39.479,15.6071,0.0],[39.4793,15.609,2.6719],[39.4813,15.6096,0.0],[39.481,15.6126,0.0]]],
[[[39.5804,15.906,0.0],[39.5785,15.9087,0.4403],[39.5754,15.9013,0.0],[39.5796,15.9007,0.7917],[39.5818,15.9024,0.2829],[39.5804,15.906,0.0]]],
[[[39.944,15.7279,0.0],[39.9418,15.7299,0.0],[39.9426,15.7271,0.2845],[39.939,15.7288,0.0],[39.9365,15.7268,1.3442],[39.9338,15.7199,7.2492],[39.9335,15.7143,0.0],[39.9276,15.7118,4.7435],[39.9243,15.7065,0.0],[39.924,15.7024,0.3513],[39.9268,15.7018,0.3103],[39.926,15.6976,1.0129],[39.9296,15.6965,2.0865],[39.931,15.6938,0.0],[39.941,15.7029,3.2498],[39.9526,15.7024,0.0],[39.954,15.7051,0.0],[39.9501,15.7107,0.0],[39.9482,15.7218,0.0],[39.9457,15.7274,0.0],[39.944,15.7279,0.0]]],
[[[39.8918,15.7154,0.0],[39.894,15.7151,0.0],[39.8949,15.7163,0.0],[39.891,15.7165,0.0],[39.8918,15.7154,0.0]]],
[[[39.9118,15.721,2.3466],[39.9168,15.7235,0.0],[39.9129,15.7221,0.0],[39.9068,15.7226,0.0],[39.9038,15.7207,0.0],[39.8979,15.7212,0.0],[39.8971,15.7201,0.0],[39.8996,15.7193,2.9369],[39.899,15.7157,2.1529],[39.8951,15.7149,0.0],[39.9015,15.7143,4.1155],[39.9004,15.7126,4.7025],[39.8971,15.7129,0.0],[39.8976,15.7115,0.0],[39.9096,15.7101,0.0],[39.9143,15.7132,0.0],[39.9143,15.7138,0.0],[39.9082,15.7132,3.4829],[39.9082,15.7151,0.4617],[39.9121,15.7165,0.0],[39.9082,15.7176,6.5973],[39.9118,15.721,2.3466]]],
[[[39.9238,15.7146,2.0909],[39.9232,15.7129,0.0],[39.9287,15.7163,0.0],[39.9332,15.7221,3.3468],[39.9338,15.726,0.0],[39.9324,15.726,0.0],[39.9301,15.7207,1.0761],[39.9238,15.7146,2.0909]]],
[[[40.0235,15.6426,0.0],[40.0224,15.6437,0.0],[40.019,15.6437,0.0],[40.0199,15.6421,0.0],[40.0235,15.6426,0.0]]],
[[[40.0874,15.7899,0.0],[40.0882,15.7938,0.0],[40.0868,15.7943,0.3553],[40.0863,15.7921,0.5007],[40.0874,15.7899,0.0]]],
[[[40.0974,15.7976,0.4787],[40.0951,15.799,0.0],[40.0879,15.7951,0.3553],[40.0921,15.7935,0.1966],[40.0921,15.7954,0.3554],[40.1007,15.7979,0.0],[40.0974,15.7976,0.4787]]],
[[[40.0899,15.8974,2.9152],[40.0874,15.8993,0.0],[40.0849,15.8976,1.1244],[40.0821,15.8887,1.2261],[40.0835,15.8818,0.0],[40.0868,15.8788,0.6545],[40.0885,15.8799,0.0],[40.0901,15.8871,0.0],[40.0899,15.8974,2.9152]]],
[[[39.9685,15.7271,0.0],[39.9696,15.7279,0.0],[39.9676,15.7285,0.0],[39.9654,15.7237,0.0],[39.9671,15.724,0.5492],[39.9685,15.7271,0.0]]],
[[[39.9174,15.8276,0.0],[39.9135,15.8287,1.0507],[39.9132,15.8271,1.0507],[39.904,15.8271,0.0],[39.9024,15.8215,0.0],[39.9057,15.8176,0.0],[39.9121,15.8185,1.7708],[39.9129,15.8163,0.0],[39.9135,15.8207,2.1547],[39.9154,15.8196,0.0],[39.9146,15.824,5.5907],[39.916,15.8232,0.0],[39.9162,15.8251,0.7663],[39.9151,15.8268,0.9375],[39.9171,15.826,0.9375],[39.9174,15.8276,0.0]]],
[[[39.9224,15.834,1.0433],[39.9224,15.8357,0.0],[39.919,15.8363,0.8863],[39.9146,15.8318,0.0],[39.9188,15.8304,0.0],[39.9224,15.834,1.0433]]],
[[[39.9404,15.911,0.1536],[39.9349,15.9121,0.0],[39.9271,15.8951,0.0],[39.9443,15.8949,0.0],[39.9401,15.904,0.4061],[39.9415,15.9096,0.9822],[39.9404,15.911,0.1536]]],
[[[39.8787,15.9099,0.7472],[39.8776,15.9121,0.0],[39.8743,15.911,1.796],[39.8729,15.9087,0.0],[39.874,15.904,0.9383],[39.8768,15.9051,0.0],[39.8787,15.9099,0.7472]]],
[[[39.9018,15.9188,0.0],[39.8993,15.9201,0.6605],[39.8974,15.9182,0.1991],[39.896,15.916,0.0],[39.8971,15.9121,1.3956],[39.8996,15.9115,0.0],[39.9015,15.9129,0.0],[39.9026,15.9149,1.3746],[39.9018,15.9188,0.0]]],
[[[39.8732,15.9346,0.8548],[39.8707,15.9354,0.5327],[39.8696,15.9324,0.0],[39.8726,15.9296,0.0],[39.8737,15.9299,0.0],[39.8732,15.9346,0.8548]]],
[[[39.9488,15.9857,0.2496],[39.946,15.9871,0.0],[39.9437,15.9851,0.0],[39.9415,15.981,0.0],[39.9424,15.9765,0.5556],[39.9396,15.9746,0.0],[39.9404,15.971,1.0149],[39.9393,15.9687,0.0],[39.944,15.969,1.2892],[39.9471,15.9624,0.2549],[39.9499,15.9637,1.2629],[39.9535,15.9726,0.0],[39.9535,15.9774,0.0],[39.9488,15.9857,0.2496]]],
[[[39.8424,15.8554,0.7744],[39.8351,15.8565,0.5719],[39.834,15.851,0.0],[39.8368,15.8474,0.0],[39.8429,15.8463,0.0],[39.8438,15.8538,0.0],[39.8424,15.8554,0.7744]]],
[[[39.6471,15.9271,-0.3196],[39.6385,15.9282,0.2531],[39.6326,15.926,-0.2189],[39.6246,15.919,-0.31],[39.6218,15.911,0.8614],[39.6185,15.9068,0.2693],[39.6101,15.9032,0.3711],[39.6087,15.901,0.2551],[39.6138,15.9013,0.3225],[39.6204,15.9051,0.1779],[39.6274,15.9054,0.9738],[39.6315,15.9024,1.3643],[39.6385,15.9007,1.7286],[39.6396,15.8974,0.6546],[39.6435,15.896,0.7229],[39.6421,15.8949,-0.1933],[39.6432,15.8938,-0.1933],[39.6493,15.896,0.8823],[39.6526,15.8938,-0.0677],[39.6657,15.8988,0.2089],[39.666,15.901,0.0955],[39.6632,15.9057,0.0],[39.6526,15.9124,2.9104],[39.6532,15.9215,0.9816],[39.6471,15.9271,-0.3196]]],
[[[39.6046,15.9599,0.8845],[39.5951,15.9604,0.4617],[39.5951,15.9518,0.0],[39.5962,15.9496,0.2935],[39.5999,15.9482,-0.1202],[39.6004,15.9432,-0.1554],[39.6018,15.9457,0.6014],[39.6046,15.9463,0.5026],[39.6074,15.9429,0.6329],[39.6074,15.9404,0.0],[39.6115,15.9371,-0.3434],[39.6087,15.9432,0.8958],[39.6104,15.9513,2.3388],[39.606,15.956,4.4841],[39.6063,15.9585,3.6901],[39.6046,15.9599,0.8845]]],
[[[39.8399,15.9996,0.0],[39.839,16.0021,0.0],[39.8324,16.0007,0.0],[39.8299,15.9946,2.4948],[39.8315,15.9899,0.0],[39.8351,15.991,0.0],[39.8399,15.9996,0.0]]],
[[[39.8479,16.0029,0.0],[39.8488,16.0063,0.0],[39.8468,16.0046,0.0],[39.8465,16.0015,0.0],[39.8479,16.0029,0.0]]],
[[[39.6768,16.0151,0.0],[39.6768,16.0168,0.0],[39.6746,16.0154,-0.0234],[39.6751,16.0149,-0.0234],[39.6768,16.0151,0.0]]],
[[[39.666,16.0199,0.4863],[39.6654,16.0224,0.0],[39.6613,16.0165,0.0995],[39.6635,16.0163,0.0],[39.666,16.0199,0.4863]]],
[[[39.7693,16.0479,0.0],[39.766,16.0488,0.0],[39.7646,16.0454,0.5057],[39.7679,16.0446,0.0],[39.7693,16.0479,0.0]]],
[[[39.5418,15.9485,1.1754],[39.5404,15.9501,2.859],[39.5371,15.9501,2.4403],[39.5326,15.9471,1.1802],[39.5321,15.9449,0.0],[39.5379,15.944,1.0028],[39.5424,15.9468,0.0],[39.5418,15.9485,1.1754]]],
[[[39.4435,16.0321,3.4118],[39.4454,16.0332,0.0],[39.4454,16.0351,0.0],[39.4382,16.0332,2.1491],[39.441,16.0313,1.2944],[39.4435,16.0321,3.4118]]],
[[[39.5993,16.0951,0.0],[39.5988,16.0979,0.0],[39.5968,16.096,0.7319],[39.5982,16.0921,0.0],[39.599,16.0929,0.0],[39.5993,16.0951,0.0]]],
[[[39.4329,16.1562,0.1358],[39.4313,16.1574,0.0],[39.4307,16.154,1.299],[39.4313,16.151,0.9224],[39.434,16.1482,4.5124],[39.4318,16.1426,1.6718],[39.4368,16.1338,2.5902],[39.4415,16.1296,0.3353],[39.4451,16.1193,0.9633],[39.4526,16.1087,0.7889],[39.4557,16.1071,1.1795],[39.4599,16.1087,0.256],[39.4585,16.1132,1.3487],[39.456,16.1135,1.2313],[39.4557,16.1154,0.6366],[39.4632,16.1101,1.7684],[39.4665,16.106,0.851],[39.4665,16.1018,1.2056],[39.4685,16.101,1.2056],[39.471,16.0943,1.0816],[39.4707,16.0938,1.0816],[39.4682,16.0951,1.0012],[39.4665,16.0999,0.1808],[39.464,16.101,0.0],[39.466,16.0987,1.6331],[39.4651,16.0879,0.6493],[39.4712,16.0776,2.6393],[39.4754,16.0562,1.8466],[39.4682,16.0443,0.1819],[39.464,16.0418,1.3846],[39.4582,16.0418,0.9441],[39.4557,16.0401,0.2934],[39.4562,16.0388,1.9818],[39.4671,16.0362,0.0931],[39.4746,16.041,0.6993],[39.4774,16.0507,0.8486],[39.4846,16.0582,0.0],[39.4868,16.0713,1.2838],[39.4857,16.0801,0.0],[39.4793,16.0935,0.0],[39.4674,16.1121,0.0],[39.4613,16.1349,0.0],[39.4549,16.1429,0.0],[39.4562,16.1471,0.0],[39.4532,16.1507,0.0],[39.4521,16.1493,0.0],[39.4488,16.1513,0.0],[39.4415,16.1515,1.2295],[39.4329,16.1562,0.1358]]],
[[[39.6126,16.0746,0.0],[39.611,16.0768,0.0],[39.6104,16.0721,0.0],[39.6121,16.0699,0.0],[39.6132,16.0724,0.0],[39.6126,16.0746,0.0]]],
[[[39.7451,16.1451,0.0],[39.744,16.1471,0.0],[39.7426,16.1424,0.1147],[39.7446,16.1421,0.0],[39.7451,16.1451,0.0]]],
[[[39.776,16.2115,0.0386],[39.7743,16.2129,0.0],[39.7735,16.2112,0.0234],[39.7746,16.2082,0.0561],[39.7765,16.2085,0.0147],[39.776,16.2115,0.0386]]],
[[[39.7582,16.3063,0.974],[39.756,16.3085,1.0024],[39.7493,16.3037,7.447],[39.7476,16.3001,2.0705],[39.7487,16.294,2.143],[39.7546,16.2943,1.0816],[39.7601,16.2921,3.2215],[39.764,16.2943,0.0],[39.7604,16.299,0.0],[39.7582,16.3063,0.974]]],
[[[40.2874,14.9321,1.0332],[40.2888,14.9338,0.0],[40.286,14.9335,1.0332],[40.2863,14.9315,0.0],[40.2874,14.9321,1.0332]]],
[[[40.3007,15.0574,0.5303],[40.2985,15.0585,4.0389],[40.2926,15.0568,0.0],[40.2976,15.0482,2.9113],[40.2874,15.0438,0.0],[40.2899,15.0385,5.7491],[40.2882,15.0329,0.6707],[40.289,15.0304,0.0],[40.2793,15.0151,2.7856],[40.2779,15.0076,2.5983],[40.276,15.0068,0.4367],[40.2779,15.0021,4.6667],[40.2732,15.0001,0.5721],[40.2718,14.9965,1.5267],[40.2679,14.9949,5.9607],[40.266,14.989,0.0],[40.2635,14.9874,0.0],[40.2657,14.986,2.542],[40.2676,14.9812,8.1554],[40.274,14.9788,6.2752],[40.2929,14.9793,3.3172],[40.299,14.9762,0.0],[40.3076,14.9768,0.0],[40.3129,14.9826,0.0],[40.3157,14.9893,16.618],[40.3254,14.9993,3.1481],[40.326,15.0021,8.3237],[40.3351,15.0065,0.7126],[40.3474,15.0096,0.0],[40.3526,15.0132,2.371],[40.3457,15.0165,0.0],[40.3482,15.0196,0.0],[40.344,15.0243,0.0],[40.3438,15.0282,0.0],[40.3404,15.031,0.0583],[40.3432,15.0376,0.0],[40.3387,15.0468,0.0],[40.3332,15.0482,0.0],[40.3304,15.0518,2.9638],[40.3235,15.056,0.0],[40.3207,15.0557,0.0],[40.3176,15.051,2.157],[40.3138,15.051,1.451],[40.314,15.0529,1.8579],[40.3007,15.0574,0.5303]]],
[[[40.251,15.0518,0.0],[40.246,15.0529,0.5148],[40.2451,15.0493,2.6024],[40.2496,15.0487,0.0],[40.251,15.0518,0.0]]],
[[[40.2499,15.0671,0.0],[40.2507,15.0685,0.0],[40.2371,15.0604,0.0],[40.239,15.0582,0.0],[40.244,15.0593,0.7973],[40.2499,15.0671,0.0]]],
[[[40.2163,14.9554,0.0],[40.2146,14.9571,0.0],[40.2132,14.9532,0.0],[40.2154,14.9535,0.0],[40.2163,14.9554,0.0]]],
[[[40.2182,14.9782,0.0],[40.2188,14.9793,0.0],[40.2168,14.9799,0.9245],[40.2165,14.9746,1.2078],[40.2182,14.9743,1.2041],[40.2179,14.971,2.4691],[40.2193,14.9704,0.0],[40.2212,14.9729,3.5341],[40.2188,14.9751,1.2041],[40.2182,14.9782,0.0]]],
[[[40.1665,15.0982,0.0],[40.1671,15.0996,0.0],[40.1643,15.0996,0.0],[40.1646,15.0974,0.4962],[40.1665,15.0982,0.0]]],
[[[40.1882,15.1157,0.0],[40.1862,15.1168,0.0],[40.1821,15.1107,0.7388],[40.1888,15.109,0.0],[40.1901,15.1126,0.0],[40.1882,15.1157,0.0]]],
[[[40.3424,15.0888,1.6049],[40.3404,15.0901,4.4574],[40.3257,15.086,0.0],[40.3168,15.0779,2.2822],[40.324,15.0771,3.8907],[40.3332,15.079,2.6723],[40.3415,15.0846,0.0],[40.3424,15.0888,1.6049]]],
[[[40.2704,15.0924,0.0],[40.2668,15.0935,0.0],[40.2649,15.0901,3.0642],[40.2588,15.086,2.3647],[40.2551,15.0796,0.4411],[40.2649,15.0796,0.0],[40.274,15.0849,0.0],[40.2785,15.0857,0.0],[40.2779,15.089,0.0],[40.2751,15.0918,0.0],[40.2704,15.0924,0.0]]],
[[[40.226,15.0935,0.0],[40.2268,15.0965,0.1645],[40.2207,15.0965,1.5947],[40.2185,15.0949,1.8333],[40.2174,15.091,0.0],[40.2251,15.091,0.0],[40.226,15.0935,0.0]]],
[[[40.2935,15.104,5.6605],[40.2935,15.1087,0.0],[40.2871,15.1046,1.0582],[40.289,15.1015,0.0],[40.2924,15.1021,3.3585],[40.2935,15.104,5.6605]]],
[[[40.3387,15.1421,0.0],[40.3376,15.1449,0.0],[40.3357,15.1449,0.0],[40.3321,15.1421,0.0],[40.3285,15.1421,0.0],[40.3193,15.1296,0.3184],[40.3124,15.1257,0.9067],[40.3093,15.1257,0.0],[40.3079,15.1276,0.0],[40.3074,15.1254,1.4191],[40.3043,15.1254,0.9264],[40.3026,15.121,1.5574],[40.3115,15.1118,0.0],[40.3226,15.1149,0.0],[40.336,15.1243,3.0488],[40.3396,15.1318,0.0],[40.3407,15.1382,1.8242],[40.3387,15.1421,0.0]]],
[[[40.2899,15.1362,0.0],[40.2921,15.1362,0.0],[40.2924,15.1374,0.0],[40.2907,15.1379,0.0],[40.2899,15.1362,0.0]]],
[[[40.2851,15.1385,0.0],[40.2876,15.1382,0.0],[40.2879,15.1393,0.0],[40.2854,15.1393,0.0],[40.2851,15.1385,0.0]]],
[[[40.2971,15.1996,0.8333],[40.291,15.2007,0.0],[40.2626,15.1935,2.3001],[40.2526,15.1815,5.3214],[40.2357,15.1732,1.2089],[40.231,15.1685,0.0],[40.231,15.1646,0.0],[40.2343,15.1565,3.1496],[40.2282,15.1515,1.5785],[40.2271,15.1368,0.0],[40.229,15.1346,0.0],[40.2296,15.129,0.0],[40.2326,15.1274,1.4807],[40.231,15.121,0.0],[40.2321,15.1193,1.7715],[40.2393,15.119,0.0],[40.2476,15.1143,0.0],[40.2515,15.111,2.0142],[40.2518,15.1054,0.0],[40.2546,15.1054,0.0],[40.2693,15.1146,0.0],[40.2743,15.1157,2.1038],[40.281,15.1215,1.4199],[40.2799,15.1279,0.0],[40.2829,15.1346,2.5183],[40.274,15.1471,0.0],[40.2738,15.1504,0.0],[40.2657,15.1515,3.4096],[40.2626,15.1612,0.7925],[40.2676,15.1643,1.0836],[40.271,15.1635,0.0],[40.2757,15.159,1.1696],[40.2796,15.1593,0.0],[40.2779,15.1732,1.4052],[40.2815,15.1749,0.0],[40.2868,15.1849,0.0],[40.294,15.1846,0.0],[40.2968,15.1865,0.0],[40.2996,15.1938,2.2568],[40.2971,15.1996,0.8333]]],
[[[40.4021,14.9538,1.264],[40.4024,14.9554,1.264],[40.3993,14.9549,1.6891],[40.3993,14.9535,0.2247],[40.4021,14.9538,1.264]]],
[[[40.5018,15.0018,0.0],[40.5018,15.0049,0.0],[40.4974,15.0032,0.0],[40.4982,14.999,0.0],[40.5001,14.999,0.0],[40.5018,15.0018,0.0]]],
[[[40.3763,15.0274,0.0],[40.3768,15.0301,0.0],[40.3751,15.031,0.0],[40.3746,15.0243,0.0],[40.3763,15.0274,0.0]]],
[[[40.4118,15.0418,0.0],[40.4096,15.0429,0.0],[40.4074,15.0418,0.7957],[40.401,15.0363,0.0],[40.3979,15.029,0.0],[40.3988,15.0226,2.158],[40.4007,15.0218,0.0],[40.4146,15.0246,0.0],[40.4185,15.0224,0.0],[40.421,15.0235,0.0],[40.426,15.0212,0.0],[40.426,15.0279,0.0],[40.4279,15.0313,0.0],[40.4268,15.0401,0.0],[40.4249,15.0426,0.0],[40.4179,15.0424,0.0],[40.4157,15.0404,0.8721],[40.4118,15.0418,0.0]]],
[[[40.4221,15.0449,0.0],[40.4226,15.0468,0.0],[40.4199,15.0463,0.0],[40.4201,15.044,0.0],[40.4221,15.0449,0.0]]],
[[[40.414,15.0549,0.0],[40.4126,15.0568,0.0],[40.411,15.0535,0.0],[40.4118,15.0532,0.0],[40.414,15.0549,0.0]]],
[[[40.499,15.0626,0.0],[40.5001,15.0635,0.0],[40.4954,15.0621,0.0],[40.4865,15.0621,0.0],[40.4932,15.0612,0.0],[40.499,15.0626,0.0]]],
[[[40.481,15.0635,0.0],[40.4818,15.064,0.0],[40.4735,15.064,0.0],[40.4799,15.0632,0.0],[40.481,15.0635,0.0]]],
[[[40.5018,15.0807,0.0],[40.4974,15.0812,2.7627],[40.4801,15.0768,5.0213],[40.4779,15.0749,0.0],[40.4771,15.071,4.168],[40.4729,15.0688,0.6514],[40.4721,15.0654,0.0],[40.4782,15.0682,0.5815],[40.4929,15.0626,0.8791],[40.5024,15.0651,0.0],[40.5079,15.0713,0.0],[40.5082,15.074,0.0],[40.5076,15.0776,1.3428],[40.5018,15.0807,0.0]]],
[[[40.4321,15.0787,0.0],[40.4329,15.0815,2.5105],[40.4287,15.0799,1.4068],[40.429,15.0785,0.0],[40.4321,15.0787,0.0]]],
[[[40.3965,15.4721,0.0109],[40.3937,15.4732,0.2459],[40.3926,15.4729,0.2459],[40.3976,15.4701,0.0],[40.3965,15.4721,0.0109]]],
[[[40.3907,15.4721,0.0],[40.391,15.4735,0.0],[40.3887,15.4732,0.0],[40.3887,15.4721,0.0],[40.3907,15.4721,0.0]]],
[[[40.6474,15.3857,0.0],[40.6426,15.3871,0.0],[40.641,15.3843,0.0],[40.6435,15.3824,0.3574],[40.6501,15.3835,1.2985],[40.6568,15.3785,0.0],[40.6568,15.3804,0.0],[40.6521,15.3857,0.0],[40.6493,15.3868,0.3914],[40.6474,15.3857,0.0]]],
[[[40.7263,15.436,0.0],[40.7254,15.4379,0.0],[40.7232,15.4346,0.0],[40.7251,15.4346,0.0],[40.7263,15.436,0.0]]],
[[[40.7521,15.4938,0.0],[40.7449,15.4951,1.2777],[40.7379,15.489,0.0],[40.7399,15.4729,0.0],[40.7457,15.4726,0.0],[40.7529,15.4757,0.0],[40.7649,15.486,3.5481],[40.7632,15.4904,0.0],[40.7585,15.4899,4.6709],[40.7521,15.4938,0.0]]],
[[[40.7949,15.4843,0.0],[40.7951,15.4857,0.0],[40.7924,15.4849,0.0],[40.7935,15.484,0.0],[40.7949,15.4843,0.0]]],
[[[40.1704,15.1388,0.0],[40.1699,15.1407,0.0],[40.1646,15.1396,0.6585],[40.1615,15.1304,0.0],[40.1685,15.131,0.6191],[40.1712,15.1362,0.0],[40.1704,15.1388,0.0]]],
[[[40.1365,15.169,0.0],[40.1346,15.171,0.0],[40.1332,15.1687,0.0],[40.1329,15.1635,0.0],[40.1301,15.1601,0.4752],[40.1307,15.1562,0.0],[40.1426,15.1532,0.0],[40.1451,15.151,0.4553],[40.146,15.1532,0.0],[40.1429,15.1546,0.7879],[40.1435,15.1565,0.0],[40.1365,15.169,0.0]]],
[[[40.2126,15.1671,1.1835],[40.2132,15.1693,0.7604],[40.2118,15.1704,0.7604],[40.2079,15.1663,0.1966],[40.2113,15.1651,0.0],[40.2126,15.1671,1.1835]]],
[[[40.1765,15.1812,0.0],[40.1751,15.1832,0.0],[40.1763,15.1879,0.0],[40.1732,15.1854,0.0],[40.1721,15.181,0.695],[40.1674,15.1771,0.0],[40.1685,15.171,2.9519],[40.1671,15.1674,0.4441],[40.1746,15.1685,0.0],[40.1774,15.1743,1.6292],[40.1765,15.1812,0.0]]],
[[[40.3462,15.1624,0.8183],[40.3446,15.1635,2.5045],[40.3413,15.1626,3.088],[40.3415,15.1568,5.3842],[40.339,15.149,0.0],[40.3429,15.1488,1.6104],[40.3407,15.1479,0.0],[40.3396,15.1443,0.0],[40.3435,15.146,0.0],[40.3438,15.1482,0.0],[40.3479,15.1493,0.0],[40.3482,15.1579,0.0],[40.3462,15.1624,0.8183]]],
[[[40.3232,15.1604,0.0],[40.3218,15.1624,0.0],[40.3193,15.1596,0.0],[40.3207,15.159,1.166],[40.3232,15.1604,0.0]]],
[[[40.3165,15.1615,0.0],[40.316,15.1632,1.0283],[40.3129,15.1624,0.9772],[40.314,15.1601,0.0],[40.3165,15.1615,0.0]]],
[[[40.3007,15.214,0.5028],[40.2985,15.2157,0.0],[40.294,15.2104,0.0],[40.3032,15.2074,0.0],[40.3032,15.2121,0.0],[40.3007,15.214,0.5028]]],
[[[40.1301,15.249,0.0],[40.1276,15.2501,2.2631],[40.1251,15.246,0.9683],[40.1268,15.239,0.0],[40.1249,15.2346,0.0],[40.1235,15.2332,1.3398],[40.1193,15.2332,0.0],[40.1165,15.2282,0.0],[40.1115,15.2274,0.0],[40.1118,15.226,0.0],[40.1165,15.2268,0.0],[40.1188,15.2251,0.0],[40.1224,15.2315,0.0],[40.1268,15.2318,2.1573],[40.1329,15.2435,1.9339],[40.1301,15.249,0.0]]],
[[[40.1032,15.2732,0.0],[40.104,15.2754,1.9519],[40.1024,15.2757,0.0],[40.0982,15.2715,0.0],[40.0979,15.269,0.0],[40.1007,15.269,0.0],[40.1032,15.2732,0.0]]],
[[[40.1757,15.279,0.3949],[40.1693,15.279,0.0],[40.1649,15.2732,1.7029],[40.164,15.2674,1.381],[40.1621,15.2654,0.0],[40.1696,15.2685,0.5229],[40.1749,15.2676,0.359],[40.1776,15.276,1.3611],[40.1757,15.279,0.3949]]],
[[[40.1618,15.5618,0.0],[40.1629,15.5621,0.0],[40.1601,15.5624,0.7038],[40.1604,15.5615,0.0],[40.1618,15.5618,0.0]]],
[[[40.2571,15.2499,0.9359],[40.2474,15.2504,2.9993],[40.2318,15.2407,0.0],[40.2304,15.2326,3.4725],[40.2285,15.2299,2.4944],[40.231,15.2249,0.0],[40.2349,15.2215,0.6779],[40.2346,15.2151,0.6936],[40.2487,15.2162,0.4235],[40.2532,15.2201,0.0],[40.2668,15.2226,2.2311],[40.2729,15.2288,3.3418],[40.2762,15.239,0.7244],[40.2654,15.2468,1.1452],[40.2571,15.2499,0.9359]]],
[[[40.3415,15.479,0.0],[40.3415,15.481,0.0],[40.3357,15.4807,0.0],[40.336,15.4799,0.0],[40.3415,15.479,0.0]]],
[[[40.3199,15.746,5.2057],[40.3185,15.7485,2.719],[40.3163,15.7443,0.0],[40.3187,15.7443,1.1503],[40.3199,15.746,5.2057]]],
[[[40.2779,15.8276,0.0],[40.276,15.8287,0.0],[40.276,15.8268,0.6308],[40.2626,15.8199,0.6267],[40.2535,15.8185,0.3179],[40.2554,15.8126,0.6267],[40.2599,15.8113,0.7827],[40.2715,15.8132,0.3907],[40.2765,15.8107,0.612],[40.2879,15.8224,0.0],[40.2871,15.8254,1.1508],[40.2813,15.8243,0.8182],[40.2779,15.8276,0.0]]],
[[[40.3804,15.4732,0.0],[40.381,15.4743,0.2343],[40.379,15.4746,0.0272],[40.3763,15.471,1.5842],[40.3793,15.471,0.8783],[40.3804,15.4732,0.0]]],
[[[40.4718,15.4729,0.0],[40.471,15.4749,0.0],[40.469,15.4749,1.3428],[40.471,15.4707,0.0],[40.4718,15.4729,0.0]]],
[[[40.3865,15.4718,0.0],[40.386,15.474,0.0],[40.3835,15.474,0.0],[40.3835,15.4726,0.1674],[40.3865,15.4718,0.0]]],
[[[40.3812,15.4757,0.1038],[40.3793,15.4771,1.8973],[40.376,15.4765,0.0],[40.3793,15.4751,0.0272],[40.3812,15.4757,0.1038]]],
[[[40.8571,15.4926,0.0],[40.8507,15.4938,0.0],[40.8532,15.4885,0.0],[40.856,15.4871,4.1082],[40.8604,15.4876,0.0],[40.8607,15.4896,0.0],[40.8571,15.4926,0.0]]],
[[[40.8582,15.4954,0.0],[40.859,15.4968,0.0],[40.8565,15.4965,0.0],[40.8551,15.4943,1.1272],[40.8571,15.494,0.0],[40.8582,15.4954,0.0]]],
[[[40.8743,15.5071,0.0],[40.8726,15.5099,0.0],[40.8693,15.5079,0.0],[40.8721,15.5068,2.0364],[40.8643,15.5051,5.3103],[40.864,15.5026,3.3895],[40.8688,15.4979,0.0],[40.8735,15.4982,0.0],[40.8785,15.5013,0.0],[40.8779,15.5049,1.6667],[40.8746,15.5051,4.8789],[40.8743,15.5071,0.0]]],
[[[40.8051,15.524,0.0],[40.8024,15.5251,0.7999],[40.799,15.5199,2.2886],[40.7915,15.5157,0.0],[40.7793,15.496,0.0],[40.7801,15.4935,0.0],[40.7876,15.4926,2.4329],[40.7879,15.4882,0.0],[40.7926,15.4888,2.3741],[40.8054,15.499,0.0],[40.809,15.4996,0.0],[40.8138,15.5032,0.0],[40.819,15.5035,0.0],[40.8299,15.5074,0.9461],[40.8357,15.5121,0.0],[40.8357,15.5179,0.0],[40.8343,15.5193,0.0],[40.829,15.519,0.0],[40.8157,15.5232,0.0],[40.8096,15.5226,0.8473],[40.8051,15.524,0.0]]],
[[[40.3346,15.5021,0.0689],[40.3312,15.5029,1.5729],[40.3335,15.4971,2.0228],[40.3382,15.4963,0.1557],[40.3385,15.4946,0.6893],[40.3374,15.4943,0.6893],[40.3374,15.4899,3.2664],[40.3338,15.4888,0.0],[40.339,15.4882,0.0],[40.3413,15.486,0.0],[40.346,15.4862,0.0],[40.3499,15.4782,0.0],[40.3568,15.4774,0.0],[40.3585,15.4796,0.1811],[40.3632,15.4804,0.0],[40.3676,15.4774,1.4026],[40.3693,15.4785,0.0],[40.3688,15.4801,0.0],[40.3715,15.4776,0.0],[40.3882,15.4779,0.7572],[40.3801,15.4804,0.502],[40.3826,15.4846,0.0],[40.3732,15.4843,0.0],[40.3729,15.4874,0.0],[40.3671,15.4921,0.0],[40.3557,15.496,0.0],[40.3393,15.4963,0.0701],[40.3382,15.4999,0.0],[40.3346,15.5021,0.0689]]],
[[[40.5121,15.5282,0.6489],[40.5121,15.5329,0.0],[40.506,15.5307,0.722],[40.5099,15.5249,0.0],[40.5115,15.5251,0.0],[40.5121,15.5282,0.6489]]],
[[[40.4665,15.6054,0.8813],[40.464,15.606,0.0],[40.4649,15.5993,0.0],[40.4657,15.5996,0.0],[40.4665,15.6054,0.8813]]],
[[[40.4768,15.7065,1.9684],[40.4757,15.7099,0.9942],[40.4735,15.7096,0.4322],[40.4715,15.7015,0.6625],[40.4749,15.7018,0.0],[40.4768,15.7065,1.9684]]],
[[[40.796,15.584,0.0],[40.7954,15.586,0.0],[40.7938,15.586,0.0],[40.7846,15.581,0.0],[40.779,15.574,0.0],[40.7788,15.5654,0.0],[40.7932,15.5582,0.0],[40.7979,15.5585,0.0],[40.8024,15.561,0.2492],[40.8057,15.561,0.6424],[40.8082,15.559,0.0],[40.8126,15.5596,0.0],[40.8149,15.566,0.0],[40.8124,15.5751,0.0],[40.8096,15.5757,0.0],[40.8018,15.5724,0.0],[40.7921,15.574,1.5927],[40.7921,15.5793,1.4347],[40.796,15.584,0.0]]],
[[[40.6349,15.6038,0.2181],[40.6329,15.6049,0.2963],[40.631,15.6013,0.0],[40.6351,15.5993,0.0],[40.636,15.5951,0.0],[40.6454,15.5937,0.0],[40.6476,15.5907,0.0],[40.6496,15.5915,0.0],[40.6493,15.5979,0.9334],[40.6437,15.6032,0.2544],[40.6365,15.6024,0.1066],[40.6349,15.6038,0.2181]]],
[[[40.7904,15.6412,0.8828],[40.7835,15.6418,0.7557],[40.7743,15.6346,0.0],[40.7749,15.6321,0.0],[40.7821,15.6279,0.0],[40.7926,15.6279,0.0],[40.7965,15.631,0.5563],[40.7979,15.6351,0.0],[40.7921,15.6371,1.6285],[40.7904,15.6412,0.8828]]],
[[[40.7221,15.6485,1.2772],[40.7212,15.6565,1.4368],[40.7243,15.6615,0.5627],[40.7126,15.6551,0.0],[40.7121,15.6457,0.0],[40.7163,15.6421,2.0228],[40.7174,15.639,0.0],[40.7224,15.6462,0.3823],[40.7221,15.6485,1.2772]]],
[[[40.6385,15.6724,0.0],[40.6338,15.6735,0.0],[40.6318,15.671,0.0],[40.6343,15.6621,0.0],[40.6368,15.6626,0.2288],[40.6385,15.6724,0.0]]],
[[[40.7779,15.6999,2.016],[40.7718,15.7001,3.4628],[40.7771,15.6954,0.0],[40.7749,15.6879,0.0],[40.776,15.686,0.5443],[40.779,15.6854,0.0],[40.7849,15.6968,1.8574],[40.7835,15.7007,1.5781],[40.7779,15.6999,2.016]]],
[[[40.656,15.7237,0.0],[40.6549,15.7251,0.0],[40.6507,15.7251,0.0],[40.6474,15.7218,0.2151],[40.6424,15.7071,0.0],[40.6418,15.7015,0.2229],[40.6446,15.6987,0.0],[40.6474,15.6985,0.0],[40.6512,15.7015,0.9746],[40.6476,15.706,0.9275],[40.6479,15.7099,0.0],[40.6532,15.7174,1.3636],[40.6568,15.7193,0.0],[40.656,15.7237,0.0]]],
[[[40.6793,15.7165,1.6845],[40.6751,15.7176,0.5113],[40.6743,15.7151,0.9121],[40.6726,15.7149,0.9121],[40.6735,15.7118,0.0],[40.6774,15.7096,0.0],[40.6801,15.7104,0.0],[40.6793,15.7165,1.6845]]],
[[[40.3951,15.7071,0.0],[40.394,15.7082,0.0],[40.3921,15.7074,0.0],[40.3921,15.7035,0.212],[40.3935,15.7035,0.0],[40.3951,15.7071,0.0]]],
[[[40.5024,15.7601,4.2899],[40.4996,15.7613,1.2129],[40.4957,15.759,0.8015],[40.4899,15.7588,0.8577],[40.4857,15.7562,2.3304],[40.4851,15.7535,0.7562],[40.4918,15.7493,1.3571],[40.499,15.7496,1.3056],[40.5018,15.7512,1.6464],[40.4993,15.7526,4.4753],[40.5051,15.7557,0.0],[40.5024,15.7601,4.2899]]],
[[[40.454,15.7946,0.4717],[40.4488,15.7957,0.0],[40.4449,15.7918,1.8114],[40.4482,15.7857,2.3665],[40.4546,15.7868,0.4121],[40.4576,15.7851,0.0],[40.4571,15.7913,0.0],[40.454,15.7946,0.4717]]],
[[[40.3671,15.8257,0.0],[40.364,15.8271,0.0],[40.3551,15.8154,0.0],[40.3568,15.8146,0.0],[40.3601,15.8179,1.4255],[40.3582,15.8118,0.262],[40.3646,15.8154,0.0],[40.3737,15.8165,1.1523],[40.3696,15.814,0.0],[40.3785,15.8146,0.0],[40.3743,15.821,0.0],[40.3671,15.8257,0.0]]],
[[[40.5651,15.726,4.301],[40.5649,15.7293,1.4505],[40.5635,15.7296,1.4505],[40.5593,15.7226,2.9629],[40.5635,15.7218,0.0],[40.5654,15.7232,0.0],[40.5651,15.726,4.301]]],
[[[40.756,15.7501,2.0453],[40.7499,15.7512,1.2388],[40.7457,15.7468,2.3223],[40.7393,15.7435,1.7606],[40.7329,15.7435,2.4713],[40.7296,15.7474,0.5607],[40.7265,15.7479,1.2131],[40.7226,15.7476,0.0],[40.7224,15.7451,0.0],[40.724,15.741,3.0386],[40.7282,15.739,2.4141],[40.741,15.7432,1.2956],[40.746,15.7429,1.3071],[40.7479,15.7343,0.0],[40.7551,15.7354,0.0],[40.7626,15.7424,1.8425],[40.7699,15.7449,0.7742],[40.7657,15.7388,0.0],[40.7693,15.7374,0.0],[40.7729,15.7449,1.246],[40.7718,15.7493,0.0],[40.756,15.7501,2.0453]]],
[[[40.6953,15.8213,1.2576],[40.6929,15.8235,1.1206],[40.6851,15.8121,0.0],[40.6849,15.7963,0.0],[40.6876,15.7926,1.138],[40.6907,15.7915,0.0],[40.6935,15.7915,0.0],[40.6949,15.794,2.2981],[40.6951,15.8018,0.0],[40.6913,15.8104,0.0],[40.6926,15.8146,2.1746],[40.696,15.8176,1.073],[40.6953,15.8213,1.2576]]],
[[[40.5649,15.8465,1.2828],[40.5635,15.8476,0.0],[40.561,15.8468,0.0],[40.5571,15.8374,3.2849],[40.5582,15.8221,0.3528],[40.5629,15.8207,0.0],[40.5665,15.8229,0.0],[40.566,15.8321,0.0],[40.5635,15.836,0.8463],[40.5649,15.8465,1.2828]]],
[[[40.5062,15.864,0.0],[40.5051,15.8651,0.8619],[40.5018,15.8643,0.0],[40.4946,15.8554,0.0],[40.4924,15.8474,0.0],[40.4943,15.8438,0.7238],[40.501,15.8435,0.0],[40.5085,15.8471,0.0],[40.5118,15.8571,2.3484],[40.5062,15.864,0.0]]],
[[[40.3726,15.901,0.0],[40.371,15.9021,0.0],[40.3693,15.901,0.0],[40.3693,15.8963,0.0],[40.3646,15.8921,0.9134],[40.3629,15.8879,0.0],[40.3546,15.8851,0.3867],[40.3501,15.8799,0.0],[40.3557,15.8837,0.0],[40.3721,15.8829,0.0],[40.3774,15.8862,0.6382],[40.3788,15.8915,0.0],[40.3726,15.901,0.0]]],
[[[40.599,15.8961,0.325],[40.5954,15.8968,0.402],[40.5887,15.8938,0.0],[40.5868,15.8899,0.0],[40.5871,15.8815,0.3201],[40.5926,15.871,0.3454],[40.6074,15.8732,0.0],[40.6104,15.8765,2.0833],[40.611,15.8807,0.4577],[40.6146,15.8837,0.3285],[40.6132,15.8887,0.2914],[40.599,15.8961,0.325]]],
[[[40.5615,15.9057,0.0],[40.5568,15.9063,0.0],[40.5549,15.9035,0.0],[40.559,15.8963,0.2854],[40.5635,15.9001,0.5034],[40.5615,15.9057,0.0]]],
[[[40.206,15.7379,0.9411],[40.2054,15.7396,0.2328],[40.1857,15.7388,0.0],[40.1763,15.7304,0.3325],[40.176,15.7293,0.3325],[40.1796,15.7274,1.4829],[40.181,15.7193,2.2414],[40.1793,15.7176,1.5296],[40.1749,15.7212,0.7922],[40.1738,15.7179,0.1542],[40.1774,15.7176,1.3085],[40.1804,15.7124,0.0],[40.1821,15.7124,0.4774],[40.1815,15.7146,0.7937],[40.1832,15.7151,1.8104],[40.1865,15.7107,1.1394],[40.1851,15.7085,1.6366],[40.1815,15.7085,0.6314],[40.1799,15.7038,0.2065],[40.1754,15.7018,0.7414],[40.1749,15.6985,0.7179],[40.1726,15.6962,0.8915],[40.1707,15.696,1.0462],[40.1738,15.6982,1.1201],[40.1724,15.7001,0.5152],[40.1665,15.6965,2.0358],[40.1649,15.694,1.2291],[40.166,15.6913,0.8957],[40.1649,15.6893,0.896],[40.164,15.6946,0.3212],[40.161,15.691,0.3841],[40.1618,15.6888,0.6784],[40.1599,15.6904,0.7987],[40.1607,15.6882,0.6184],[40.1618,15.6879,0.6184],[40.1599,15.6871,0.8066],[40.1585,15.6899,0.7987],[40.1568,15.6865,0.6778],[40.1551,15.6826,0.1884],[40.1549,15.6676,0.5856],[40.1618,15.6607,0.0],[40.1749,15.6599,0.0],[40.1876,15.6654,0.0],[40.2001,15.6685,0.0],[40.2049,15.6732,0.6422],[40.2099,15.6749,0.0],[40.2088,15.6987,0.8663],[40.206,15.7051,0.6707],[40.2137,15.7157,0.8927],[40.2146,15.7204,2.3441],[40.2118,15.7304,0.798],[40.206,15.7379,0.9411]]],
[[[39.9585,15.8862,0.4535],[39.9535,15.8876,0.1634],[39.954,15.8807,0.0],[39.9571,15.879,0.9961],[39.9679,15.8785,0.0],[39.9726,15.8701,0.0],[39.9826,15.8612,0.0],[39.9935,15.8626,0.5267],[39.9974,15.8607,0.0],[40.0046,15.8651,1.7877],[40.0126,15.8654,0.0],[40.0185,15.8612,0.0541],[40.0171,15.8588,0.0],[40.0179,15.8535,0.291],[40.0143,15.8507,0.2201],[40.0146,15.849,0.6878],[40.0213,15.8471,0.4876],[40.021,15.8499,0.3241],[40.0235,15.8518,0.0],[40.024,15.8551,0.0661],[40.0365,15.8488,0.8059],[40.0421,15.8413,0.9444],[40.0412,15.8365,0.084],[40.0438,15.834,0.3228],[40.044,15.831,0.0308],[40.0435,15.8193,0.3623],[40.0382,15.8149,0.2401],[40.0365,15.8154,0.2401],[40.0357,15.8199,0.043],[40.0285,15.816,0.0],[40.0207,15.821,0.4013],[40.0199,15.8235,0.0],[40.0146,15.8237,0.7686],[40.0107,15.8287,1.5255],[40.0076,15.8296,0.2243],[39.999,15.8182,0.6923],[39.9971,15.8124,3.1269],[39.9943,15.811,1.3621],[39.9938,15.8085,3.4686],[39.9896,15.8085,1.698],[39.9871,15.8032,3.1929],[39.9871,15.7929,4.5924],[39.9924,15.7762,0.3462],[39.9946,15.7762,0.6183],[39.9976,15.7799,0.2364],[39.9987,15.7788,0.2364],[40.0049,15.7804,0.2425],[40.0107,15.7779,0.5995],[40.0101,15.7749,0.0379],[40.0137,15.7749,0.0],[40.0096,15.7685,0.0],[40.0101,15.7657,1.0129],[40.0074,15.7657,0.0],[40.0054,15.7638,0.0],[39.9974,15.7635,0.5956],[39.9918,15.7699,0.2347],[39.9837,15.7674,0.3916],[39.9765,15.7679,1.8412],[39.9718,15.771,0.0],[39.9646,15.7713,0.5404],[39.9629,15.7735,0.0],[39.964,15.7757,0.0],[39.9615,15.7746,0.4552],[39.956,15.7807,0.0],[39.9485,15.7854,1.1348],[39.9362,15.789,0.0],[39.9324,15.7882,0.0],[39.9313,15.7796,0.0],[39.9351,15.7715,0.9763],[39.934,15.769,1.484],[39.9379,15.7665,7.5992],[39.9379,15.7649,2.7545],[39.9365,15.7643,0.9108],[39.9343,15.7676,1.3884],[39.9315,15.7679,0.0],[39.9304,15.766,0.5345],[39.9318,15.7646,0.6105],[39.9274,15.7663,0.0],[39.9226,15.7624,0.0],[39.9251,15.7526,0.0],[39.9271,15.7507,2.2743],[39.9279,15.7424,4.9566],[39.9268,15.7418,1.4248],[39.9276,15.7357,8.9204],[39.9257,15.7329,4.1063],[39.9265,15.7313,5.4278],[39.9226,15.7249,0.0],[39.9271,15.7246,0.0],[39.9287,15.7282,1.0918],[39.9332,15.7293,2.2143],[39.9407,15.7385,0.0],[39.9404,15.7332,0.0],[39.9512,15.7262,0.0],[39.9549,15.719,3.286],[39.9568,15.7179,0.5656],[39.9588,15.7235,0.3429],[39.966,15.7276,3.5671],[39.9674,15.7315,6.0613],[39.9715,15.736,0.5935],[39.9735,15.736,0.0],[39.9715,15.7379,1.32],[39.9776,15.7382,0.0],[39.9768,15.7399,2.3757],[39.9829,15.741,3.5694],[39.9957,15.7385,1.9242],[39.9965,15.7371,1.9242],[40.001,15.7374,6.5975],[40.0029,15.7349,0.0],[40.0082,15.7338,8.8996],[40.0049,15.7318,0.0],[40.0121,15.7293,0.5645],[40.0149,15.7304,0.0],[40.0204,15.7288,7.4724],[40.0251,15.7265,2.9751],[40.0243,15.726,2.9751],[40.0207,15.7276,0.0],[40.0213,15.7251,0.0],[40.0288,15.7232,1.9977],[40.0262,15.7226,1.7923],[40.0288,15.7204,2.9849],[40.0265,15.7193,0.0],[40.0307,15.7176,9.9188],[40.0293,15.7163,0.0],[40.0329,15.7151,3.2556],[40.0368,15.7093,0.5103],[40.044,15.7032,2.3023],[40.0465,15.6929,0.0],[40.0482,15.6915,0.0],[40.0529,15.6918,0.9118],[40.0582,15.6879,4.7603],[40.0601,15.6818,0.0],[40.0621,15.6804,1.4952],[40.0621,15.6768,0.0],[40.0776,15.6676,3.7341],[40.0835,15.6599,0.0],[40.0804,15.6465,2.9479],[40.0724,15.6385,8.9175],[40.0557,15.6351,11.2064],[40.0457,15.6354,10.7195],[40.0374,15.6376,0.8633],[40.0376,15.6346,0.0],[40.0474,15.6299,1.34],[40.0479,15.6268,3.6329],[40.0465,15.6251,4.5227],[40.0357,15.6304,4.814],[40.031,15.6299,1.5187],[40.0243,15.6365,1.0014],[40.0229,15.641,0.0],[40.0185,15.6401,11.2045],[40.0176,15.6426,0.0],[40.016,15.6426,0.0],[40.0101,15.6349,6.4049],[40.0032,15.6307,0.5925],[40.0107,15.6415,0.691],[40.0104,15.6437,0.8778],[40.0082,15.6429,0.0],[40.0035,15.6549,3.4569],[39.9938,15.6604,3.6196],[39.9915,15.6637,1.0441],[39.9888,15.6618,6.8648],[39.9863,15.6637,0.0],[39.9868,15.6496,0.0],[39.9893,15.6424,4.607],[39.9843,15.6424,0.2604],[39.9818,15.6451,0.3565],[39.9793,15.6604,0.0],[39.974,15.661,1.9035],[39.9726,15.6749,1.5196],[39.9701,15.6743,0.0],[39.9554,15.6796,0.9659],[39.9554,15.6807,2.8477],[39.9635,15.6799,0.0],[39.9635,15.6815,0.0],[39.9613,15.6824,0.0],[39.961,15.686,3.6173],[39.9635,15.686,5.3907],[39.9637,15.684,1.4256],[39.9663,15.6826,1.2996],[39.9685,15.6829,2.9475],[39.9688,15.6843,1.5056],[39.9707,15.6838,0.0],[39.9715,15.6854,0.0],[39.9657,15.691,0.0],[39.9579,15.6946,3.5048],[39.9565,15.6987,0.0],[39.9515,15.7001,5.2362],[39.9426,15.699,0.0],[39.9385,15.6957,0.0],[39.9404,15.6954,0.0],[39.9421,15.689,0.0],[39.9485,15.6851,0.4198],[39.9512,15.6768,0.0],[39.9546,15.6726,1.5479],[39.9526,15.6615,0.5304],[39.9554,15.6521,0.3152],[39.9604,15.6493,1.7957],[39.9657,15.6493,2.2929],[39.9688,15.6462,2.6295],[39.9688,15.6379,2.4285],[39.9654,15.6349,1.3917],[39.9651,15.6304,3.1897],[39.9624,15.6288,1.0233],[39.9668,15.6282,2.2601],[39.9668,15.626,2.3574],[39.9637,15.6265,2.4641],[39.9599,15.6238,0.0],[39.9615,15.6235,0.0],[39.9643,15.624,2.2013],[39.9624,15.6193,0.0],[39.9746,15.6176,0.1995],[39.9751,15.6129,0.0],[39.9793,15.6076,0.9904],[39.9882,15.6054,0.7068],[39.9957,15.6007,2.165],[40.0013,15.6015,0.4234],[40.0065,15.6101,0.2218],[40.0113,15.6088,0.2713],[40.0174,15.6093,2.1425],[40.0224,15.6057,4.5788],[40.0343,15.601,2.3908],[40.0365,15.5968,1.2552],[40.0462,15.5879,0.0],[40.0543,15.5874,1.2956],[40.056,15.5857,0.6278],[40.0546,15.579,0.0],[40.056,15.5774,0.4694],[40.061,15.5785,0.0],[40.0618,15.5771,1.0401],[40.0693,15.5768,0.0],[40.0715,15.579,0.2193],[40.0713,15.5821,0.6239],[40.0768,15.5846,0.5496],[40.0932,15.5837,0.7583],[40.0957,15.5807,0.5145],[40.1024,15.5863,0.3631],[40.1076,15.586,0.2843],[40.111,15.589,0.7647],[40.1182,15.591,1.6279],[40.1218,15.5979,0.2491],[40.1215,15.6004,0.0676],[40.1257,15.601,0.5026],[40.1404,15.596,0.8287],[40.1518,15.589,0.8729],[40.1563,15.5885,1.2722],[40.1615,15.5832,0.3578],[40.1799,15.5907,2.6386],[40.1915,15.5885,0.0],[40.2046,15.5932,0.7734],[40.2076,15.5921,2.9697],[40.2204,15.5932,0.4758],[40.2365,15.5882,0.5516],[40.244,15.5887,0.0],[40.2465,15.5857,2.3759],[40.2593,15.5854,0.6199],[40.2701,15.5813,3.8065],[40.2885,15.5665,0.0],[40.3165,15.5615,0.0],[40.3238,15.5624,2.015],[40.3276,15.5674,2.736],[40.3304,15.5668,0.0],[40.3376,15.5699,0.0],[40.3429,15.5696,2.4586],[40.3457,15.5715,4.4621],[40.3624,15.5754,0.0],[40.3946,15.5643,3.1281],[40.409,15.5612,0.0],[40.4162,15.5626,0.0],[40.4188,15.5604,0.0],[40.426,15.5612,0.0],[40.4268,15.5696,0.0],[40.4235,15.5699,0.1973],[40.4226,15.5724,0.728],[40.4251,15.5788,0.0],[40.4174,15.5971,0.0],[40.4176,15.6018,0.0],[40.4201,15.6051,0.0],[40.4201,15.6115,0.0],[40.4188,15.6113,0.0],[40.4157,15.604,0.0],[40.4143,15.6068,0.5394],[40.4157,15.619,0.0],[40.4138,15.6313,0.1653],[40.4076,15.6357,0.0],[40.3879,15.6346,0.0],[40.3874,15.6249,1.3056],[40.3788,15.6215,1.1614],[40.3796,15.624,1.0668],[40.3838,15.626,0.2635],[40.3857,15.629,1.0686],[40.3854,15.6349,0.8636],[40.3868,15.6371,0.0],[40.3826,15.6374,0.0],[40.3704,15.6465,0.0],[40.3712,15.641,0.2673],[40.376,15.6379,0.0],[40.3757,15.6365,0.5142],[40.3696,15.6415,1.0038],[40.3682,15.6449,0.0],[40.3582,15.6507,0.0],[40.3535,15.6504,1.1419],[40.3485,15.6546,0.0],[40.3454,15.6546,0.0],[40.3438,15.6529,1.0118],[40.3424,15.661,0.0793],[40.3368,15.6596,1.4226],[40.336,15.6613,1.1972],[40.334,15.671,1.1724],[40.3379,15.6732,0.0],[40.3357,15.6771,0.0],[40.3326,15.679,0.6472],[40.3293,15.6851,0.0],[40.3157,15.691,0.0],[40.3054,15.6921,0.0],[40.2968,15.6957,0.0],[40.2635,15.6968,1.31],[40.2568,15.6996,0.4],[40.2293,15.6907,0.0],[40.2199,15.6846,0.4893],[40.219,15.6804,0.6889],[40.2124,15.6732,0.2169],[40.216,15.671,0.9648],[40.2396,15.6651,0.2565],[40.2449,15.6671,3.7842],[40.2676,15.6679,0.721],[40.2754,15.6649,0.8664],[40.2813,15.6571,0.8576],[40.2912,15.6571,4.6473],[40.2918,15.6543,1.1697],[40.2935,15.6538,1.1697],[40.2896,15.6493,3.6061],[40.2754,15.6501,0.7281],[40.2682,15.6524,0.1753],[40.2593,15.6504,0.9751],[40.251,15.6412,0.7911],[40.2532,15.6282,1.2575],[40.2482,15.619,0.0],[40.2374,15.6149,0.4727],[40.2299,15.6146,2.1583],[40.2118,15.6185,4.5675],[40.2082,15.6207,0.0],[40.1818,15.6246,2.0841],[40.1668,15.6313,0.4805],[40.1554,15.6437,0.8518],[40.1529,15.6579,0.5095],[40.1485,15.6682,0.334],[40.1493,15.6746,0.6969],[40.1512,15.6776,0.0],[40.1499,15.6835,0.0],[40.1482,15.6885,0.1274],[40.1446,15.691,0.9137],[40.1351,15.7188,1.4723],[40.1354,15.7357,0.0],[40.1429,15.7604,0.4048],[40.141,15.7626,1.1161],[40.1429,15.7657,0.8251],[40.1418,15.7685,1.4325],[40.1382,15.7674,0.0],[40.1407,15.7715,0.638],[40.139,15.7774,0.7508],[40.1463,15.7863,0.0],[40.1474,15.8049,0.8214],[40.1418,15.8074,0.0],[40.1285,15.806,0.0],[40.1251,15.8037,1.944],[40.1151,15.806,0.0],[40.1151,15.8015,0.937],[40.1115,15.7996,0.3433],[40.1104,15.7968,0.3261],[40.109,15.7971,0.3189],[40.1093,15.8004,0.2576],[40.1054,15.8007,0.0],[40.1021,15.7963,0.1091],[40.104,15.7935,0.0],[40.1079,15.7957,0.7777],[40.1099,15.794,0.1366],[40.1168,15.7951,0.4358],[40.1218,15.7888,2.1051],[40.1215,15.7863,0.9893],[40.119,15.786,0.9925],[40.121,15.7799,0.4985],[40.1071,15.7751,0.3506],[40.0979,15.776,0.5417],[40.0904,15.781,0.1253],[40.084,15.7918,0.0],[40.0857,15.796,0.4316],[40.0904,15.799,0.4832],[40.0962,15.8004,0.3468],[40.1004,15.799,0.0],[40.1043,15.8021,0.5755],[40.1054,15.8151,0.1671],[40.0965,15.8357,0.0],[40.0835,15.8468,2.1889],[40.0832,15.8496,0.3721],[40.074,15.8501,1.1597],[40.0438,15.8643,0.0],[40.0315,15.8665,0.8111],[40.0176,15.8813,1.1463],[40.0057,15.8801,1.6456],[39.9965,15.8837,2.5623],[39.9749,15.8835,1.0086],[39.9699,15.8849,0.447],[39.9696,15.8862,0.0],[39.9615,15.8849,1.0459],[39.9585,15.8862,0.4535]]],
[[[40.1079,15.7918,0.0],[40.1085,15.7938,0.1829],[40.1054,15.7915,0.0],[40.1071,15.7913,0.0],[40.1079,15.7918,0.0]]],
[[[40.1093,15.8096,0.4642],[40.1096,15.811,0.1924],[40.1076,15.8118,0.1602],[40.1065,15.8076,0.1695],[40.1076,15.8074,0.1695],[40.1093,15.8096,0.4642]]],
[[[40.1943,15.8468,1.8943],[40.1918,15.8482,0.9035],[40.1896,15.8468,6.0221],[40.1862,15.8435,0.0],[40.1874,15.8404,0.0],[40.1901,15.8396,0.0],[40.1935,15.8418,0.0],[40.1943,15.8468,1.8943]]],
[[[40.109,15.8724,0.0],[40.1043,15.8729,0.0],[40.1032,15.8582,0.0],[40.1129,15.8568,1.3763],[40.1243,15.8513,0.0],[40.1368,15.849,1.1631],[40.1401,15.8496,0.0],[40.1429,15.8526,1.4616],[40.1437,15.8574,0.2017],[40.1407,15.8629,0.202],[40.1268,15.8699,1.1438],[40.109,15.8724,0.0]]],
[[[40.1929,15.9171,0.0],[40.1888,15.9182,0.6272],[40.1826,15.911,4.1522],[40.1729,15.9068,1.458],[40.1693,15.9007,0.0],[40.1804,15.9051,1.5728],[40.1826,15.9049,1.9739],[40.1862,15.901,0.3892],[40.1896,15.9007,0.4128],[40.1954,15.9087,0.0],[40.196,15.9135,1.473],[40.1929,15.9171,0.0]]],
[[[40.1446,15.9618,1.0659],[40.1426,15.9635,0.2168],[40.1407,15.9599,0.0],[40.1429,15.9585,0.0],[40.144,15.9563,0.3357],[40.1432,15.9524,0.0],[40.1479,15.946,1.6531],[40.1532,15.9435,0.0],[40.1599,15.9371,0.5284],[40.1676,15.9338,0.6086],[40.1679,15.9404,2.2628],[40.1649,15.951,0.0],[40.1621,15.9521,0.0],[40.159,15.9563,0.5125],[40.1543,15.9582,0.5397],[40.1468,15.9585,0.9791],[40.1446,15.9618,1.0659]]],
[[[40.2946,15.8554,0.0],[40.2932,15.8546,0.0],[40.2932,15.854,0.0],[40.2957,15.8549,0.0],[40.2946,15.8554,0.0]]],
[[[40.241,15.8832,0.6011],[40.2418,15.8849,0.1773],[40.2371,15.881,0.0],[40.2382,15.8807,0.0],[40.241,15.8832,0.6011]]],
[[[40.2574,15.9304,1.018],[40.2532,15.9315,1.7116],[40.2504,15.9301,0.0],[40.2399,15.9204,0.0],[40.2463,15.9188,0.4808],[40.2532,15.9199,0.0],[40.2607,15.9257,0.5449],[40.2574,15.9304,1.018]]],
[[[40.2951,16.0032,0.0],[40.2882,16.0043,0.0],[40.2824,16.0024,0.0],[40.2818,15.9996,1.6689],[40.279,15.9976,0.247],[40.2804,15.9921,1.5659],[40.279,15.9824,2.0304],[40.2837,15.9804,0.0],[40.2932,15.984,4.8335],[40.3004,15.9846,0.0925],[40.3018,15.9871,2.3849],[40.3013,15.9937,2.2189],[40.299,16.0004,0.0],[40.2951,16.0032,0.0]]],
[[[40.2126,15.9829,0.5391],[40.2115,15.9846,0.0],[40.2085,15.9846,0.0],[40.1965,15.9799,0.0],[40.2032,15.9785,0.0],[40.2126,15.9829,0.5391]]],
[[[40.1671,16.0615,0.1114],[40.1576,16.0624,0.0],[40.1476,16.061,0.0],[40.1465,16.0549,0.2485],[40.1432,16.0524,0.0774],[40.1404,16.0537,0.4665],[40.1379,16.0596,0.0],[40.1349,16.0593,0.0],[40.1351,16.0568,0.0],[40.131,16.0524,0.0],[40.131,16.0488,0.0],[40.1343,16.0457,0.0],[40.134,16.0435,0.4524],[40.1329,16.0449,0.1018],[40.1307,16.044,0.0],[40.1312,16.0415,0.1764],[40.1446,16.0335,0.0],[40.1554,16.0301,0.1299],[40.1632,16.0193,0.12],[40.169,16.0193,0.1358],[40.1871,16.0313,0.1439],[40.1907,16.0346,0.3023],[40.1935,16.0426,0.0],[40.1929,16.0457,0.0],[40.1826,16.0462,0.0975],[40.1785,16.0507,0.0],[40.1771,16.0554,0.1305],[40.1732,16.0565,0.2275],[40.1671,16.0615,0.1114]]],
[[[40.1718,16.194,0.0],[40.1665,16.1951,0.0],[40.1643,16.1929,0.0],[40.161,16.1751,0.7167],[40.1582,16.1735,0.4619],[40.1582,16.1604,0.0],[40.1618,16.1557,0.0],[40.159,16.146,0.0],[40.1532,16.1382,1.0518],[40.1396,16.1324,0.742],[40.1307,16.1335,0.4149],[40.1251,16.1268,0.4907],[40.124,16.1213,0.0],[40.1263,16.1162,0.0],[40.1265,16.0999,0.0],[40.1288,16.0921,0.2887],[40.1354,16.0893,0.4578],[40.1343,16.0879,0.0],[40.1354,16.0871,0.2731],[40.1538,16.0879,0.0],[40.1585,16.0926,0.0],[40.1574,16.0957,0.5762],[40.1593,16.0979,0.6288],[40.1662,16.0979,0.0],[40.1662,16.1037,0.0],[40.1643,16.109,0.0],[40.1671,16.1151,0.0],[40.1665,16.1235,0.0],[40.1626,16.1276,0.0],[40.1582,16.129,0.045],[40.1574,16.1335,0.6333],[40.1599,16.144,0.5605],[40.1646,16.154,0.2469],[40.1679,16.156,0.4748],[40.1715,16.1529,0.1433],[40.1813,16.1521,1.5422],[40.1957,16.1576,0.9447],[40.2021,16.1576,0.0],[40.2007,16.1665,0.5407],[40.1957,16.1732,1.308],[40.186,16.181,1.2757],[40.1765,16.1926,0.0],[40.1718,16.194,0.0]]],
[[[40.1732,16.2304,0.5223],[40.1721,16.2329,0.0],[40.1676,16.2313,0.0],[40.1651,16.2243,0.3048],[40.1668,16.2215,0.0],[40.1735,16.2282,0.0],[40.1732,16.2304,0.5223]]],
[[[40.2235,16.2826,1.7658],[40.2238,16.2879,0.0],[40.2201,16.2879,0.0],[40.2132,16.2774,0.0],[40.2115,16.2662,2.9481],[40.2065,16.2615,0.0],[40.206,16.2485,0.1507],[40.2113,16.2457,0.2463],[40.2212,16.246,0.1894],[40.2235,16.2424,0.0],[40.2229,16.2393,0.0],[40.2313,16.2393,0.0],[40.2346,16.2371,1.1749],[40.2354,16.2329,0.4828],[40.2376,16.2321,1.8903],[40.2418,16.2357,2.7634],[40.244,16.2435,0.4068],[40.239,16.2437,0.7026],[40.2343,16.2393,0.1801],[40.229,16.2407,0.4315],[40.2263,16.2457,0.0],[40.2265,16.2546,0.5999],[40.2279,16.256,0.0],[40.226,16.2579,0.0],[40.2265,16.2613,0.1164],[40.2318,16.2724,1.4751],[40.2349,16.2749,0.0],[40.236,16.2799,0.2209],[40.2296,16.2776,0.0],[40.224,16.2799,0.0],[40.2235,16.2826,1.7658]]],
[[[40.2438,16.3424,0.0],[40.2429,16.3449,0.0],[40.2371,16.3401,1.1971],[40.2165,16.3132,0.0],[40.2407,16.336,0.0],[40.2438,16.3424,0.0]]],
[[[40.1843,16.4876,1.6617],[40.1846,16.489,0.0],[40.181,16.4888,0.0],[40.1818,16.4857,2.5443],[40.1804,16.4846,0.0],[40.1824,16.4846,0.0],[40.1843,16.4876,1.6617]]],
[[[40.1565,16.5493,0.0],[40.1557,16.5515,0.6126],[40.1518,16.5515,0.0],[40.1521,16.5479,0.0],[40.1485,16.5479,0.0],[40.1463,16.546,1.0649],[40.1426,16.5335,0.0],[40.1351,16.5246,0.1773],[40.1312,16.5235,0.307],[40.1304,16.5115,0.0],[40.1357,16.509,0.7801],[40.1357,16.5054,1.5652],[40.1346,16.5012,0.0],[40.1285,16.4935,1.2606],[40.1285,16.4893,1.7869],[40.1296,16.4857,0.5235],[40.1321,16.4865,0.2823],[40.1349,16.484,0.0],[40.136,16.4757,0.0],[40.139,16.4835,0.4499],[40.1374,16.4863,0.0],[40.1387,16.4968,0.4688],[40.1413,16.4999,1.496],[40.1493,16.5012,0.0],[40.1546,16.5051,0.0],[40.1563,16.5085,0.9424],[40.1596,16.5082,0.5395],[40.164,16.5046,0.0],[40.171,16.5049,0.3212],[40.1701,16.5024,0.3393],[40.1718,16.5021,0.1669],[40.1735,16.5062,0.2236],[40.1776,16.5101,0.2345],[40.1824,16.5115,0.1225],[40.1868,16.5101,0.0],[40.1893,16.5126,0.0],[40.1818,16.5238,0.0],[40.1749,16.5299,0.0],[40.1824,16.5443,1.0138],[40.1799,16.5496,1.0499],[40.1765,16.551,0.0],[40.1735,16.5474,0.0],[40.1732,16.5454,0.2059],[40.1749,16.5451,1.0646],[40.1696,16.5407,0.0],[40.1613,16.5393,0.0],[40.1596,16.5399,3.7519],[40.1565,16.5493,0.0]]],
[[[39.926,16.0026,0.0],[39.9243,16.0071,0.0],[39.9215,15.9988,3.3372],[39.9271,15.9976,0.0],[39.926,16.0026,0.0]]],
[[[39.861,16.0165,0.3783],[39.8615,16.0199,0.4711],[39.8601,16.0201,0.4711],[39.8571,16.0168,1.8179],[39.8563,16.0129,0.2243],[39.8596,16.014,0.0],[39.861,16.0165,0.3783]]],
[[[39.9765,16.0504,2.8964],[39.9779,16.061,0.0],[39.9732,16.0557,0.1318],[39.9707,16.0485,4.1749],[39.974,16.0388,0.1649],[39.9782,16.0432,0.5435],[39.976,16.0476,1.6501],[39.9765,16.0504,2.8964]]],
[[[39.896,16.0596,0.0],[39.894,16.0615,0.1795],[39.8907,16.0607,0.3672],[39.8876,16.0557,0.3821],[39.8865,16.0482,0.0],[39.8949,16.056,0.0],[39.896,16.0596,0.0]]],
[[[40.0568,15.9588,1.27],[40.0557,15.9621,0.0],[40.0515,15.9615,0.7462],[40.0474,15.9596,0.0],[40.0471,15.9551,2.7931],[40.0393,15.9535,0.7663],[40.0351,15.9585,0.184],[40.0332,15.9588,0.0],[40.0238,15.9479,0.3162],[40.0201,15.9407,0.315],[40.0262,15.9424,1.4956],[40.0262,15.939,2.7414],[40.0346,15.9349,0.185],[40.0465,15.9388,2.0635],[40.0532,15.9376,0.3444],[40.0615,15.944,0.0],[40.0632,15.9482,0.6651],[40.0615,15.954,0.0],[40.0568,15.9588,1.27]]],
[[[40.051,16.1165,0.0],[40.0474,16.1176,0.0],[40.0429,16.114,0.1077],[40.039,16.1015,0.0],[40.0418,16.0815,0.4069],[40.0449,16.076,0.829],[40.044,16.0618,0.0],[40.0488,16.0671,3.1494],[40.0507,16.0654,0.0],[40.0504,16.0579,0.202],[40.0479,16.0574,0.0],[40.0465,16.0543,0.0],[40.0418,16.0532,1.2051],[40.0093,16.0599,0.3094],[39.9996,16.0601,0.4644],[39.9935,16.0571,0.0],[39.9904,16.0529,0.0],[39.9893,16.0474,1.5647],[39.9907,16.0413,1.29],[39.9888,16.0096,0.7037],[39.9912,16.0054,0.0],[39.9907,16.001,0.0],[39.9943,16.0032,0.8881],[40.0124,16.0026,0.0],[40.0163,16.0063,0.2929],[40.0357,16.0068,0.099],[40.046,16.0115,0.2412],[40.0504,16.0071,0.5646],[40.0537,16.0004,0.0],[40.0585,15.9976,0.491],[40.059,15.994,0.3426],[40.0551,15.9904,0.1539],[40.0554,15.989,0.1539],[40.0635,15.989,0.6791],[40.0732,15.9843,0.1135],[40.0829,15.984,1.0449],[40.0938,15.976,0.5039],[40.1074,15.9757,1.9984],[40.1138,15.9851,0.1029],[40.1199,15.9804,0.0],[40.1199,15.9896,0.0],[40.1135,15.9937,0.3926],[40.1063,15.9954,0.6954],[40.1043,15.999,0.1035],[40.0996,16.0004,0.4965],[40.0962,16.0093,0.0],[40.0926,16.0124,0.0],[40.079,16.0218,0.21],[40.0771,16.0215,0.0866],[40.0788,16.0157,0.1627],[40.0762,16.0146,0.1252],[40.0749,16.0174,0.8163],[40.0743,16.0338,0.5302],[40.0779,16.0415,0.0],[40.0849,16.0485,0.0],[40.0996,16.0535,0.1594],[40.1118,16.051,0.0844],[40.1201,16.0549,0.0],[40.1249,16.0663,0.5758],[40.1224,16.0729,0.1695],[40.1171,16.0774,0.0],[40.1132,16.0765,0.472],[40.1079,16.0796,0.2743],[40.0949,16.0826,1.009],[40.0851,16.0868,1.3378],[40.0815,16.0865,0.0],[40.0846,16.0821,1.3006],[40.0846,16.0804,0.4369],[40.0818,16.0801,1.8926],[40.0793,16.0835,2.9917],[40.0732,16.0868,5.6703],[40.0651,16.0957,4.0609],[40.0651,16.0985,2.0021],[40.0701,16.1024,0.0],[40.0674,16.1046,0.0],[40.0646,16.1015,0.2954],[40.0604,16.101,1.0378],[40.051,16.1165,0.0]]],
[[[40.0396,16.1718,0.2818],[40.0396,16.1746,0.4093],[40.036,16.1732,0.0],[40.0329,16.1685,1.1237],[40.0254,16.1649,0.2366],[40.0257,16.1618,0.0],[40.0274,16.1607,0.1111],[40.0335,16.1646,0.0],[40.0396,16.1718,0.2818]]],
[[[40.0835,16.2026,0.9438],[40.0815,16.204,0.0],[40.0765,16.2035,1.1951],[40.0718,16.1976,0.0],[40.0707,16.1896,0.0],[40.0721,16.1849,1.3139],[40.0657,16.1776,3.1229],[40.0604,16.164,0.0],[40.0624,16.1651,0.0],[40.0646,16.1682,0.8355],[40.0799,16.1757,0.0],[40.0801,16.1826,0.1437],[40.0843,16.1871,0.0],[40.0874,16.1968,0.0],[40.0854,16.2018,0.3625],[40.0835,16.2026,0.9438]]],
[[[39.9876,16.0999,0.0],[39.9846,16.1013,0.0],[39.9818,16.0996,0.2198],[39.9804,16.0957,0.0],[39.9813,16.0893,0.0878],[39.9879,16.0896,0.0],[39.9893,16.0943,0.0],[39.9876,16.0999,0.0]]],
[[[39.859,16.1382,0.0],[39.856,16.1393,0.0],[39.8535,16.1354,1.0631],[39.8532,16.1299,0.0],[39.8549,16.1268,-0.0233],[39.859,16.1315,0.0],[39.859,16.1382,0.0]]],
[[[39.9718,16.1529,0.0],[39.9668,16.1535,0.6246],[39.9613,16.146,0.4613],[39.9626,16.1385,0.1097],[39.9685,16.1354,0.0],[39.9724,16.1363,0.0298],[39.9751,16.1418,0.0],[39.9749,16.1496,0.0],[39.9718,16.1529,0.0]]],
[[[39.9801,16.1815,0.0927],[39.9796,16.1846,0.0],[39.9757,16.1851,0.397],[39.9688,16.1837,0.7804],[39.966,16.1804,0.0],[39.9688,16.1665,1.4952],[39.9721,16.1643,1.4898],[39.9735,16.1612,0.0],[39.9776,16.164,0.5332],[39.9807,16.1696,0.0779],[39.9815,16.1804,0.0],[39.9801,16.1815,0.0927]]],
[[[39.9407,16.1765,0.2123],[39.9365,16.1776,0.0],[39.9346,16.176,0.3007],[39.9393,16.1712,0.0],[39.9413,16.1712,0.0241],[39.9426,16.1746,0.1358],[39.9407,16.1765,0.2123]]],
[[[39.8951,16.349,0.0],[39.8846,16.3499,0.6168],[39.8657,16.3443,2.4309],[39.8579,16.3449,2.0445],[39.8521,16.3412,0.0],[39.8537,16.3385,0.0],[39.8579,16.3401,0.1149],[39.8599,16.3393,0.2077],[39.861,16.3415,1.6888],[39.8671,16.3404,0.0],[39.8682,16.3382,0.926],[39.8615,16.3374,1.0565],[39.8607,16.3385,1.0565],[39.864,16.3396,0.0],[39.861,16.3399,0.2077],[39.8529,16.3332,0.0],[39.8582,16.3324,0.0],[39.8604,16.3343,0.2696],[39.8604,16.3296,1.4548],[39.8568,16.3288,0.0],[39.8615,16.3282,0.0],[39.8638,16.3246,3.2457],[39.8707,16.3246,9.5457],[39.8707,16.3221,1.2215],[39.876,16.3213,3.447],[39.8815,16.3143,0.0],[39.8826,16.3104,0.0],[39.8857,16.3113,1.3308],[39.8918,16.3085,0.0],[39.8924,16.3121,0.7065],[39.8993,16.3115,3.2764],[39.9082,16.3007,0.2369],[39.909,16.2957,0.9444],[39.906,16.289,0.0],[39.9093,16.2907,1.1378],[39.9099,16.2857,0.4846],[39.911,16.2857,0.0],[39.9138,16.289,0.0],[39.9085,16.3021,2.0297],[39.9085,16.3079,0.1775],[39.9068,16.3104,0.2424],[39.9076,16.3146,-0.2549],[39.9104,16.3174,0.1544],[39.9135,16.3174,-0.1936],[39.9268,16.3235,-0.0002],[39.9321,16.3215,0.14],[39.9351,16.3238,0.0],[39.9351,16.326,0.0],[39.9343,16.3279,0.0],[39.9293,16.3301,1.234],[39.926,16.3299,0.6237],[39.926,16.3268,0.4181],[39.919,16.3254,1.0286],[39.906,16.3285,0.0625],[39.9124,16.3332,0.0],[39.9121,16.3365,0.0],[39.911,16.3351,0.3432],[39.9071,16.336,0.1612],[39.9029,16.3424,0.0],[39.9029,16.3465,0.0],[39.8985,16.3462,2.6318],[39.8951,16.349,0.0]]],
[[[40.0229,16.2274,0.0],[40.0174,16.2285,0.2318],[40.0129,16.2149,0.0997],[40.0068,16.209,0.2524],[40.0018,16.2071,0.0],[40.0032,16.1988,0.0],[40.0187,16.209,0.082],[40.0218,16.2157,0.8806],[40.0265,16.2213,0.0],[40.0262,16.2237,0.0],[40.0229,16.2274,0.0]]],
[[[40.0051,16.3274,0.0],[40.0062,16.3274,0.0],[40.006,16.3296,0.0],[40.0049,16.329,0.0],[40.0051,16.3274,0.0]]],
[[[40.0843,16.3401,0.0],[40.0821,16.3415,0.6321],[40.0801,16.3385,1.0285],[40.0826,16.3351,1.0056],[40.0851,16.3357,1.0042],[40.0838,16.3343,1.0056],[40.0849,16.3338,0.6428],[40.086,16.3363,0.0],[40.0843,16.3401,0.0]]],
[[[40.0868,16.4318,0.0],[40.0868,16.4349,0.0],[40.0838,16.4354,0.0],[40.0812,16.4301,0.0],[40.0818,16.4268,0.0],[40.0849,16.4279,0.0],[40.0868,16.4318,0.0]]],
[[[40.0951,16.481,0.0],[40.0871,16.4813,0.0],[40.0857,16.4785,0.0],[40.0874,16.4743,2.5971],[40.0865,16.4718,0.0],[40.094,16.4713,0.1439],[40.0962,16.4729,0.0],[40.0979,16.4754,0.1621],[40.0957,16.4768,0.5668],[40.0951,16.481,0.0]]],
[[[40.0446,16.5343,0.7001],[40.0418,16.5357,0.0],[40.0393,16.5318,0.0],[40.0396,16.5296,0.0],[40.0435,16.5293,0.7378],[40.0446,16.5343,0.7001]]],
[[[39.8213,16.3057,0.0],[39.8218,16.3074,0.0],[39.8193,16.3068,0.0],[39.8199,16.3054,0.0],[39.8213,16.3057,0.0]]],
[[[39.759,16.3199,0.0],[39.7518,16.3207,0.0],[39.751,16.3143,6.128],[39.7551,16.3126,0.3691],[39.7576,16.3149,0.4105],[39.759,16.3199,0.0]]],
[[[39.8182,16.3307,0.0],[39.8165,16.3304,3.5023],[39.8154,16.3332,0.6094],[39.8129,16.3324,0.6198],[39.8135,16.3312,1.7579],[39.809,16.3274,0.0],[39.8085,16.3226,1.9783],[39.8013,16.3171,0.0],[39.8024,16.3157,3.73],[39.801,16.3124,0.0],[39.8088,16.3135,0.0],[39.8151,16.3207,1.5553],[39.8174,16.3196,0.0],[39.8196,16.3218,0.3975],[39.8235,16.3304,0.0],[39.8224,16.3318,0.3981],[39.8182,16.3307,0.0]]],
[[[39.8271,16.3404,1.5471],[39.8254,16.339,0.0],[39.8312,16.3396,0.0],[39.8338,16.3421,0.0],[39.8299,16.3415,1.9399],[39.8271,16.3404,1.5471]]],
[[[39.5901,16.1096,0.0],[39.5876,16.111,0.0],[39.586,16.1093,0.1376],[39.5857,16.1054,0.1562],[39.5871,16.1043,0.4727],[39.5899,16.1074,-0.0248],[39.5901,16.1096,0.0]]],
[[[39.4296,16.1851,0.0],[39.4282,16.1863,0.0],[39.4285,16.1832,0.3947],[39.4296,16.1837,0.0],[39.4296,16.1851,0.0]]],
[[[39.5757,16.3563,0.0],[39.5721,16.3587,0.6227],[39.5665,16.3554,5.8772],[39.5571,16.3532,2.9573],[39.551,16.349,0.8005],[39.539,16.3465,0.8555],[39.5365,16.3424,2.5498],[39.5329,16.3412,1.0637],[39.5335,16.3388,3.8213],[39.5379,16.3354,0.0],[39.5438,16.3365,0.0],[39.5515,16.3443,1.3571],[39.5663,16.3504,0.8853],[39.5729,16.3496,1.6696],[39.5751,16.3446,0.0],[39.5799,16.3418,0.0],[39.581,16.346,0.0],[39.5746,16.3512,0.7758],[39.5762,16.3535,0.0],[39.5757,16.3563,0.0]]],
[[[39.4993,16.4657,0.0],[39.4985,16.4649,0.4887],[39.4985,16.4629,0.0],[39.501,16.4662,0.0],[39.4993,16.4657,0.0]]],
[[[39.3199,16.506,1.5537],[39.316,16.5065,0.0],[39.3154,16.5038,0.0],[39.3174,16.5015,0.0],[39.3193,16.5018,0.0],[39.3199,16.506,1.5537]]],
[[[39.1699,16.5274,2.0272],[39.1685,16.5304,0.5749],[39.1657,16.5304,1.1212],[39.1629,16.5296,0.796],[39.161,16.526,0.0],[39.1654,16.5221,0.7812],[39.1682,16.5224,0.0],[39.1704,16.5243,0.6407],[39.1699,16.5274,2.0272]]],
[[[39.1607,16.5346,0.502],[39.1582,16.5357,0.0],[39.1574,16.5271,0.4742],[39.1607,16.5271,1.4299],[39.1624,16.5301,0.796],[39.1607,16.5346,0.502]]],
[[[39.6707,16.4815,0.4114],[39.6682,16.4824,0.0],[39.6662,16.481,0.39],[39.6676,16.4771,0.0991],[39.6715,16.4793,1.2225],[39.6707,16.4815,0.4114]]],
[[[39.7729,16.5249,0.2576],[39.7724,16.5271,0.0],[39.7693,16.5265,0.6651],[39.7701,16.5235,0.0],[39.7729,16.5249,0.2576]]],
[[[39.3268,16.6199,2.1964],[39.3232,16.6215,2.1045],[39.3238,16.6179,1.4521],[39.3221,16.6171,0.0],[39.3207,16.6213,0.0],[39.319,16.6213,0.0],[39.3176,16.6179,0.0],[39.3193,16.6151,1.7133],[39.3174,16.6138,0.0],[39.3179,16.6113,0.0],[39.3262,16.6068,0.0],[39.3307,16.6076,0.0],[39.3324,16.6099,0.0],[39.329,16.614,0.0],[39.329,16.6165,0.6989],[39.3312,16.616,0.0],[39.3324,16.6182,1.162],[39.3304,16.6207,0.0],[39.3268,16.6199,2.1964]]],
[[[39.154,16.621,0.0],[39.1515,16.6226,0.0],[39.1526,16.6115,0.3543],[39.1507,16.606,0.6777],[39.1529,16.606,1.3214],[39.1568,16.6113,0.0],[39.1565,16.616,0.2398],[39.154,16.621,0.0]]],
[[[38.6162,17.9354,1.2234],[38.6149,17.9363,0.1338],[38.614,17.9337,0.0],[38.6162,17.934,1.2234],[38.6162,17.9354,1.2234]]],
[[[38.5701,18.0067,0.113],[38.5701,18.0067,0.113],[38.5699,18.0065,0.113],[38.5701,18.0065,0.113],[38.5701,18.0067,0.113]]]]}
,"properties": {"GID_1": "ERI.2_1","GID_0": "ERI","country": "Eritrea","province": "SemenawiKeyihBahri","VARNAME_1": "NorthernRedSea|al-Bahrual-Ahm","NL_NAME_1": "ዞባሰሜናዊቀይሕባሕሪ","TYPE_1": "Zoba","ENGTYPE_1": "Region","CC_1": "NA","HASC_1": "ER.SK","ISO_1": "NA","name": "Semenawi_Keyih_Bahri.province","area_km2": 34131.99,"hist_schema_id": "Elevation0-9000","hist_area_km2": {"-75": 372.76,"-50": 233.47,"-25": 262.98,"0": 3304.17,"25": 2238.31,"50": 1485.15,"75": 1339.73,"100": 1186.37,"125": 1106.94,"150": 1054.37,"175": 1102.83,"200": 1026.97,"225": 849.8,"250": 705.69,"275": 589.0,"300": 529.06,"325": 479.6,"350": 402.69,"375": 334.09,"400": 270.24,"425": 251.97,"450": 245.41,"475": 251.75,"500": 259.43,"525": 248.3,"550": 266.25,"575": 285.48,"600": 296.66,"625": 314.39,"650": 314.47,"675": 288.35,"700": 287.28,"725": 271.55,"750": 258.85,"775": 252.0,"800": 252.31,"825": 257.5,"850": 278.41,"875": 297.82,"900": 302.75,"925": 317.11,"950": 315.78,"975": 315.3,"1000": 306.3,"1025": 295.61,"1050": 282.99,"1075": 271.62,"1100": 271.52,"1125": 275.9,"1150": 263.61,"1175": 253.07,"1200": 250.41,"1225": 247.5,"1250": 243.58,"1275": 242.01,"1300": 236.06,"1325": 237.75,"1350": 238.71,"1375": 240.44,"1400": 226.43,"1425": 223.63,"1450": 219.69,"1475": 218.54,"1500": 203.27,"1525": 201.22,"1550": 194.46,"1575": 183.83,"1600": 178.36,"1625": 172.46,"1650": 164.87,"1675": 162.26,"1700": 151.65,"1725": 148.44,"1750": 135.93,"1775": 125.93,"1800": 121.64,"1825": 109.43,"1850": 107.38,"1875": 102.86,"1900": 98.57,"1925": 89.9,"1950": 83.05,"1975": 78.95,"2000": 72.84,"2025": 67.2,"2050": 62.64,"2075": 59.13,"2100": 54.53,"2125": 53.36,"2150": 47.79,"2175": 44.86,"2200": 41.53,"2225": 41.76,"2250": 41.02,"2275": 42.07,"2300": 40.57,"2325": 40.09,"2350": 36.97,"2375": 34.45,"2400": 35.98,"2425": 34.6,"2450": 29.95,"2475": 27.21,"2500": 21.36,"2525": 15.37,"2550": 8.85,"2575": 6.23,"2600": 3.98,"2625": 2.5,"2650": 1.3,"2675": 0.35}}}