{"type": "Feature","bbox": [39.6238,14.3801,40.5716,15.5829],"geometry": {"type": "MultiPolygon","coordinates": [[[[39.6325,14.6134,1200.8015],[39.6317,14.6053,1288.353],[39.6377,14.5984,1489.2977],[39.6574,14.5898,1388.3289],[39.6665,14.5922,1166.947],[39.6738,14.5882,1166.6932],[39.6803,14.5888,1098.694],[39.6968,14.569,1264.3079],[39.699,14.562,1049.1534],[39.7093,14.5514,1153.7716],[39.7152,14.5517,1085.6947],[39.7288,14.5468,1246.9786],[39.7503,14.5452,874.7489],[39.7668,14.5408,895.573],[39.7685,14.5332,771.07],[39.7745,14.5271,726.5954],[39.7854,14.5111,765.2731],[39.7915,14.5063,703.194],[39.7926,14.5002,823.1395],[39.801,14.4992,565.9883],[39.8067,14.4934,494.1162],[39.8132,14.4824,501.6246],[39.82,14.479,541.2087],[39.8257,14.4801,604.1396],[39.8313,14.4849,605.1885],[39.8414,14.4794,514.3911],[39.8468,14.4745,576.5054],[39.8566,14.472,337.0307],[39.8619,14.4658,322.7096],[39.8726,14.4619,299.0253],[39.8798,14.4521,282.006],[39.8905,14.4436,263.6125],[39.8952,14.4359,293.7649],[39.9114,14.4229,216.3379],[39.9237,14.415,200.8177],[39.9385,14.4087,200.9235],[39.9499,14.4106,185.4477],[39.958,14.4179,174.0652],[39.9714,14.4263,173.2909],[39.9715,14.4316,166.5407],[39.9809,14.4408,154.4247],[39.9843,14.4323,161.7023],[40.0102,14.4396,349.4612],[40.0553,14.4869,550.817],[40.0753,14.494,531.5999],[40.0891,14.4903,676.3333],[40.1399,14.4981,-112.751],[40.2226,14.4786,-118.6257],[40.2685,14.4533,-117.4125],[40.331,14.424,-103.8694],[40.3847,14.3897,-90.4344],[40.4067,14.3801,-80.844],[40.4131,14.4186,-56.263],[40.4215,14.4346,-54.7268],[40.4501,14.4789,-22.8277],[40.4652,14.5085,12.5433],[40.4771,14.5388,-4.5559],[40.4812,14.5543,10.22],[40.4926,14.5755,150.9375],[40.498,14.5826,74.1398],[40.5023,14.5856,136.0292],[40.5139,14.591,4.4089],[40.5335,14.5958,3.9898],[40.5448,14.6034,16.7829],[40.5633,14.6252,16.8976],[40.5713,14.6393,16.2456],[40.5716,14.656,10.8199],[40.5673,14.6712,17.4781],[40.5648,14.6772,14.1128],[40.5498,14.6997,10.0338],[40.5367,14.7464,36.1924],[40.5373,14.759,40.4343],[40.5351,14.802,38.271],[40.5297,14.8424,24.2249],[40.5299,14.8684,15.0215],[40.5277,14.9126,9.563],[40.5249,14.9356,1.3003],[40.5257,14.9407,3.9605],[40.522,14.946,0.8905],[40.5113,14.9531,2.7147],[40.5113,14.9588,0.7615],[40.5101,14.9613,0.0565],[40.5079,14.9618,1.2148],[40.5082,14.9632,0.1312],[40.504,14.9618,1.2127],[40.4949,14.9632,0.0312],[40.4935,14.9607,0.0195],[40.4974,14.9576,1.1202],[40.4974,14.9551,1.655],[40.4957,14.9551,1.655],[40.4904,14.9593,0.0403],[40.4821,14.9726,0.0],[40.4765,14.9774,0.0],[40.4668,14.9771,0.0],[40.4649,14.9699,1.1303],[40.4626,14.9699,0.7343],[40.4582,14.976,0.2536],[40.4457,14.9774,0.8171],[40.4443,14.9804,0.0],[40.4465,14.9812,2.0644],[40.4529,14.9788,0.9532],[40.4618,14.9801,0.0],[40.4621,14.9821,0.0],[40.4599,14.9815,0.8677],[40.4615,14.9829,0.0],[40.4646,14.9946,0.0334],[40.4674,14.9979,0.0538],[40.4618,15.0049,1.0519],[40.4546,15.0026,0.0],[40.4512,15.0065,1.6894],[40.4457,15.0068,0.0],[40.444,15.0054,2.6835],[40.4463,15.0026,2.2928],[40.4451,14.999,0.6239],[40.4338,15.0004,0.0736],[40.4207,14.9982,-0.0187],[40.4162,14.9921,0.0],[40.4138,14.9857,0.0],[40.414,14.9818,0.2181],[40.4104,14.9799,-0.06],[40.4093,14.9774,-0.051],[40.4143,14.9804,0.3294],[40.4207,14.9746,0.0],[40.429,14.971,0.5573],[40.4254,14.9696,2.3055],[40.424,14.9663,2.8538],[40.419,14.9663,0.1279],[40.414,14.964,0.0],[40.4099,14.956,0.3974],[40.4018,14.9518,1.6255],[40.3982,14.9532,0.779],[40.391,14.9513,0.7953],[40.3879,14.9532,0.963],[40.3904,14.9599,0.6238],[40.3885,14.9629,0.0277],[40.3899,14.966,1.6652],[40.3838,14.971,0.2449],[40.3843,14.974,0.0655],[40.3874,14.9743,-0.0471],[40.3865,14.9762,0.1773],[40.3935,14.9818,0.0],[40.3924,14.9854,0.2605],[40.396,14.9876,0.0426],[40.3926,14.9921,0.0],[40.3924,14.9976,0.0],[40.3887,14.9957,0.0],[40.3887,14.9921,0.287],[40.3846,14.9885,0.5711],[40.3832,14.9904,0.0],[40.3857,14.9957,-0.0057],[40.3793,14.9937,0.0],[40.3704,14.984,0.0],[40.3632,14.9696,0.0],[40.3651,14.9646,0.0],[40.3615,14.9643,0.0],[40.3618,14.9618,0.0],[40.3596,14.9585,0.0],[40.3607,14.9571,0.0],[40.3557,14.9485,0.0],[40.356,14.9468,0.0],[40.3596,14.9457,0.3068],[40.361,14.9479,0.9133],[40.3624,14.9471,0.0],[40.3587,14.9446,0.0],[40.3579,14.9412,0.5155],[40.3532,14.9385,0.9023],[40.3524,14.9404,0.3355],[40.3513,14.9399,0.4494],[40.3515,14.9432,0.0],[40.3468,14.9424,0.0],[40.3449,14.9374,0.0],[40.3462,14.9354,0.0],[40.3457,14.931,0.0],[40.3429,14.9288,0.0],[40.3385,14.9293,0.0],[40.3376,14.9357,0.0],[40.3324,14.9379,0.0],[40.3312,14.9363,0.0],[40.3332,14.9354,1.0239],[40.3296,14.9349,0.4509],[40.3276,14.931,0.0],[40.3285,14.9235,0.0],[40.3199,14.9196,0.0],[40.3151,14.9193,0.0],[40.3165,14.9146,0.3841],[40.3143,14.9129,0.0],[40.3157,14.9107,0.0],[40.3135,14.9065,0.0639],[40.3099,14.9049,0.0],[40.3082,14.9065,0.0],[40.3065,14.9049,0.0],[40.2985,14.9054,0.0],[40.2965,14.904,0.0],[40.2951,14.9046,0.0],[40.2957,14.9071,0.0],[40.2885,14.911,0.0],[40.2854,14.9201,0.0],[40.2815,14.9221,0.0],[40.2796,14.9276,0.0],[40.2718,14.9307,0.0],[40.2721,14.9349,0.0],[40.2696,14.9315,0.6873],[40.259,14.9357,0.0],[40.2546,14.9351,1.071],[40.2401,14.9385,1.4283],[40.2357,14.9435,1.154],[40.2343,14.9482,0.0],[40.2218,14.946,0.5818],[40.2118,14.9474,0.1933],[40.2113,14.9499,0.0],[40.2093,14.9507,0.0],[40.2085,14.9557,0.0],[40.2043,14.9571,0.0],[40.204,14.9607,0.0],[40.2029,14.959,0.0],[40.1976,14.9632,0.0],[40.1901,14.9654,0.8049],[40.1846,14.9712,0.7459],[40.1807,14.9796,0.0],[40.1774,14.9788,0.0],[40.1724,14.9804,0.0],[40.1668,14.9879,0.0],[40.161,14.9882,0.0],[40.1565,14.9963,0.0],[40.156,15.0026,0.0],[40.1599,15.0096,1.0297],[40.164,15.0132,0.0],[40.1651,15.0232,0.6363],[40.164,15.0262,0.3407],[40.1585,15.0346,0.375],[40.1518,15.0382,0.3534],[40.151,15.0415,11.4925],[40.1465,15.0407,0.0],[40.1457,15.0382,25.8463],[40.1443,15.0382,15.5194],[40.1426,15.0449,15.4226],[40.1432,15.0485,3.4623],[40.1471,15.051,0.2353],[40.1457,15.0543,0.0],[40.1404,15.0565,0.0],[40.1374,15.0546,11.63],[40.1371,15.0563,0.0],[40.1301,15.059,0.0],[40.1254,15.0571,0.0],[40.1229,15.0588,6.1251],[40.1249,15.064,6.1189],[40.1285,15.0665,0.0],[40.1282,15.0682,0.0],[40.1185,15.0693,2.7843],[40.1154,15.0751,0.2288],[40.1135,15.0757,0.0],[40.114,15.0704,0.1976],[40.1113,15.0682,1.5461],[40.1126,15.0651,0.2677],[40.1113,15.0638,0.2677],[40.1065,15.0626,0.7631],[40.1026,15.0668,0.779],[40.1001,15.0674,0.6155],[40.0985,15.0726,0.0],[40.094,15.0787,0.3132],[40.094,15.0812,4.7396],[40.0971,15.0821,3.4912],[40.0976,15.0843,1.6008],[40.0929,15.0849,2.6601],[40.0937,15.0874,0.0],[40.0907,15.0932,0.0],[40.0932,15.094,0.4825],[40.0965,15.0926,4.7229],[40.0965,15.0904,0.0],[40.1007,15.0865,6.5251],[40.1043,15.0796,0.0],[40.1096,15.0793,3.1073],[40.1113,15.0807,0.0],[40.1113,15.0826,0.0],[40.1032,15.0849,0.8398],[40.104,15.0929,0.1344],[40.0993,15.0938,4.4563],[40.1032,15.1024,0.0],[40.1021,15.1057,0.908],[40.1032,15.109,0.0],[40.0982,15.109,7.9717],[40.1013,15.1118,0.0],[40.1021,15.1165,0.0],[40.1001,15.1174,3.6647],[40.1015,15.1207,0.0],[40.0957,15.1199,0.3796],[40.0943,15.126,0.0],[40.0863,15.1332,0.0],[40.0874,15.1451,0.0],[40.084,15.1529,0.0],[40.0804,15.1587,0.0],[40.0726,15.1646,0.0],[40.0715,15.1682,0.0],[40.0649,15.1754,1.3286],[40.0632,15.1843,0.0],[40.0557,15.184,0.0],[40.0524,15.1854,0.1071],[40.0504,15.1887,0.0],[40.0565,15.1907,0.0],[40.0612,15.1965,0.0],[40.0676,15.1957,0.3593],[40.0713,15.191,0.0],[40.081,15.1927,0.0],[40.0779,15.1935,0.0],[40.0721,15.1921,0.2889],[40.0788,15.1965,0.0],[40.0801,15.1946,0.0],[40.0799,15.1968,0.0],[40.0826,15.1982,0.0],[40.0846,15.1901,3.0701],[40.0821,15.1851,1.1111],[40.076,15.1804,2.2675],[40.0796,15.1785,0.0],[40.081,15.1829,0.2698],[40.0857,15.1807,0.5853],[40.089,15.1815,1.001],[40.0913,15.1879,4.1296],[40.0974,15.1963,0.0],[40.0971,15.1985,0.0],[40.0921,15.2029,0.0],[40.0901,15.2071,0.0],[40.0887,15.2054,1.5644],[40.0854,15.206,0.6584],[40.0863,15.2101,0.0],[40.0799,15.2071,0.0],[40.0693,15.2082,0.0],[40.0582,15.2029,0.7913],[40.0524,15.204,0.0],[40.0515,15.1999,1.8287],[40.0471,15.1996,0.0],[40.0435,15.2054,1.5995],[40.0435,15.2104,0.0],[40.0504,15.2151,0.1418],[40.054,15.2154,0.0],[40.056,15.2135,0.0],[40.0582,15.2146,0.0],[40.0579,15.2165,0.0],[40.0554,15.2179,0.6125],[40.0582,15.2215,0.0],[40.0557,15.2307,0.9685],[40.0563,15.2338,0.0],[40.049,15.2315,2.0228],[40.0388,15.2349,0.7447],[40.0276,15.2407,0.3781],[40.0254,15.2463,0.4442],[40.0232,15.2443,0.5281],[40.0232,15.2399,0.4736],[40.0268,15.2379,0.5081],[40.0282,15.2351,3.3258],[40.0385,15.2318,1.0591],[40.0349,15.2301,2.3512],[40.0307,15.2335,0.9195],[40.0238,15.2343,5.387],[40.0224,15.2371,1.039],[40.0143,15.2357,1.0972],[40.0118,15.2374,1.4191],[40.0118,15.2446,0.8604],[40.0149,15.2488,3.0026],[40.021,15.2507,2.9816],[40.026,15.2485,0.7968],[40.0332,15.2501,0.0],[40.0401,15.2604,3.504],[40.0454,15.2632,0.0],[40.0485,15.2687,4.2867],[40.051,15.2696,0.0],[40.0546,15.2835,1.2528],[40.0568,15.2835,0.3061],[40.0585,15.2876,0.8904],[40.0635,15.2924,2.382],[40.0693,15.2935,0.3519],[40.0812,15.3024,3.6877],[40.0854,15.3165,0.7224],[40.0879,15.3171,1.3955],[40.089,15.3251,1.309],[40.0879,15.331,0.809],[40.0843,15.334,0.0],[40.0829,15.3329,0.4404],[40.0801,15.3338,0.4519],[40.0757,15.3426,0.0],[40.0679,15.349,0.0],[40.0643,15.3551,2.2393],[40.0588,15.3604,2.5776],[40.0432,15.3685,1.9462],[40.0326,15.3665,0.8277],[40.0137,15.3832,2.4122],[40.004,15.3851,2.5423],[39.9965,15.3918,0.7268],[39.9899,15.3951,1.2953],[39.9865,15.3951,3.9144],[39.9868,15.3965,3.452],[39.9829,15.3982,4.9843],[39.9807,15.4012,1.1991],[39.9785,15.4113,3.3318],[39.9749,15.4185,0.0],[39.9676,15.4249,0.0],[39.9643,15.424,0.0],[39.9632,15.4218,2.9986],[39.9615,15.4218,0.9922],[39.9599,15.4243,0.0],[39.9574,15.4238,0.064],[39.956,15.4279,0.1361],[39.9524,15.4296,0.2678],[39.9501,15.4329,0.2181],[39.9379,15.4393,0.7688],[39.9332,15.4457,0.0],[39.9321,15.4463,0.0],[39.9318,15.4438,0.8297],[39.9251,15.4499,1.7702],[39.9196,15.4474,2.5853],[39.9188,15.4521,1.3865],[39.9149,15.4482,4.6099],[39.9124,15.4537,1.877],[39.9126,15.456,1.0878],[39.9149,15.4565,1.1202],[39.9143,15.4585,0.403],[39.9101,15.4587,1.2549],[39.9087,15.4554,6.1905],[39.9082,15.4585,1.5164],[39.9038,15.4587,4.3653],[39.899,15.4632,0.0984],[39.8971,15.4632,4.8617],[39.8907,15.4718,1.6025],[39.8937,15.476,0.0],[39.8926,15.4812,0.0],[39.8937,15.4865,0.0],[39.8893,15.4821,0.0],[39.8857,15.4829,0.1018],[39.8851,15.4854,0.0662],[39.8826,15.4835,1.1354],[39.8846,15.4938,0.0],[39.8815,15.4965,4.7395],[39.8793,15.5051,5.0985],[39.869,15.5063,0.0],[39.8671,15.501,1.1547],[39.8746,15.4943,4.6549],[39.8751,15.4921,2.2294],[39.8701,15.4857,0.2115],[39.8635,15.4826,1.5296],[39.8604,15.4826,2.5155],[39.8599,15.4851,0.2829],[39.8554,15.484,0.0],[39.8549,15.4821,0.0],[39.8568,15.481,4.219],[39.8546,15.4707,0.0],[39.8546,15.4613,0.5525],[39.8496,15.4576,0.9507],[39.8421,15.4557,0.1772],[39.8396,15.4593,0.0],[39.8396,15.4646,0.2419],[39.8421,15.4654,0.0],[39.8429,15.4676,2.0491],[39.8426,15.4699,2.3027],[39.8401,15.4704,1.5212],[39.8418,15.4757,0.0],[39.8387,15.4765,4.4192],[39.8376,15.4785,2.1853],[39.8335,15.4765,2.1281],[39.831,15.464,7.259],[39.8296,15.4632,2.3581],[39.8304,15.4587,2.5343],[39.8293,15.4562,1.8469],[39.831,15.4551,5.612],[39.8307,15.4513,0.1386],[39.8332,15.4471,3.3052],[39.8304,15.4338,0.2974],[39.8315,15.4374,0.9698],[39.8338,15.4376,2.0836],[39.8335,15.4299,3.3246],[39.8315,15.4296,1.6021],[39.8321,15.4307,0.9309],[39.8301,15.4315,1.118],[39.8304,15.4296,1.3608],[39.8282,15.4296,2.8046],[39.8226,15.4357,0.0],[39.8213,15.441,0.0],[39.819,15.4429,2.1094],[39.8176,15.4576,0.0],[39.8174,15.4435,0.4381],[39.821,15.434,4.493],[39.8174,15.4324,1.4444],[39.8174,15.4376,0.2717],[39.8151,15.4393,0.629],[39.8138,15.4446,2.3491],[39.8154,15.4471,0.0],[39.8146,15.4526,0.3009],[39.8132,15.4546,0.0],[39.811,15.4546,0.0],[39.8104,15.4496,0.6066],[39.8063,15.4457,4.4659],[39.8054,15.4351,3.3245],[39.8021,15.4262,9.7489],[39.8046,15.4149,4.9981],[39.7996,15.4096,0.6971],[39.7929,15.406,2.0243],[39.7821,15.404,0.634],[39.776,15.3974,0.0],[39.7771,15.3888,0.0],[39.7813,15.3796,0.0],[39.7801,15.3774,1.7784],[39.7824,15.3757,11.8005],[39.7824,15.366,0.0],[39.7849,15.3629,0.0],[39.7857,15.3554,0.0784],[39.7835,15.3524,0.0357],[39.7865,15.3526,0.0],[39.7857,15.3546,0.0784],[39.7871,15.3546,0.0784],[39.7896,15.351,0.3553],[39.7896,15.3496,0.4331],[39.7782,15.3421,0.1524],[39.7782,15.3388,0.7815],[39.7824,15.3335,0.0],[39.7829,15.329,0.0],[39.7796,15.3212,2.5032],[39.7804,15.319,0.9849],[39.7762,15.3132,0.0],[39.7796,15.3038,16.9183],[39.7776,15.301,11.6807],[39.7815,15.296,18.7741],[39.7826,15.2915,2.1888],[39.7832,15.284,0.0],[39.7818,15.2799,0.2027],[39.7849,15.2779,0.1803],[39.7837,15.2738,0.394],[39.7857,15.2699,5.167],[39.7851,15.2632,0.0],[39.7876,15.2604,0.3623],[39.7926,15.2585,0.3836],[39.7935,15.2529,0.0],[39.7968,15.2526,1.6583],[39.7976,15.251,0.7195],[39.8035,15.251,0.0],[39.8043,15.2565,0.0],[39.8013,15.2568,0.8056],[39.8004,15.2615,0.332],[39.8049,15.2671,0.2027],[39.8057,15.2721,0.5159],[39.8135,15.2754,0.0598],[39.8182,15.2721,0.119],[39.8218,15.2665,0.6157],[39.8268,15.2457,0.4599],[39.8307,15.2399,0.3329],[39.8338,15.231,0.7144],[39.8379,15.2271,0.2396],[39.8421,15.219,0.6902],[39.8407,15.2132,0.0],[39.8496,15.2032,14.0592],[39.8513,15.1954,12.0858],[39.8507,15.1893,0.8101],[39.8537,15.1862,6.9425],[39.8515,15.1843,0.3221],[39.8526,15.1643,1.1806],[39.8418,15.1488,0.7344],[39.8407,15.1385,1.0193],[39.8301,15.1285,9.2491],[39.8262,15.1274,0.0],[39.826,15.1224,0.6423],[39.8229,15.119,1.2064],[39.8229,15.1068,16.5793],[39.8254,15.0985,1.3558],[39.8185,15.0885,2.9932],[39.814,15.0713,8.3964],[39.7982,15.0685,1.7137],[39.7935,15.071,0.0],[39.7918,15.0696,16.7076],[39.7915,15.0654,1.1531],[39.7935,15.0648,22.9186],[39.7957,15.0483,296.8387],[39.7945,15.0359,400.7792],[39.7993,15.0243,176.2087],[39.8108,15.0147,127.6832],[39.8363,15.0049,65.9147],[39.8426,15.0009,51.5225],[39.8451,14.9966,49.658],[39.8463,14.985,58.3915],[39.84,14.9693,70.2575],[39.8385,14.9354,93.0376],[39.8345,14.9124,132.2875],[39.8316,14.9061,153.5837],[39.8235,14.8962,199.5853],[39.8103,14.8886,306.9123],[39.7819,14.8749,744.8035],[39.7589,14.8668,1194.616],[39.723,14.8437,1678.7991],[39.7113,14.8406,1391.7046],[39.6993,14.8396,1300.9175],[39.6909,14.8363,1729.021],[39.6796,14.8284,1576.7009],[39.6647,14.8151,1781.2397],[39.6685,14.8096,2007.7643],[39.667,14.8006,1919.792],[39.6566,14.788,1593.3328],[39.6535,14.7809,1448.6681],[39.6523,14.7421,1569.9396],[39.6477,14.732,2042.4841],[39.6364,14.7222,1897.7883],[39.6329,14.717,2052.2495],[39.6322,14.7041,2420.1394],[39.6238,14.6834,1815.6771],[39.6238,14.6751,1788.7085],[39.6329,14.6632,2036.6322],[39.6377,14.6508,1746.6765],[39.638,14.6304,1760.0508],[39.6325,14.6134,1200.8015]]],
[[[40.0943,15.1587,0.0],[40.0918,15.1593,0.0],[40.0918,15.1571,0.0],[40.0949,15.156,0.0],[40.0943,15.1587,0.0]]],
[[[40.0579,15.2124,0.0],[40.056,15.2132,0.0],[40.0551,15.2129,0.0],[40.056,15.2107,0.0],[40.0579,15.2124,0.0]]],
[[[40.0893,15.249,0.0],[40.086,15.251,0.0],[40.0846,15.2479,2.6785],[40.081,15.2474,0.0],[40.0754,15.2421,0.0],[40.0713,15.2346,0.0],[40.0738,15.2329,0.4545],[40.0804,15.2349,0.0],[40.084,15.234,0.0],[40.0857,15.2393,2.7436],[40.089,15.2399,0.0],[40.0904,15.2432,0.0],[40.0893,15.249,0.0]]],
[[[40.2151,14.9557,0.0],[40.2146,14.9571,0.0],[40.2132,14.9532,0.0],[40.2157,14.9538,0.0],[40.2151,14.9557,0.0]]],
[[[40.2185,14.9785,0.0],[40.2168,14.9799,0.9245],[40.2165,14.9746,1.2078],[40.2182,14.9743,1.2041],[40.2179,14.971,2.4691],[40.2193,14.9704,0.0],[40.2212,14.9729,3.5341],[40.2182,14.9762,0.0],[40.2185,14.9785,0.0]]],
[[[40.2501,15.0674,0.0],[40.251,15.0682,0.0],[40.249,15.0685,0.0],[40.2471,15.0657,0.0],[40.2371,15.0604,0.0],[40.239,15.0582,0.0],[40.244,15.0593,0.7973],[40.2501,15.0674,0.0]]],
[[[40.2263,15.0949,0.6136],[40.2268,15.0965,0.1645],[40.2199,15.0963,1.5947],[40.2174,15.091,0.0],[40.2251,15.091,0.0],[40.2263,15.0949,0.6136]]],
[[[40.1671,15.0985,0.0],[40.1671,15.0996,0.0],[40.1643,15.0996,0.0],[40.1646,15.0974,0.4962],[40.1671,15.0985,0.0]]],
[[[40.1876,15.116,0.0],[40.1862,15.1168,0.0],[40.1838,15.1146,0.415],[40.1824,15.1104,0.0],[40.1849,15.1107,3.2885],[40.1862,15.1087,0.0],[40.1893,15.1096,0.0],[40.1901,15.1126,0.0],[40.1876,15.116,0.0]]],
[[[40.1701,15.1396,0.0],[40.1688,15.1407,0.0],[40.164,15.139,0.4652],[40.1646,15.1365,1.9835],[40.1626,15.1362,0.8027],[40.1635,15.1346,0.8428],[40.1615,15.1324,0.0],[40.1618,15.1301,0.0],[40.1671,15.1301,0.0],[40.1696,15.1321,2.5239],[40.1712,15.1362,0.0],[40.1701,15.1396,0.0]]],
[[[40.1363,15.1699,0.0],[40.1346,15.171,0.0],[40.1332,15.1687,0.0],[40.1329,15.1635,0.0],[40.1301,15.1601,0.4752],[40.1307,15.1562,0.0],[40.1426,15.1532,0.0],[40.1451,15.151,0.4553],[40.146,15.1532,0.0],[40.1429,15.1546,0.7879],[40.1435,15.1565,0.0],[40.1363,15.1699,0.0]]],
[[[40.2129,15.1676,1.1835],[40.2118,15.1704,0.7604],[40.2079,15.1663,0.1966],[40.2113,15.1651,0.0],[40.2129,15.1676,1.1835]]],
[[[40.1763,15.1815,2.7863],[40.1751,15.184,0.0],[40.1768,15.1879,0.0],[40.1732,15.1854,0.0],[40.1721,15.181,0.695],[40.1674,15.1771,0.0],[40.1685,15.171,2.9519],[40.1671,15.1674,0.4441],[40.174,15.1679,0.0],[40.1751,15.1693,0.653],[40.1776,15.1765,2.1067],[40.1763,15.1815,2.7863]]],
[[[40.1076,15.2149,2.7305],[40.1054,15.2165,1.0928],[40.1035,15.211,0.2111],[40.0943,15.2107,0.0],[40.094,15.2087,0.4089],[40.0924,15.2085,0.4089],[40.0926,15.2063,0.892],[40.0996,15.2018,0.0],[40.1085,15.2096,3.2342],[40.1076,15.2149,2.7305]]],
[[[40.1299,15.2493,0.0],[40.1276,15.2501,2.2631],[40.1251,15.246,0.9683],[40.1268,15.239,0.0],[40.1249,15.2346,0.0],[40.1235,15.2332,1.3398],[40.1193,15.2332,0.0],[40.1165,15.2282,0.0],[40.1115,15.2274,0.0],[40.1118,15.226,0.0],[40.1165,15.2268,0.0],[40.1188,15.2251,0.0],[40.1224,15.2315,0.0],[40.1268,15.2318,2.1573],[40.1329,15.2435,1.9339],[40.1299,15.2493,0.0]]],
[[[40.4024,14.954,1.264],[40.4024,14.9554,1.264],[40.3993,14.9549,1.6891],[40.4012,14.9529,0.3779],[40.4024,14.954,1.264]]],
[[[40.5021,15.0024,0.0359],[40.5018,15.0049,0.0],[40.4982,15.004,0.3998],[40.4982,14.999,0.0],[40.5001,14.999,0.0],[40.5021,15.0024,0.0359]]],
[[[40.3765,15.029,0.0],[40.3751,15.031,0.0],[40.3746,15.0243,0.0],[40.3757,15.0246,0.0],[40.3765,15.029,0.0]]],
[[[40.4115,15.0421,0.0],[40.4074,15.0418,0.7957],[40.401,15.0363,0.0],[40.3979,15.029,0.0],[40.3988,15.0226,2.158],[40.4007,15.0218,0.0],[40.4146,15.0246,0.0],[40.4185,15.0224,0.0],[40.421,15.0235,0.0],[40.426,15.0212,0.0],[40.426,15.0279,0.0],[40.4279,15.0313,0.0],[40.4268,15.0401,0.0],[40.4249,15.0426,0.0],[40.4179,15.0424,0.0],[40.4157,15.0404,0.8721],[40.4115,15.0421,0.0]]],
[[[40.2879,14.9324,0.0],[40.2888,14.9338,0.0],[40.286,14.9335,1.0332],[40.2863,14.9315,0.0],[40.2879,14.9324,0.0]]],
[[[40.3004,15.0576,0.5303],[40.2985,15.0585,4.0389],[40.2926,15.0568,0.0],[40.2976,15.0482,2.9113],[40.2874,15.0438,0.0],[40.2899,15.0385,5.7491],[40.2882,15.0329,0.6707],[40.289,15.0304,0.0],[40.2793,15.0151,2.7856],[40.2779,15.0076,2.5983],[40.276,15.0068,0.4367],[40.2779,15.0021,4.6667],[40.2732,15.0001,0.5721],[40.2718,14.9965,1.5267],[40.2679,14.9949,5.9607],[40.266,14.989,0.0],[40.2635,14.9874,0.0],[40.2657,14.986,2.542],[40.2676,14.9812,8.1554],[40.274,14.9788,6.2752],[40.2929,14.9793,3.3172],[40.299,14.9762,0.0],[40.3076,14.9768,0.0],[40.3129,14.9826,0.0],[40.3157,14.9893,16.618],[40.3254,14.9993,3.1481],[40.326,15.0021,8.3237],[40.3351,15.0065,0.7126],[40.3474,15.0096,0.0],[40.3526,15.0132,2.371],[40.3457,15.0165,0.0],[40.3482,15.0196,0.0],[40.344,15.0243,0.0],[40.3438,15.0282,0.0],[40.3404,15.031,0.0583],[40.3432,15.0376,0.0],[40.3387,15.0468,0.0],[40.3332,15.0482,0.0],[40.3304,15.0518,2.9638],[40.3235,15.056,0.0],[40.3207,15.0557,0.0],[40.3176,15.051,2.157],[40.3138,15.051,1.451],[40.314,15.0529,1.8579],[40.3004,15.0576,0.5303]]],
[[[40.2507,15.0524,0.0],[40.246,15.0529,0.5148],[40.2451,15.0493,2.6024],[40.2501,15.049,3.0186],[40.2507,15.0524,0.0]]],
[[[40.3421,15.0893,1.6049],[40.3404,15.0901,4.4574],[40.3257,15.086,0.0],[40.3168,15.0779,2.2822],[40.324,15.0771,3.8907],[40.3351,15.0799,0.0],[40.3415,15.0846,0.0],[40.3421,15.0893,1.6049]]],
[[[40.4224,15.0451,0.0],[40.4226,15.0468,0.0],[40.4199,15.0463,0.0],[40.4201,15.044,0.0],[40.4224,15.0451,0.0]]],
[[[40.4143,15.056,0.0],[40.4126,15.0568,0.0],[40.411,15.0535,0.0],[40.414,15.0546,0.0],[40.4143,15.056,0.0]]],
[[[40.4996,15.0629,0.0],[40.4985,15.0638,3.2756],[40.4954,15.0621,0.0],[40.4865,15.0621,0.0],[40.4932,15.0612,0.0],[40.4996,15.0629,0.0]]],
[[[40.4818,15.0638,0.0],[40.4799,15.0643,0.0],[40.4735,15.064,0.0],[40.4799,15.0632,0.0],[40.4818,15.0638,0.0]]],
[[[40.2701,15.0926,0.0],[40.2668,15.0935,0.0],[40.2649,15.0901,3.0642],[40.2588,15.086,2.3647],[40.2551,15.0796,0.4411],[40.2649,15.0796,0.0],[40.274,15.0849,0.0],[40.2785,15.0857,0.0],[40.2779,15.089,0.0],[40.2751,15.0918,0.0],[40.2715,15.0913,0.0],[40.2701,15.0926,0.0]]],
[[[40.2938,15.1054,0.0],[40.2929,15.1087,0.0],[40.2871,15.1035,0.0],[40.2912,15.1015,0.0],[40.2938,15.1054,0.0]]],
[[[40.3385,15.144,0.0],[40.3357,15.1449,0.0],[40.3321,15.1421,0.0],[40.3285,15.1421,0.0],[40.3176,15.1285,1.1232],[40.3124,15.1257,0.9067],[40.3093,15.1257,0.0],[40.3079,15.1276,0.0],[40.3074,15.1254,1.4191],[40.3043,15.1254,0.9264],[40.3026,15.121,1.5574],[40.3099,15.1124,0.0],[40.3138,15.1115,0.0],[40.3207,15.1138,0.6939],[40.336,15.1243,3.0488],[40.3396,15.1318,0.0],[40.3407,15.1382,1.8242],[40.3385,15.141,0.0],[40.3385,15.144,0.0]]],
[[[40.2921,15.1365,0.0],[40.2915,15.1379,0.0],[40.2896,15.1368,0.0],[40.2899,15.1362,0.0],[40.2921,15.1365,0.0]]],
[[[40.5007,15.0807,1.9956],[40.4912,15.0801,3.3706],[40.4801,15.0768,5.0213],[40.4779,15.0749,0.0],[40.4771,15.071,4.168],[40.4729,15.0688,0.6514],[40.4721,15.0654,0.0],[40.4782,15.0682,0.5815],[40.4929,15.0626,0.8791],[40.5024,15.0651,0.0],[40.5079,15.0713,0.0],[40.5082,15.074,0.0],[40.5065,15.0787,1.3428],[40.5007,15.0807,1.9956]]],
[[[40.4329,15.079,4.4782],[40.4329,15.0815,2.5105],[40.4287,15.0799,1.4068],[40.429,15.0785,0.0],[40.4329,15.079,4.4782]]],
[[[40.3457,15.1626,0.8183],[40.3413,15.1626,3.088],[40.3415,15.1568,5.3842],[40.339,15.149,0.0],[40.3429,15.1488,1.6104],[40.3407,15.1479,0.0],[40.3396,15.1443,0.0],[40.3435,15.146,0.0],[40.3438,15.1482,0.0],[40.3479,15.1493,0.0],[40.3482,15.1579,0.0],[40.3457,15.1626,0.8183]]],
[[[40.2849,15.1382,0.0],[40.2876,15.1382,0.0],[40.2879,15.1393,0.0],[40.2854,15.1393,0.0],[40.2849,15.1382,0.0]]],
[[[40.2968,15.1999,0.8333],[40.291,15.2007,0.0],[40.2626,15.1935,2.3001],[40.2526,15.1815,5.3214],[40.2357,15.1732,1.2089],[40.231,15.1685,0.0],[40.231,15.1646,0.0],[40.2343,15.1565,3.1496],[40.2282,15.1515,1.5785],[40.2271,15.1368,0.0],[40.229,15.1346,0.0],[40.2296,15.129,0.0],[40.2326,15.1274,1.4807],[40.231,15.121,0.0],[40.2321,15.1193,1.7715],[40.2393,15.119,0.0],[40.2476,15.1143,0.0],[40.2515,15.111,2.0142],[40.2518,15.1054,0.0],[40.2546,15.1054,0.0],[40.2693,15.1146,0.0],[40.2743,15.1157,2.1038],[40.281,15.1215,1.4199],[40.2799,15.1279,0.0],[40.2829,15.1346,2.5183],[40.274,15.1471,0.0],[40.2738,15.1504,0.0],[40.2657,15.1515,3.4096],[40.2626,15.1612,0.7925],[40.2676,15.1643,1.0836],[40.271,15.1635,0.0],[40.2757,15.159,1.1696],[40.2796,15.1593,0.0],[40.2779,15.1732,1.4052],[40.2815,15.1749,0.0],[40.2868,15.1849,0.0],[40.294,15.1846,0.0],[40.2968,15.1865,0.0],[40.2996,15.1943,2.2568],[40.2968,15.1999,0.8333]]],
[[[40.3235,15.1615,0.0],[40.321,15.1621,0.0],[40.3193,15.1596,0.0],[40.3218,15.1593,1.166],[40.3235,15.1615,0.0]]],
[[[40.3168,15.1624,0.0],[40.3135,15.1629,0.9772],[40.3129,15.1612,2.0112],[40.3154,15.1601,0.0],[40.3168,15.1624,0.0]]],
[[[40.3001,15.2143,0.5028],[40.2985,15.2157,0.0],[40.294,15.2104,0.0],[40.3032,15.2074,0.0],[40.3032,15.2121,0.0],[40.3001,15.2143,0.5028]]],
[[[40.2549,15.2501,2.4332],[40.2474,15.2504,2.9993],[40.2318,15.2407,0.0],[40.2304,15.2326,3.4725],[40.2285,15.2299,2.4944],[40.231,15.2249,0.0],[40.2349,15.2215,0.6779],[40.2346,15.2151,0.6936],[40.236,15.2143,0.6936],[40.2487,15.2162,0.4235],[40.2532,15.2201,0.0],[40.2668,15.2226,2.2311],[40.2729,15.2288,3.3418],[40.2762,15.239,0.7244],[40.2654,15.2468,1.1452],[40.2549,15.2501,2.4332]]],
[[[40.1037,15.2738,1.9519],[40.1037,15.2757,0.0],[40.1018,15.2754,3.9416],[40.0982,15.2715,0.0],[40.0979,15.269,0.0],[40.1007,15.269,0.0],[40.1037,15.2738,1.9519]]],
[[[40.1751,15.2796,0.3949],[40.171,15.2799,1.3595],[40.1685,15.2782,1.5035],[40.1621,15.2654,0.0],[40.1696,15.2685,0.5229],[40.1749,15.2676,0.359],[40.1776,15.276,1.3611],[40.1751,15.2796,0.3949]]],
[[[40.0465,15.3965,2.5814],[40.0451,15.3985,0.6028],[40.044,15.3951,0.0],[40.0476,15.3946,1.3223],[40.0465,15.3965,2.5814]]],
[[[39.8154,15.4554,0.7846],[39.8135,15.4557,0.0],[39.8149,15.4521,0.3009],[39.8165,15.4532,0.6943],[39.8154,15.4554,0.7846]]],
[[[39.8135,15.4657,0.0],[39.8107,15.4665,0.5997],[39.8096,15.4654,0.0],[39.8126,15.4607,0.8851],[39.8146,15.4615,0.0],[39.8135,15.4657,0.0]]],
[[[39.7501,15.4976,2.4903],[39.7474,15.4979,0.0],[39.749,15.494,0.0],[39.7465,15.4904,2.3502],[39.7463,15.4826,0.3985],[39.7385,15.4793,0.5116],[39.7371,15.4729,0.0],[39.7415,15.4596,0.0],[39.744,15.4596,4.2703],[39.744,15.4579,0.0],[39.749,15.4529,0.0],[39.7538,15.4524,7.0264],[39.7546,15.4415,1.6777],[39.7579,15.4388,0.0],[39.7562,15.4326,0.0],[39.7593,15.4307,0.0],[39.7618,15.4332,5.1599],[39.7663,15.4329,2.246],[39.7626,15.434,15.5856],[39.759,15.4415,0.0],[39.7607,15.4446,9.3049],[39.7635,15.444,0.0],[39.7637,15.4454,0.0],[39.7599,15.4465,5.2759],[39.7593,15.4485,0.0],[39.7607,15.4499,0.0],[39.7568,15.4521,0.0],[39.7582,15.4549,15.3529],[39.7568,15.4585,1.2272],[39.7532,15.4621,0.5637],[39.7515,15.4615,5.4775],[39.7507,15.4668,2.0871],[39.7568,15.4635,0.0],[39.7571,15.4668,1.5854],[39.7551,15.469,1.1022],[39.7565,15.4715,6.645],[39.754,15.4851,0.9517],[39.7521,15.4885,8.417],[39.7526,15.4946,0.0],[39.7501,15.4976,2.4903]]],
[[[39.8118,15.4782,1.7332],[39.8121,15.4796,0.0],[39.8107,15.4796,0.0],[39.809,15.4776,0.0],[39.8104,15.4754,0.0],[39.8115,15.476,0.6125],[39.8118,15.4782,1.7332]]],
[[[39.821,15.5049,0.0],[39.8165,15.5054,8.6169],[39.8149,15.5026,4.4054],[39.8138,15.4921,1.3565],[39.816,15.4824,0.0],[39.8174,15.4829,0.3072],[39.8171,15.4882,2.3704],[39.8215,15.4985,0.0],[39.8224,15.5029,1.0429],[39.821,15.5049,0.0]]],
[[[39.9029,15.5096,0.0],[39.8976,15.5104,0.0],[39.8971,15.5079,2.247],[39.8951,15.5074,0.0],[39.8976,15.5026,3.0859],[39.8957,15.4996,4.3028],[39.8907,15.5038,0.0],[39.8871,15.5024,0.0],[39.8887,15.5004,1.7204],[39.8882,15.4935,0.0],[39.891,15.4921,6.0779],[39.8921,15.489,0.0186],[39.8985,15.4868,0.0],[39.9024,15.4876,0.8225],[39.9024,15.4935,1.124],[39.9063,15.504,2.0807],[39.9029,15.5096,0.0]]],
[[[39.929,15.5268,2.2361],[39.926,15.5274,0.0],[39.9263,15.5251,0.812],[39.9287,15.5224,0.7163],[39.931,15.5226,0.6901],[39.9307,15.5257,0.0],[39.929,15.5268,2.2361]]],
[[[39.9165,15.5362,1.8917],[39.914,15.5371,0.0],[39.9107,15.5351,0.0],[39.9121,15.5329,0.0],[39.9182,15.5318,0.0],[39.9185,15.5357,0.0],[39.9165,15.5362,1.8917]]],
[[[39.7621,15.5751,0.0],[39.7635,15.5749,0.0],[39.7632,15.579,0.1989],[39.7651,15.5829,0.0],[39.7624,15.5813,0.0],[39.7615,15.5776,0.0],[39.7596,15.5774,0.0],[39.7621,15.5751,0.0]]]]}
,"properties": {"GID_2": "ERI.2.3_1","GID_0": "ERI","country": "Eritrea","GID_1": "ERI.2_1","province": "SemenawiKeyihBahri","NL_NAME_1": "ዞባሰሜናዊቀይሕባሕሪ","county": "Ghelaelo'","VARNAME_2": "NA","NL_NAME_2": "NA","TYPE_2": "District","ENGTYPE_2": "District","CC_2": "NA","HASC_2": "ER.SK.GL","name": "Ghelaelo'.county","area_km2": 6584.8,"hist_schema_id": "Elevation0-9000","hist_area_km2": {"-75": 372.764,"-50": 233.468,"-25": 262.675,"0": 1233.89,"25": 954.6,"50": 542.438,"75": 357.997,"100": 267.74,"125": 210.962,"150": 158.804,"175": 153.69,"200": 144.495,"225": 127.034,"250": 105.144,"275": 90.421,"300": 73.518,"325": 67.462,"350": 60.182,"375": 60.801,"400": 49.397,"425": 44.871,"450": 39.236,"475": 29.925,"500": 27.649,"525": 27.158,"550": 25.23,"575": 24.491,"600": 25.433,"625": 25.433,"650": 22.092,"675": 19.713,"700": 19.426,"725": 20.268,"750": 19.427,"775": 18.607,"800": 17.787,"825": 17.684,"850": 16.514,"875": 16.945,"900": 15.447,"925": 16.451,"950": 15.774,"975": 14.768,"1000": 14.379,"1025": 15.403,"1050": 15.957,"1075": 14.747,"1100": 15.875,"1125": 15.547,"1150": 15.71,"1175": 16.592,"1200": 16.304,"1225": 16.551,"1250": 16.202,"1275": 16.714,"1300": 16.837,"1325": 16.263,"1350": 14.95,"1375": 15.688,"1400": 15.606,"1425": 15.36,"1450": 14.724,"1475": 14.765,"1500": 13.699,"1525": 12.981,"1550": 12.735,"1575": 12.181,"1600": 11.915,"1625": 11.116,"1650": 11.628,"1675": 10.685,"1700": 9.967,"1725": 9.167,"1750": 8.798,"1775": 8.183,"1800": 7.486,"1825": 6.42,"1850": 6.194,"1875": 6.42,"1900": 6.071,"1925": 5.477,"1950": 4.39,"1975": 4.451,"2000": 4.349,"2025": 3.856,"2050": 3.323,"2075": 3.651,"2100": 2.995,"2125": 2.646,"2150": 2.872,"2175": 2.564,"2200": 2.585,"2225": 2.38,"2250": 1.641,"2275": 1.682,"2300": 1.292,"2325": 1.128,"2350": 0.8,"2375": 0.738,"2400": 0.533,"2425": 0.779,"2450": 0.492,"2475": 0.513,"2500": 0.349,"2525": 0.308,"2550": 0.246,"2575": 0.144,"2600": 0.185,"2625": 0.144,"2650": 0.205,"2675": 0.144,"2700": 0.103,"2725": 0.062,"2750": 0.082,"2775": 0.062}}}