{"type": "Feature","bbox": [40.4067,13.7395,41.4152,15.024],"geometry": {"type": "MultiPolygon","coordinates": [[[[40.541,15.0088,0.0],[40.5432,15.0079,0.0],[40.539,15.0113,0.0],[40.5385,15.0101,2.1578],[40.5368,15.011,0.3986],[40.531,15.021,0.0],[40.5215,15.024,0.0],[40.5249,15.019,14.9171],[40.5243,15.0146,3.2347],[40.5293,15.0085,0.0],[40.5285,15.0026,0.0],[40.5299,15.0004,0.0],[40.5332,15.0004,0.2448],[40.534,14.9943,0.0],[40.5371,14.9937,0.7593],[40.5393,14.9901,1.4543],[40.5374,14.9885,0.6057],[40.5365,14.9838,0.0],[40.5376,14.9821,0.1392],[40.5246,14.9771,0.1297],[40.5235,14.9799,0.0],[40.5204,14.9804,0.0197],[40.5218,14.9754,0.0364],[40.5179,14.9724,0.0],[40.5176,14.9615,0.1649],[40.5118,14.9649,0.0412],[40.5115,14.9593,0.7615],[40.5129,14.9565,2.4586],[40.5114,14.9582,1.3369],[40.5106,14.9558,2.4309],[40.5113,14.9531,2.7147],[40.522,14.946,0.8905],[40.5257,14.9407,3.9605],[40.5249,14.9356,1.3003],[40.5277,14.9126,9.563],[40.5299,14.8684,15.0215],[40.5297,14.8424,24.2249],[40.5351,14.802,38.271],[40.5373,14.759,40.4343],[40.5367,14.7464,36.1924],[40.5498,14.6997,10.0338],[40.5648,14.6772,14.1128],[40.5673,14.6712,17.4781],[40.5716,14.656,10.8199],[40.5713,14.6393,16.2456],[40.5633,14.6252,16.8976],[40.5448,14.6034,16.7829],[40.5335,14.5958,3.9898],[40.5139,14.591,4.4089],[40.5023,14.5856,136.0292],[40.498,14.5826,74.1398],[40.4926,14.5755,150.9375],[40.4812,14.5543,10.22],[40.4771,14.5388,-4.5559],[40.4652,14.5085,12.5433],[40.4501,14.4789,-22.8277],[40.4215,14.4346,-54.7268],[40.4131,14.4186,-56.263],[40.4067,14.3801,-80.844],[40.4445,14.3635,-76.1786],[40.5456,14.3014,-35.3933],[40.6505,14.2294,-24.8333],[40.8367,14.0841,177.3947],[41.0773,13.8785,644.2751],[41.1915,13.7678,507.8629],[41.2202,13.7432,674.7015],[41.2227,13.7481,603.439],[41.2304,13.7395,773.3786],[41.2289,13.7628,617.1345],[41.2255,13.777,613.8799],[41.2135,13.7995,825.4592],[41.2097,13.8105,755.3832],[41.2092,13.8208,695.8104],[41.2386,13.9004,681.6272],[41.2408,13.9154,844.9202],[41.242,13.9286,601.6396],[41.241,13.9705,772.5232],[41.2374,14.016,792.9797],[41.2467,14.0325,814.8752],[41.2739,14.0541,448.9787],[41.3077,14.0997,312.9849],[41.3173,14.1162,307.3553],[41.332,14.1489,227.4608],[41.3465,14.1891,223.1724],[41.3544,14.2049,162.8027],[41.3836,14.2539,59.8834],[41.4019,14.297,12.9444],[41.4152,14.316,0.0],[41.4124,14.3243,1.1093],[41.4118,14.3307,0.0],[41.4132,14.3326,0.0],[41.4104,14.3346,0.0],[41.4001,14.3574,0.0],[41.3924,14.3649,4.4147],[41.3915,14.369,0.0],[41.3854,14.3735,0.3718],[41.3785,14.3824,0.0],[41.3565,14.3996,0.0],[41.344,14.4051,2.788],[41.3396,14.4107,0.0],[41.3368,14.4171,4.2293],[41.3349,14.4351,2.6828],[41.3301,14.4457,1.7503],[41.3282,14.4624,3.4461],[41.3232,14.4724,0.0],[41.3135,14.4832,1.0105],[41.3104,14.4896,0.0],[41.311,14.4946,0.0],[41.3076,14.4946,3.2371],[41.2996,14.5063,1.8976],[41.2988,14.5099,0.0],[41.2915,14.5126,4.0314],[41.2899,14.5176,0.0],[41.2849,14.5179,2.67],[41.2821,14.5229,0.0],[41.2768,14.5254,5.9772],[41.2751,14.5315,0.0],[41.2501,14.5479,0.0],[41.241,14.5513,0.0],[41.2382,14.5549,0.0],[41.2349,14.5549,0.5501],[41.2332,14.5571,0.0],[41.2243,14.5607,0.0],[41.2193,14.5651,0.0],[41.2115,14.5779,0.0],[41.2076,14.5888,0.0],[41.1974,14.5974,0.0],[41.1935,14.6051,0.2835],[41.1926,14.6201,0.0],[41.1885,14.6265,0.0],[41.1735,14.6279,0.6062],[41.1632,14.6346,0.0],[41.1571,14.6335,0.5337],[41.1512,14.6346,0.196],[41.1376,14.6407,0.0],[41.1307,14.6415,0.6253],[41.1071,14.6554,0.0],[41.0774,14.6571,0.0],[41.0654,14.6635,0.0],[41.0462,14.6701,0.2441],[41.0268,14.671,0.0],[41.0151,14.6699,0.5694],[40.9985,14.6635,1.729],[40.9832,14.6649,1.5356],[40.9732,14.6704,2.504],[40.9674,14.6768,1.4928],[40.9624,14.6857,0.8897],[40.9618,14.6965,0.0],[40.9585,14.6976,0.0],[40.9588,14.6932,1.1116],[40.9526,14.6893,0.6274],[40.9437,14.6904,4.4643],[40.9393,14.6938,1.3011],[40.9376,14.6982,1.0653],[40.9313,14.7046,0.4366],[40.9265,14.706,0.0],[40.9243,14.7035,1.6671],[40.9176,14.7046,0.3211],[40.9124,14.7101,1.386],[40.909,14.7113,0.2577],[40.9063,14.7149,3.4898],[40.9024,14.726,0.0],[40.8982,14.7285,0.0],[40.8954,14.7282,0.0],[40.8949,14.7243,1.5476],[40.8901,14.721,0.3104],[40.8763,14.7265,0.2897],[40.8737,14.7262,0.0],[40.8707,14.7204,1.4938],[40.8649,14.7185,1.6526],[40.8535,14.7201,1.3311],[40.8457,14.7196,0.8301],[40.8371,14.7226,0.0],[40.8349,14.7251,0.3216],[40.8271,14.7257,0.0],[40.8235,14.7215,0.2085],[40.8226,14.7176,0.3758],[40.824,14.7163,0.0],[40.8254,14.7163,0.0],[40.8257,14.7182,0.1239],[40.8312,14.7171,1.27],[40.8293,14.714,0.2064],[40.8304,14.7129,0.8624],[40.826,14.7129,0.0],[40.8226,14.7099,1.4597],[40.8182,14.7088,0.0],[40.8149,14.7101,0.3191],[40.8129,14.7154,0.0],[40.8107,14.7171,0.0],[40.8115,14.7212,0.0],[40.8037,14.7193,0.0],[40.8004,14.7218,0.0],[40.7938,14.7185,1.2564],[40.7951,14.7096,0.5747],[40.7935,14.7079,0.9424],[40.7929,14.711,0.0],[40.7915,14.7113,0.0],[40.789,14.7057,0.0],[40.7799,14.7063,0.0],[40.7776,14.7132,0.0],[40.7738,14.7171,0.0],[40.7757,14.7235,0.5942],[40.7837,14.7232,0.5138],[40.7868,14.7196,0.2229],[40.7907,14.719,0.4292],[40.7926,14.7221,0.0],[40.7921,14.7238,0.0],[40.7854,14.7282,0.0],[40.7796,14.7285,0.6933],[40.7785,14.7332,0.0],[40.7815,14.7357,0.0],[40.7779,14.7368,0.0],[40.7715,14.7429,0.0],[40.7682,14.7424,0.0],[40.7676,14.7404,0.9537],[40.7629,14.7379,1.24],[40.751,14.7374,0.0],[40.751,14.7404,0.0],[40.7465,14.7438,0.0],[40.7393,14.7549,2.0078],[40.7343,14.7649,0.2699],[40.7349,14.7671,0.0],[40.7332,14.7674,0.1032],[40.7329,14.7701,0.0],[40.7343,14.7713,0.0],[40.7318,14.7776,0.7214],[40.7351,14.7829,0.0],[40.7446,14.7865,0.0],[40.7551,14.7846,0.0],[40.7574,14.7868,0.0],[40.756,14.7896,0.0],[40.7524,14.7896,0.0],[40.7518,14.7879,0.2435],[40.7463,14.7896,0.0],[40.7435,14.7887,0.1163],[40.7482,14.8015,0.0],[40.7493,14.8115,0.0],[40.751,14.8118,0.0],[40.7482,14.8193,0.2788],[40.7487,14.8351,0.9777],[40.7468,14.8374,0.0],[40.7465,14.8457,0.0],[40.7407,14.8476,0.0],[40.7354,14.8438,0.0],[40.7332,14.8449,0.0],[40.7301,14.8429,0.0],[40.7263,14.8474,0.0],[40.7271,14.8501,0.0],[40.7218,14.8526,0.0],[40.7176,14.8579,0.0],[40.7151,14.8585,2.5229],[40.7093,14.8643,0.0],[40.7093,14.8657,0.3157],[40.7196,14.8699,0.0],[40.7287,14.8676,0.3625],[40.731,14.8729,0.0],[40.7287,14.8751,0.0],[40.7226,14.8754,0.0],[40.7168,14.8715,0.0],[40.7124,14.8713,0.0],[40.7057,14.8679,0.0],[40.696,14.8774,0.0],[40.6899,14.8801,0.8895],[40.6868,14.8854,0.3561],[40.6868,14.8879,1.0576],[40.6915,14.8887,0.0],[40.6918,14.8907,1.2241],[40.6946,14.8924,2.7072],[40.6976,14.8924,3.5245],[40.6985,14.891,0.6453],[40.7032,14.8915,1.1034],[40.7076,14.8882,4.8758],[40.7065,14.884,1.5531],[40.7079,14.8826,3.2927],[40.7065,14.8813,0.0],[40.7099,14.8813,0.2737],[40.7135,14.8904,1.191],[40.7154,14.8921,1.1027],[40.7193,14.891,0.0],[40.7207,14.8929,0.5578],[40.7185,14.9001,0.0],[40.7001,14.9157,0.0],[40.6865,14.9157,0.0],[40.6835,14.9185,0.0],[40.6829,14.9151,0.4814],[40.6743,14.916,0.0],[40.6704,14.9126,1.3386],[40.6726,14.9065,1.361],[40.6657,14.9099,0.0],[40.6587,14.9038,0.0],[40.6582,14.8974,0.0],[40.6646,14.9013,1.0933],[40.6699,14.9021,3.5627],[40.671,14.9001,0.0],[40.6688,14.8985,0.0],[40.6712,14.8971,2.5455],[40.6707,14.896,0.5649],[40.6768,14.8974,3.7433],[40.6771,14.8954,2.2557],[40.6754,14.8951,0.0],[40.6765,14.894,2.2557],[40.674,14.891,0.342],[40.6662,14.8904,0.6856],[40.6621,14.8868,1.6512],[40.6585,14.889,0.0],[40.6518,14.8896,0.0],[40.6501,14.8921,0.0],[40.6518,14.8946,0.0],[40.649,14.8968,0.0],[40.6454,14.8924,0.0],[40.6346,14.8904,1.4272],[40.6182,14.8932,1.3166],[40.6176,14.8943,0.9659],[40.6204,14.8954,0.0],[40.6207,14.8988,0.8809],[40.6263,14.9001,0.0],[40.6265,14.904,0.8213],[40.6304,14.9104,0.0],[40.6335,14.9124,0.0],[40.636,14.919,0.0],[40.6465,14.9296,0.0],[40.6429,14.9379,0.0],[40.6368,14.9426,0.632],[40.6374,14.9593,0.0],[40.6332,14.9607,0.0],[40.629,14.9593,0.0],[40.624,14.9493,0.0],[40.621,14.9504,0.0],[40.621,14.9518,0.0],[40.6015,14.9529,0.075],[40.5979,14.9551,0.0326],[40.5863,14.9476,0.0912],[40.5829,14.9471,0.0],[40.5765,14.949,0.0],[40.574,14.9532,0.6548],[40.5679,14.9571,0.0],[40.5654,14.9621,0.0],[40.5615,14.9643,-0.0067],[40.5604,14.9679,0.0351],[40.5607,14.9704,0.0103],[40.5646,14.9718,0.0158],[40.5629,14.9762,0.2135],[40.5635,14.9843,0.8451],[40.5657,14.9843,1.9101],[40.566,14.9785,0.2805],[40.5671,14.9785,0.2805],[40.569,14.9815,0.6191],[40.5676,14.9849,0.4494],[40.5687,14.9915,0.9918],[40.5746,14.9932,10.1745],[40.571,14.9957,13.4465],[40.5713,14.9976,5.0957],[40.5696,14.999,0.0],[40.5593,14.9987,10.0283],[40.551,15.0046,0.0],[40.5462,15.0029,3.5548],[40.5418,15.006,1.0321],[40.5401,15.0082,0.5838],[40.541,15.0088,0.0]]],
[[[40.8226,14.7254,0.0],[40.8174,14.7262,0.0],[40.8135,14.7238,0.0],[40.8168,14.7188,0.6427],[40.8199,14.7188,0.7471],[40.8226,14.7224,0.0],[40.8226,14.7254,0.0]]],
[[[40.8054,14.7338,0.0],[40.8037,14.734,0.0],[40.8032,14.7318,0.0],[40.8051,14.7324,0.7024],[40.8054,14.7338,0.0]]],
[[[40.8376,14.7443,0.0],[40.8293,14.7432,4.568],[40.8282,14.7399,0.0],[40.8335,14.7349,0.0],[40.8374,14.7365,0.0],[40.8387,14.7335,0.0],[40.8401,14.7396,0.0],[40.8376,14.7443,0.0]]],
[[[40.899,14.7563,0.0],[40.8915,14.7568,0.8519],[40.8846,14.754,0.0],[40.8815,14.7501,0.0],[40.889,14.7471,3.5852],[40.8963,14.7471,5.9128],[40.901,14.7504,0.0],[40.9015,14.7537,0.0],[40.899,14.7563,0.0]]],
[[[40.8115,14.766,0.0],[40.8076,14.7665,0.0],[40.8021,14.7626,0.3589],[40.8015,14.759,0.0],[40.7979,14.7551,0.0],[40.8107,14.756,0.0],[40.8143,14.7601,1.6805],[40.8143,14.7632,1.8009],[40.8115,14.766,0.0]]],
[[[40.8262,14.8257,0.9198],[40.8221,14.8263,0.4927],[40.8204,14.8232,0.0],[40.8274,14.8215,0.0],[40.8262,14.8257,0.9198]]],
[[[40.844,14.8426,0.8206],[40.8413,14.8432,2.7057],[40.841,14.8407,0.0],[40.8413,14.839,4.0341],[40.8446,14.8379,1.8182],[40.8457,14.841,0.6383],[40.844,14.8426,0.8206]]],
[[[40.8121,14.7968,4.5001],[40.8018,14.7963,0.0],[40.7996,14.7943,0.0],[40.7999,14.7921,0.0],[40.7954,14.7899,0.0],[40.7954,14.7876,0.0],[40.7918,14.7871,0.0],[40.7912,14.7854,0.0],[40.7879,14.7874,0.0],[40.781,14.7851,0.0],[40.781,14.7807,0.0],[40.7832,14.7818,0.0615],[40.7832,14.784,0.0],[40.8015,14.7826,2.9744],[40.8096,14.7865,0.6038],[40.8135,14.786,0.0],[40.8157,14.7876,1.2381],[40.8165,14.7915,0.0],[40.8121,14.7968,4.5001]]],
[[[40.766,14.8349,2.0312],[40.7637,14.8354,0.8206],[40.7615,14.8332,0.0],[40.7599,14.8257,0.6737],[40.7571,14.8226,0.0],[40.7579,14.8213,0.0],[40.7613,14.8218,0.0],[40.7624,14.8188,0.0],[40.7663,14.8193,0.0],[40.7693,14.8226,0.0],[40.766,14.8349,2.0312]]],
[[[40.7874,14.8396,0.6682],[40.7843,14.8404,0.9039],[40.7826,14.8376,0.0],[40.7863,14.8343,0.5721],[40.7885,14.8354,0.0],[40.7874,14.8396,0.6682]]],
[[[40.759,14.8693,0.0],[40.754,14.8699,0.0],[40.7479,14.8665,0.9626],[40.7429,14.8674,0.0],[40.7396,14.8626,0.0],[40.7468,14.8626,0.9245],[40.751,14.859,2.705],[40.7499,14.8565,0.0],[40.7565,14.8526,0.0],[40.7585,14.8524,1.0172],[40.7607,14.8546,0.4262],[40.7646,14.8538,1.0486],[40.766,14.8501,0.2189],[40.7632,14.8446,0.2536],[40.7707,14.8435,0.0],[40.7718,14.8515,0.0],[40.7696,14.8629,0.0],[40.759,14.8693,0.0]]],
[[[40.5954,14.9707,0.7225],[40.5901,14.9715,0.6019],[40.5821,14.9701,0.8173],[40.5757,14.964,0.309],[40.5782,14.9632,0.0],[40.5846,14.9682,0.0],[40.5954,14.9707,0.7225]]],
[[[40.6026,14.9712,0.0],[40.5996,14.9721,0.0],[40.5996,14.9696,-0.0283],[40.5971,14.9699,-0.042],[40.6001,14.9687,0.0],[40.6026,14.9712,0.0]]],
[[[40.5824,14.9862,0.5194],[40.5804,14.9868,1.1996],[40.5799,14.9851,0.0],[40.5829,14.9854,0.0],[40.5824,14.9862,0.5194]]],
[[[40.544,15.0079,0.0],[40.5429,15.0074,0.0],[40.5465,15.0063,0.0],[40.5462,15.0071,0.0],[40.544,15.0079,0.0]]]]}
,"properties": {"GID_2": "ERI.3.1_1","GID_0": "ERI","country": "Eritrea","GID_1": "ERI.3_1","province": "DebubawiKeyihBahri","NL_NAME_1": "ዞባደቡባዊቀይሕባሕሪ","county": "Areta'","VARNAME_2": "NA","NL_NAME_2": "NA","TYPE_2": "District","ENGTYPE_2": "District","CC_2": "NA","HASC_2": "ER.DK.AR","name": "Areta'.county","area_km2": 6899.326,"hist_schema_id": "Elevation0-9000","hist_area_km2": {"-75": 9.406,"-50": 38.918,"-25": 98.682,"0": 705.558,"25": 783.472,"50": 415.299,"75": 326.737,"100": 271.369,"125": 232.24,"150": 245.168,"175": 202.571,"200": 173.895,"225": 159.787,"250": 158.057,"275": 154.879,"300": 151.01,"325": 146.618,"350": 157.003,"375": 160.087,"400": 163.399,"425": 159.751,"450": 152.082,"475": 138.675,"500": 131.222,"525": 122.252,"550": 113.485,"575": 105.686,"600": 103.207,"625": 104.712,"650": 104.0,"675": 101.333,"700": 98.809,"725": 94.639,"750": 90.346,"775": 83.235,"800": 75.709,"825": 68.122,"850": 60.185,"875": 51.362,"900": 41.118,"925": 34.865,"950": 25.095,"975": 18.903,"1000": 14.007,"1025": 12.135,"1050": 7.939,"1075": 7.219,"1100": 5.635,"1125": 4.772,"1150": 3.887,"1175": 3.168,"1200": 3.105,"1225": 2.406,"1250": 1.111,"1275": 0.555,"1300": 0.247,"1325": 0.144}}}