{"type":"Feature","properties":{"GID_2":"ERI.3.4_1","GID_0":"ERI","country":"Eritrea","GID_1":"ERI.3_1","province":"DebubawiKeyihBahri","NL_NAME_1":"ዞባደቡባዊቀይሕባሕሪ","county":"SouthSouthernRedSea","VARNAME_2":"NA","NL_NAME_2":"NA","TYPE_2":"District","ENGTYPE_2":"District","CC_2":"NA","HASC_2":"ER.DK.SS","name":"South_Southern_Red_Sea.county"},
"geometry":{"type": "MultiPolygon","coordinates": [[[[42.9329,12.8204,0.0],[42.9307,12.8215,0.0],[42.9315,12.8174,0.0],[42.9332,12.8185,0.0],[42.9329,12.8204,0.0]]],
[[[42.9732,12.8249,0.0],[42.9704,12.8257,0.0],[42.971,12.8207,0.0],[42.9738,12.8215,0.0],[42.9732,12.8249,0.0]]],
[[[42.9249,12.8338,0.4407],[42.919,12.8349,0.0],[42.921,12.8329,0.0],[42.921,12.8254,0.0],[42.9232,12.8229,0.0],[42.9263,12.8224,0.0],[42.9282,12.824,0.0],[42.9246,12.8274,0.8036],[42.929,12.8249,0.0],[42.9304,12.8263,0.0],[42.9254,12.8313,0.9357],[42.9249,12.8338,0.4407]]],
[[[42.9376,12.8482,1.1783],[42.9329,12.8487,0.3487],[42.9299,12.8449,0.3139],[42.9324,12.8413,0.5859],[42.9313,12.8385,0.0],[42.9335,12.836,0.0],[42.9335,12.8326,0.0],[42.9371,12.8274,0.1532],[42.9432,12.8229,0.0],[42.9435,12.8246,0.0],[42.9521,12.8218,0.0],[42.9579,12.8235,0.0],[42.9596,12.8263,1.1983],[42.9579,12.8296,0.6988],[42.9446,12.8401,0.0],[42.9426,12.8446,0.0],[42.9376,12.8482,1.1783]]],
[[[42.8785,12.831,0.0],[42.876,12.8318,0.0],[42.8757,12.8304,0.0],[42.886,12.8218,0.0],[42.8857,12.8188,0.0],[42.8876,12.8182,0.0],[42.8871,12.8201,0.0],[42.8896,12.819,0.0],[42.8901,12.8235,0.1258],[42.8874,12.8246,0.0],[42.8854,12.8235,0.3766],[42.8821,12.826,0.0],[42.8824,12.8293,0.0],[42.8796,12.8288,0.2021],[42.8785,12.831,0.0]]],
[[[42.906,12.844,0.0],[42.9026,12.8443,0.0],[42.9063,12.8413,0.0],[42.9057,12.8401,0.0],[42.9121,12.8404,0.0],[42.911,12.8418,0.2429],[42.906,12.844,0.0]]],
[[[42.9143,12.8449,0.5139],[42.9129,12.8454,0.3136],[42.9113,12.8432,0.0],[42.916,12.8426,0.0],[42.9143,12.8449,0.5139]]],
[[[42.9063,12.8571,0.0],[42.9026,12.8576,0.0],[42.9015,12.8526,1.0118],[42.8985,12.8501,0.0],[42.8993,12.8476,0.0],[42.901,12.8476,0.0],[42.9021,12.8499,0.0],[42.9065,12.8482,0.0],[42.9162,12.8482,2.4542],[42.9212,12.8426,0.0],[42.9212,12.8399,0.0],[42.9254,12.8404,0.0],[42.9238,12.8432,0.0],[42.9204,12.844,0.0],[42.9215,12.8457,0.0],[42.9193,12.8501,0.0],[42.9118,12.854,0.0],[42.9104,12.8535,0.9376],[42.9096,12.856,0.0],[42.9063,12.8571,0.0]]],
[[[42.9843,12.871,0.0],[42.9849,12.8737,0.0],[42.9813,12.871,0.6167],[42.981,12.8671,0.0],[42.9824,12.8676,0.0],[42.9843,12.871,0.0]]],
[[[42.9715,12.8879,0.0],[42.969,12.8888,0.1565],[42.9704,12.8857,0.0],[42.9743,12.8843,0.0],[42.9754,12.8874,0.0],[42.9715,12.8879,0.0]]],
[[[42.9315,12.8938,0.0],[42.9304,12.894,0.0],[42.9299,12.8946,0.0],[42.9304,12.8929,0.0],[42.9315,12.8938,0.0]]],
[[[42.9264,12.8985,0.0],[42.9251,12.9001,0.0],[42.924,12.9001,0.0],[42.9274,12.8962,0.0],[42.9264,12.8985,0.0]]],
[[[42.9688,12.9065,0.2203],[42.9671,12.9074,0.0],[42.9629,12.9049,0.7828],[42.964,12.8965,0.0],[42.969,12.8901,0.1565],[42.9732,12.8896,0.0],[42.9768,12.8929,0.6762],[42.9782,12.8988,0.0],[42.9774,12.901,0.0],[42.9688,12.9065,0.2203]]],
[[[42.9768,12.904,0.4802],[42.9754,12.9049,0.4802],[42.9743,12.9046,0.2803],[42.9776,12.9021,0.0],[42.9768,12.904,0.4802]]],
[[[42.9715,12.9079,0.2241],[42.9693,12.9088,0.0],[42.9688,12.9076,0.5141],[42.974,12.9049,0.2803],[42.974,12.9063,0.2261],[42.9715,12.9079,0.2241]]],
[[[42.9171,12.916,0.0],[42.9154,12.9171,0.0],[42.9101,12.9149,0.491],[42.9107,12.9107,0.0],[42.9129,12.9096,0.0],[42.9137,12.9115,0.0],[42.9238,12.9049,0.0],[42.9279,12.9065,0.2648],[42.9226,12.9124,0.0],[42.9171,12.916,0.0]]],
[[[42.7976,12.8568,0.3315],[42.7974,12.8576,0.0],[42.7954,12.8579,0.0],[42.7971,12.8551,0.0],[42.7976,12.8568,0.3315]]],
[[[42.7938,12.859,1.5225],[42.7938,12.8601,1.5225],[42.7899,12.8601,0.4601],[42.7901,12.859,0.4601],[42.7938,12.859,1.5225]]],
[[[42.776,12.874,0.0],[42.774,12.8751,0.0],[42.781,12.8668,0.0],[42.7854,12.864,0.0],[42.7854,12.8679,0.0],[42.7821,12.8732,0.0],[42.776,12.874,0.0]]],
[[[42.7976,12.8779,1.3757],[42.7943,12.879,0.4985],[42.7904,12.8779,0.0],[42.789,12.8754,0.3997],[42.7888,12.8699,0.0],[42.7929,12.8651,0.0],[42.8082,12.8651,0.7039],[42.8121,12.8621,1.6983],[42.8146,12.8629,0.7238],[42.8151,12.8618,0.0],[42.8185,12.8657,0.0],[42.8174,12.8668,0.0],[42.8157,12.8638,0.0],[42.8138,12.8646,1.2442],[42.8151,12.8685,0.4629],[42.8199,12.8704,0.0],[42.819,12.8721,0.376],[42.8126,12.8743,0.0],[42.8093,12.8729,1.2537],[42.8093,12.8743,0.0],[42.8007,12.8754,1.6212],[42.7976,12.8779,1.3757]]],
[[[42.8688,12.854,0.0],[42.866,12.8557,0.0],[42.8696,12.8504,0.0],[42.8746,12.8499,0.0],[42.8743,12.8532,0.0],[42.8713,12.8521,0.0],[42.8688,12.854,0.0]]],
[[[42.8729,12.8579,0.0],[42.8715,12.8599,0.3501],[42.869,12.8593,0.0],[42.8713,12.8574,0.0],[42.8729,12.8579,0.0]]],
[[[42.881,12.876,0.0],[42.8768,12.8751,0.0],[42.8754,12.8685,0.0],[42.8768,12.8646,0.0],[42.8804,12.8629,0.7153],[42.8799,12.8613,0.0],[42.8812,12.8601,0.0],[42.8924,12.8579,0.0],[42.8935,12.8621,0.0],[42.8913,12.8718,0.0],[42.8843,12.8735,1.0612],[42.881,12.876,0.0]]],
[[[42.8729,12.9035,0.0],[42.8726,12.9068,0.0],[42.8707,12.9068,0.4589],[42.8649,12.9015,1.4007],[42.8643,12.8993,1.4953],[42.8676,12.8979,0.0],[42.8729,12.9035,0.0]]],
[[[42.8454,12.8768,0.0],[42.8393,12.8779,0.0],[42.8357,12.8762,0.0],[42.8379,12.8685,0.0],[42.8393,12.8715,0.0],[42.8426,12.8699,0.0],[42.8407,12.8715,0.0],[42.8415,12.8737,0.0],[42.8449,12.8735,0.0],[42.8451,12.8696,0.0],[42.849,12.8699,0.0],[42.8468,12.8729,0.0],[42.8474,12.8754,0.4479],[42.8454,12.8768,0.0]]],
[[[42.8676,12.8774,0.0],[42.8671,12.8804,0.0],[42.8557,12.8788,0.0],[42.8532,12.8768,0.6631],[42.8501,12.8782,0.0],[42.8488,12.874,0.4479],[42.8551,12.8696,0.0],[42.8579,12.8699,0.6628],[42.8601,12.8671,0.1239],[42.8618,12.8679,0.5845],[42.8654,12.866,0.0],[42.8685,12.8737,0.0],[42.8676,12.8774,0.0]]],
[[[42.8279,12.9349,1.4773],[42.8276,12.9379,0.4887],[42.8265,12.9379,0.0],[42.8232,12.9357,0.3615],[42.8232,12.9338,0.992],[42.8257,12.9329,0.4651],[42.8279,12.9349,1.4773]]],
[[[42.8201,12.9657,1.8679],[42.8182,12.9671,0.0],[42.8146,12.9604,1.5923],[42.8035,12.9613,0.0],[42.8004,12.9579,0.0],[42.8049,12.9551,0.0],[42.8101,12.9562,1.2884],[42.8101,12.9543,0.0],[42.8124,12.9529,1.0437],[42.8151,12.9537,0.0],[42.8171,12.9507,0.9664],[42.8213,12.9504,0.0],[42.8257,12.954,2.708],[42.8271,12.961,0.3743],[42.8238,12.9646,0.0],[42.8201,12.9657,1.8679]]],
[[[42.8457,12.9885,0.2922],[42.8454,12.9899,0.0],[42.8426,12.9904,1.7566],[42.8368,12.9899,0.0],[42.8318,12.9874,0.0],[42.8293,12.9837,0.7351],[42.8312,12.9799,0.423],[42.8343,12.9785,0.0],[42.8421,12.979,0.9417],[42.844,12.9824,2.9357],[42.8465,12.9812,3.5984],[42.8468,12.9776,2.4076],[42.844,12.9776,0.0],[42.8432,12.9757,0.0],[42.8426,12.9679,0.0],[42.8371,12.9651,1.2309],[42.8404,12.9574,0.3271],[42.8415,12.9574,0.0],[42.8426,12.9629,3.4876],[42.8446,12.9635,0.3443],[42.8468,12.9613,1.0874],[42.8488,12.9557,0.9341],[42.8446,12.9546,0.946],[42.8429,12.956,0.2989],[42.841,12.9524,0.0],[42.8476,12.9413,1.1431],[42.8543,12.9413,2.0379],[42.8596,12.9468,2.306],[42.8601,12.954,0.0],[42.8543,12.9649,0.879],[42.849,12.9654,1.4835],[42.8524,12.9735,0.6858],[42.8504,12.9815,2.2487],[42.8526,12.9837,0.0],[42.8457,12.9885,0.2922]]],
[[[42.8154,12.9738,0.0],[42.8135,12.9749,0.2221],[42.8126,12.9729,0.8414],[42.8165,12.9663,0.5674],[42.8154,12.9688,0.0],[42.8154,12.9738,0.0]]],
[[[42.7996,12.9729,1.0321],[42.7988,12.9771,0.0],[42.7951,12.9757,0.0],[42.796,12.9707,1.3703],[42.7996,12.9729,1.0321]]],
[[[42.7968,12.9971,0.0],[42.796,12.9982,0.0],[42.7949,12.9979,1.2814],[42.7971,12.9954,0.0],[42.7968,12.9971,0.0]]],
[[[42.9104,12.966,0.5163],[42.909,12.9668,0.4861],[42.9085,12.9651,0.0],[42.9196,12.956,1.5348],[42.9218,12.9521,1.3763],[42.9129,12.9493,0.9825],[42.9046,12.956,1.4706],[42.9004,12.9624,0.0],[42.8951,12.9571,0.3919],[42.8885,12.9588,0.0],[42.8874,12.9571,0.0],[42.8865,12.954,0.0],[42.889,12.9532,0.3976],[42.8896,12.9443,0.0],[42.896,12.9371,0.7973],[42.9007,12.9249,0.0],[42.9071,12.9176,0.9109],[42.9126,12.9182,0.6219],[42.9126,12.921,0.0],[42.9104,12.9229,0.2485],[42.9113,12.926,0.9034],[42.9137,12.9254,0.0],[42.9137,12.9232,0.0],[42.9171,12.9213,0.0],[42.9171,12.9293,1.943],[42.9287,12.9246,0.0],[42.934,12.9251,2.4666],[42.9365,12.9207,1.6462],[42.936,12.9171,1.3962],[42.9332,12.9149,0.0],[42.9343,12.909,1.332],[42.9287,12.9063,0.2648],[42.9276,12.9024,0.0],[42.9313,12.8968,0.0],[42.9365,12.8929,1.1522],[42.9368,12.8888,0.767],[42.9457,12.8815,0.3156],[42.9485,12.8737,0.0],[42.9512,12.871,1.7045],[42.9529,12.8713,1.6148],[42.9618,12.8649,0.0],[42.9665,12.8649,0.0],[42.9668,12.8671,0.0],[42.9635,12.8713,0.0],[42.9526,12.8796,0.0],[42.9501,12.8871,1.8811],[42.9465,12.8921,0.0],[42.9471,12.8951,0.3265],[42.9521,12.8951,0.0],[42.9538,12.9021,0.0],[42.9493,12.906,0.436],[42.9424,12.9079,0.0],[42.9435,12.9088,2.1569],[42.9504,12.906,0.9075],[42.9526,12.9068,0.0],[42.9554,12.9129,0.5174],[42.9557,12.9185,1.9292],[42.9538,12.9207,0.7715],[42.9515,12.9315,0.0],[42.959,12.9301,0.0],[42.9635,12.9271,0.0],[42.966,12.9365,0.4113],[42.9626,12.9363,0.8709],[42.9615,12.9413,0.0],[42.9579,12.9435,1.1395],[42.9501,12.9424,0.6718],[42.9449,12.9487,0.7225],[42.9385,12.9515,0.402],[42.9338,12.9515,0.6337],[42.9196,12.9618,0.0],[42.9104,12.966,0.5163]]],
[[[42.9212,12.9982,5.673],[42.9188,12.9988,0.0],[42.9188,12.9965,0.8998],[42.9313,12.9835,0.0],[42.9418,12.9801,0.4879],[42.9401,12.9854,1.016],[42.9357,12.9907,0.0],[42.9279,12.9924,0.8288],[42.9212,12.9982,5.673]]],
[[[42.8985,12.9762,0.9178],[42.8965,12.9774,0.0],[42.8926,12.9749,0.0],[42.894,12.9713,0.3999],[42.8968,12.971,1.0514],[42.8979,12.9676,0.0],[42.906,12.9638,0.0],[42.9051,12.966,2.3342],[42.9079,12.9657,0.4861],[42.9085,12.9674,0.0],[42.9038,12.9699,1.1284],[42.8985,12.9762,0.9178]]],
[[[42.8885,12.9824,0.0],[42.886,12.9832,0.0],[42.881,12.9812,1.072],[42.876,12.9762,0.0],[42.8815,12.9707,2.9075],[42.8868,12.9615,1.2145],[42.8893,12.9629,1.7826],[42.8899,12.9671,3.7349],[42.8854,12.9713,1.6236],[42.8882,12.9718,0.0],[42.8901,12.9774,2.9485],[42.8929,12.9774,0.0],[42.8885,12.9824,0.0]]],
[[[42.8887,13.0063,0.0],[42.8868,13.0068,0.0],[42.8879,13.0049,0.0],[42.8851,13.0021,0.0],[42.884,13.0026,0.0],[42.884,13.001,0.0],[42.8879,13.0015,0.0],[42.8887,13.0063,0.0]]],
[[[42.8871,13.0154,0.0],[42.8857,13.0163,0.0],[42.8876,13.0121,0.0],[42.8887,13.0157,0.0],[42.8871,13.0154,0.0]]],
[[[42.7735,12.8788,0.0],[42.7724,12.8796,0.0],[42.774,12.8774,0.0],[42.774,12.8782,0.0],[42.7735,12.8788,0.0]]],
[[[42.7646,12.9654,0.1722],[42.7646,12.9668,0.2477],[42.7629,12.9665,0.0],[42.7579,12.9629,0.0],[42.7621,12.9635,0.0],[42.7646,12.9654,0.1722]]],
[[[42.7721,12.9821,0.0],[42.7671,12.9821,0.0],[42.7679,12.9768,0.0],[42.7718,12.9796,0.0],[42.7721,12.9821,0.0]]],
[[[42.7176,13.0796,19.6967],[42.7143,13.0801,33.4751],[42.7118,13.0757,0.7129],[42.7168,13.076,1.0045],[42.7176,13.0796,19.6967]]],
[[[42.8143,13.0013,0.649],[42.8118,13.0021,0.0],[42.8104,12.9988,1.368],[42.816,12.9963,0.6146],[42.816,13.0004,0.8171],[42.8143,13.0013,0.649]]],
[[[42.8007,13.0049,0.2136],[42.7979,13.0057,0.0],[42.796,12.999,0.3929],[42.7976,12.9996,0.3929],[42.8007,13.0049,0.2136]]],
[[[42.8812,13.0204,0.0],[42.8785,13.0215,0.0],[42.8804,13.0185,0.0],[42.8826,13.0179,0.0],[42.8812,13.0204,0.0]]],
[[[42.8718,13.0435,0.1571],[42.8699,13.0443,0.7939],[42.8529,13.041,1.687],[42.8454,13.0362,1.3444],[42.8404,13.0268,0.3145],[42.8432,13.0182,0.0],[42.8462,13.0151,0.0],[42.851,13.0146,0.2919],[42.8607,13.0093,0.4906],[42.8685,13.0082,1.0122],[42.8735,13.0037,0.0],[42.8746,13.0049,0.4465],[42.8829,13.0035,0.0],[42.8832,13.0049,0.0],[42.8854,13.0046,0.0],[42.8857,13.0065,0.0],[42.8829,13.0068,0.0],[42.874,13.016,0.0],[42.8718,13.0143,0.5872],[42.869,13.0151,1.998],[42.8665,13.0215,0.0],[42.8607,13.0254,8.2757],[42.8576,13.0349,1.8427],[42.8543,13.0368,2.5559],[42.851,13.0355,2.0151],[42.8535,13.0393,2.1983],[42.8576,13.0418,0.0],[42.8626,13.0374,0.0],[42.8704,13.0432,0.1571],[42.8754,13.0396,0.0],[42.8718,13.0435,0.1571]]],
[[[42.8149,12.4256,334.1284],[42.8233,12.4357,325.1454],[42.8232,12.4444,321.4138],[42.8183,12.4543,329.9859],[42.8179,12.4619,322.2605],[42.8132,12.4657,318.09],[42.8101,12.4716,323.2669],[42.803,12.4721,304.5919],[42.7972,12.4764,308.3775],[42.7946,12.4815,308.6623],[42.7943,12.4859,295.5883],[42.798,12.4929,289.9217],[42.7998,12.5073,303.9916],[42.8066,12.5181,291.8964],[42.8113,12.5211,256.2427],[42.8127,12.5263,291.3418],[42.8177,12.5265,288.5969],[42.8206,12.5359,287.399],[42.8282,12.5457,275.5376],[42.834,12.5462,264.644],[42.8408,12.5443,254.3488],[42.848,12.5519,238.6311],[42.8577,12.5514,194.4252],[42.86,12.5573,189.6706],[42.8554,12.5616,213.9615],[42.8551,12.5641,229.5028],[42.8618,12.5702,174.5331],[42.8578,12.575,175.4804],[42.8583,12.5787,198.7054],[42.8655,12.5823,162.2816],[42.8657,12.5933,231.7271],[42.8702,12.5958,231.0936],[42.8798,12.5973,148.7073],[42.8832,12.6099,133.1761],[42.8875,12.6171,127.7658],[42.893,12.6201,124.2859],[42.9013,12.6203,118.7924],[42.9091,12.6151,150.6911],[42.9157,12.6142,113.3247],[42.9264,12.6247,130.071],[42.9296,12.626,194.9672],[42.9401,12.6253,90.1252],[42.9487,12.6294,85.659],[42.962,12.6446,75.6317],[42.97,12.6446,68.3346],[42.9825,12.6489,64.3307],[43.1182,12.7052,3.3013],[43.1338,12.7068,2.9204],[43.1376,12.7124,0.0],[43.1376,12.714,0.0],[43.136,12.714,0.0],[43.131,12.711,0.2569],[43.1276,12.7113,4.724],[43.1271,12.7082,0.3272],[43.1237,12.7087,0.6682],[43.1229,12.716,0.0],[43.1182,12.7163,0.1743],[43.1154,12.7182,0.3948],[43.1154,12.7335,2.0854],[43.1107,12.7343,0.0],[43.106,12.7318,1.8775],[43.1021,12.7387,2.0922],[43.0999,12.7379,0.6794],[43.0979,12.7399,1.2418],[43.0979,12.7493,0.6211],[43.0921,12.7632,1.3733],[43.0904,12.7735,1.0804],[43.0893,12.8032,0.646],[43.0832,12.8146,0.2251],[43.0826,12.819,0.0],[43.0776,12.8265,0.5842],[43.0779,12.8301,0.0],[43.0754,12.8354,0.7738],[43.0724,12.8407,0.1061],[43.0671,12.8379,0.0],[43.0671,12.8396,0.0],[43.0654,12.8385,0.301],[43.0649,12.8399,0.3141],[43.0626,12.8396,0.2806],[43.0624,12.8421,0.1893],[43.0549,12.846,0.5318],[43.054,12.8474,0.4489],[43.0554,12.8465,0.4906],[43.0563,12.8482,0.5001],[43.056,12.846,0.4906],[43.0574,12.8457,0.0],[43.0579,12.8521,0.3688],[43.0537,12.8563,0.5646],[43.0537,12.859,0.4419],[43.0518,12.8585,0.395],[43.044,12.8668,0.3776],[43.0446,12.8715,0.0],[43.0462,12.8699,0.0],[43.0468,12.871,0.0],[43.0443,12.8735,0.0],[43.0335,12.8754,0.0],[43.0315,12.8779,0.0],[43.0304,12.8768,0.0],[43.0288,12.8793,0.0],[43.0268,12.8785,0.0],[43.0268,12.8807,0.0],[43.0229,12.8857,0.3113],[43.024,12.8882,0.3719],[43.0257,12.8865,0.4087],[43.0268,12.8901,0.0],[43.0335,12.8871,0.0],[43.0321,12.8913,0.0],[43.0332,12.8918,0.0],[43.0337,12.8901,0.0],[43.0335,12.8951,0.0],[43.0349,12.8929,0.0],[43.0376,12.8926,0.0],[43.0368,12.8943,0.0],[43.0357,12.8938,0.0],[43.0371,12.8949,0.0],[43.036,12.899,0.0],[43.0376,12.899,0.0],[43.0357,12.904,0.0],[43.0279,12.9093,0.0],[43.0299,12.9037,0.0],[43.0282,12.9026,0.0],[43.0262,12.9037,0.0],[43.0279,12.9057,0.0],[43.0271,12.9099,0.0],[43.0262,12.9118,0.0],[43.0246,12.9118,0.0],[43.0246,12.9157,0.0],[43.0215,12.9199,0.0],[43.0196,12.9221,0.0],[43.0187,12.9204,0.0],[43.016,12.9226,0.0],[43.0146,12.9224,0.0],[43.0143,12.9185,0.0],[43.0132,12.9257,0.0],[43.0107,12.9263,0.0],[43.0013,12.9351,0.0],[42.999,12.9421,0.0],[43.0037,12.9418,0.0],[43.006,12.9393,0.0],[43.0054,12.9413,0.0],[42.9987,12.9446,0.0],[42.9918,12.9435,0.0],[42.9901,12.9482,0.0],[42.9882,12.9471,0.0],[42.9824,12.9512,0.0],[42.9824,12.9565,0.0],[42.9785,12.9568,0.0],[42.981,12.9579,0.0],[42.9799,12.9599,0.0],[42.9768,12.9593,0.0],[42.9774,12.9571,0.0],[42.969,12.9551,1.0952],[42.9649,12.9512,0.7012],[42.9643,12.9479,0.1857],[42.9615,12.9451,0.0],[42.9685,12.9487,0.0],[42.9732,12.9449,1.0129],[42.9757,12.9401,0.3885],[42.9738,12.9396,0.2577],[42.9749,12.9376,0.0],[42.9685,12.9338,0.0],[42.9668,12.931,0.4279],[42.9668,12.9143,0.2865],[42.986,12.9007,0.4135],[42.9907,12.8932,0.0],[42.9935,12.8932,0.0],[42.9835,12.8868,0.3286],[42.9857,12.8826,0.6099],[42.9846,12.8782,0.0],[42.9876,12.8785,0.7878],[42.9885,12.8771,0.7878],[42.9899,12.8671,0.9819],[42.9929,12.8613,0.0],[42.9907,12.8565,0.8058],[42.9821,12.8485,0.268],[42.9813,12.8457,0.7531],[42.9949,12.8335,0.0],[42.9954,12.8299,0.0],[42.9829,12.8171,0.0],[42.9779,12.8154,0.9201],[42.9707,12.8165,0.2197],[42.9629,12.8129,0.3828],[42.9582,12.8054,0.7131],[42.949,12.806,0.4491],[42.9437,12.809,0.0],[42.9346,12.8001,0.9553],[42.9357,12.7971,0.8297],[42.939,12.7951,0.5191],[42.9385,12.7929,0.6788],[42.9357,12.7924,0.0],[42.9321,12.7876,0.7178],[42.9265,12.7854,0.9488],[42.9251,12.7832,0.8359],[42.9085,12.784,0.3353],[42.9046,12.7924,1.5621],[42.9079,12.7924,0.0],[42.9079,12.7965,0.228],[42.9154,12.801,4.7349],[42.9221,12.8007,9.736],[42.9246,12.7979,0.0],[42.9282,12.7996,0.0],[42.9287,12.8099,1.4141],[42.9226,12.8129,1.8116],[42.9101,12.8126,1.1122],[42.9087,12.8146,1.0405],[42.9057,12.8146,0.5202],[42.9054,12.8126,0.8765],[42.9082,12.8118,0.3953],[42.9076,12.8085,2.4268],[42.9012,12.8065,0.846],[42.8976,12.8032,0.697],[42.8929,12.8038,0.0],[42.8885,12.8088,0.2814],[42.8779,12.8146,0.815],[42.8704,12.8218,0.6551],[42.8649,12.8313,0.0],[42.8543,12.8404,0.7651],[42.8485,12.8415,0.2501],[42.844,12.8493,0.3688],[42.8462,12.8637,0.0],[42.8438,12.866,0.1114],[42.8401,12.8654,0.3754],[42.839,12.8624,0.0],[42.836,12.861,0.0],[42.8282,12.8615,0.1437],[42.8271,12.8593,0.7777],[42.8224,12.8571,0.1398],[42.8257,12.8565,0.8553],[42.826,12.8551,0.4418],[42.821,12.8513,1.0475],[42.8182,12.8524,0.1288],[42.809,12.8515,0.2662],[42.8074,12.8432,1.8414],[42.8026,12.8396,1.9993],[42.799,12.8404,1.435],[42.7976,12.8426,0.0],[42.7915,12.841,0.1785],[42.7885,12.8424,0.0],[42.7857,12.8415,1.1376],[42.7826,12.8468,0.4415],[42.7749,12.8507,0.9421],[42.7721,12.8601,0.1472],[42.761,12.8715,0.0],[42.761,12.8751,0.0],[42.7707,12.8815,0.0],[42.7718,12.8843,0.2661],[42.7696,12.8876,0.0],[42.7707,12.8924,0.5308],[42.7693,12.9054,0.0],[42.7701,12.9126,0.0],[42.769,12.9157,0.0],[42.7674,12.9157,0.0],[42.7687,12.9185,0.0],[42.7657,12.9213,0.6713],[42.7635,12.9285,0.1263],[42.7599,12.931,0.3988],[42.7588,12.9351,1.1977],[42.7449,12.9557,0.0],[42.741,12.9576,0.0],[42.736,12.9568,0.9025],[42.7337,12.9596,0.1898],[42.7313,12.9599,1.6015],[42.7332,12.9635,0.0],[42.7329,12.9682,0.0],[42.7313,12.9699,0.7566],[42.7318,12.9721,1.2373],[42.729,12.9715,1.0089],[42.7301,12.974,1.3827],[42.7335,12.9732,0.1282],[42.7365,12.9762,1.3432],[42.7396,12.9762,0.6856],[42.7418,12.9796,0.0],[42.7424,12.9821,0.0873],[42.7396,12.9849,2.9682],[42.7385,12.9904,0.6496],[42.7401,12.9915,1.8125],[42.7426,13.0015,0.2537],[42.7449,13.0029,2.0436],[42.7471,13.0004,0.0],[42.7463,13.0046,1.865],[42.7479,13.0051,0.0],[42.749,13.0024,1.0938],[42.7513,13.0015,0.0],[42.7476,13.0071,3.7835],[42.749,13.024,0.0],[42.7474,13.024,0.4362],[42.7449,13.0274,0.3556],[42.7449,13.0329,0.0],[42.7429,13.0379,0.0],[42.7385,13.0401,1.1118],[42.7329,13.0399,1.1683],[42.7313,13.0426,0.6293],[42.7271,13.0443,0.2674],[42.726,13.0474,0.0],[42.7121,13.0529,0.5063],[42.704,13.0501,1.6187],[42.6929,13.051,0.0],[42.6899,13.0488,0.0],[42.6793,13.0504,1.652],[42.6735,13.0538,0.2523],[42.6565,13.0818,0.0],[42.6521,13.0857,0.0],[42.6443,13.1085,0.0],[42.6418,13.1096,0.6771],[42.6296,13.1254,0.0],[42.626,13.1271,0.0],[42.614,13.1407,0.0],[42.6024,13.1474,0.3946],[42.6015,13.1513,0.0],[42.596,13.1543,0.0],[42.5957,13.1568,0.1538],[42.5904,13.1554,0.7635],[42.5851,13.159,0.0],[42.5757,13.1707,0.1503],[42.5671,13.1849,0.0],[42.5657,13.1846,0.0],[42.5635,13.1996,0.0],[42.5554,13.2051,0.4728],[42.5568,13.1971,0.0],[42.5476,13.1954,1.1752],[42.5443,13.2021,0.7767],[42.5493,13.2074,0.0],[42.5479,13.2132,0.0524],[42.549,13.2182,0.5453],[42.5501,13.2188,0.7943],[42.5501,13.2168,0.2057],[42.5521,13.2165,0.0],[42.5529,13.219,0.1717],[42.551,13.2293,0.4133],[42.5462,13.2265,1.7958],[42.5415,13.2282,0.4077],[42.5382,13.2262,0.0],[42.5304,13.2262,0.0],[42.526,13.2182,0.0],[42.5293,13.2163,0.0],[42.5251,13.2085,15.3762],[42.5199,13.206,0.0],[42.5199,13.2024,0.0],[42.5179,13.2004,0.0],[42.519,13.1985,0.0],[42.5207,13.1987,0.0],[42.5193,13.194,0.2197],[42.5113,13.1904,6.0745],[42.5065,13.1904,20.1856],[42.4976,13.184,19.6847],[42.4924,13.1829,4.8537],[42.4837,13.1871,0.0],[42.4707,13.1876,0.0],[42.4593,13.186,0.8388],[42.4546,13.1893,0.0],[42.4471,13.1888,0.0],[42.4426,13.1907,0.0],[42.4379,13.1968,0.8789],[42.4335,13.1971,2.7072],[42.431,13.1999,1.4573],[42.4221,13.1999,1.0104],[42.4215,13.2018,0.0],[42.4179,13.2035,0.2624],[42.4082,13.2004,2.2814],[42.4007,13.204,0.0],[42.3949,13.2029,0.4457],[42.3935,13.206,0.0],[42.384,13.2115,0.6046],[42.3821,13.2196,0.1365],[42.3799,13.2224,1.063],[42.3815,13.2268,0.0],[42.381,13.2329,0.0],[42.3829,13.244,0.0],[42.3801,13.2487,1.366],[42.3796,13.2549,0.7712],[42.3754,13.2665,0.8006],[42.3757,13.2754,0.0],[42.374,13.2776,0.8093],[42.3726,13.2915,0.0],[42.3735,13.2971,0.0],[42.3715,13.299,1.635],[42.3701,13.3101,0.0],[42.3713,13.3162,0.0],[42.3676,13.3235,0.9274],[42.3662,13.3332,0.6827],[42.3674,13.3376,0.0],[42.3638,13.3446,0.0],[42.3585,13.3713,0.0],[42.3593,13.3882,1.1498],[42.3579,13.3976,0.0],[42.3537,13.4126,0.0],[42.3471,13.4246,0.0],[42.3429,13.4379,1.4292],[42.3374,13.4438,0.0],[42.3315,13.4446,2.4505],[42.331,13.4482,0.0],[42.3282,13.4493,1.6555],[42.3265,13.4579,0.0],[42.3229,13.4571,0.0],[42.3201,13.461,0.0],[42.321,13.4624,0.0],[42.3196,13.4618,0.0],[42.316,13.4643,0.9228],[42.3138,13.4696,0.0],[42.311,13.471,0.0],[42.3079,13.4763,1.8023],[42.3076,13.4832,0.0],[42.3049,13.4899,0.0],[42.3054,13.4943,0.0],[42.3018,13.4979,1.948],[42.3046,13.5115,0.0],[42.3076,13.5157,0.8755],[42.2996,13.5243,1.8979],[42.3015,13.5374,0.6783],[42.2968,13.5454,0.6324],[42.2921,13.5618,0.7715],[42.2726,13.5757,1.0433],[42.2629,13.5871,0.3277],[42.2613,13.5915,0.0],[42.2549,13.5974,0.7307],[42.2526,13.6015,1.9076],[42.2485,13.604,1.7588],[42.2435,13.6163,0.0],[42.2354,13.6243,0.289],[42.2363,13.6338,0.0],[42.2351,13.6368,0.0],[42.214,13.6463,0.6536],[42.2188,13.6438,0.5208],[42.2201,13.641,0.5123],[42.2249,13.6396,0.7222],[42.2287,13.6354,0.8788],[42.2271,13.6349,0.82],[42.2276,13.6299,0.8633],[42.2254,13.6193,0.836],[42.2296,13.616,0.821],[42.2285,13.6138,0.8811],[42.2296,13.6121,0.927],[42.2274,13.6093,0.8687],[42.2285,13.6076,0.9562],[42.2257,13.606,0.9421],[42.2254,13.604,0.7039],[42.2235,13.6049,0.0955],[42.2221,13.6085,0.216],[42.2243,13.6118,0.631],[42.2243,13.6318,0.7697],[42.2226,13.6315,0.487],[42.2196,13.6368,0.7333],[42.2135,13.6418,1.2193],[42.2129,13.6463,0.5405],[42.2062,13.6476,1.1113],[42.2004,13.6512,1.4755],[42.1976,13.6585,0.0],[42.1996,13.6657,0.0],[42.1913,13.6671,0.0],[42.1915,13.6743,0.0],[42.1865,13.6721,0.0],[42.1888,13.6704,0.0],[42.1879,13.6665,0.9311],[42.1818,13.6654,1.757],[42.176,13.6615,1.5813],[42.1735,13.6615,0.7797],[42.1715,13.6649,0.0],[42.1701,13.6621,0.0],[42.1638,13.6618,2.2418],[42.1618,13.6593,0.0],[42.1646,13.6562,1.2889],[42.166,13.6515,0.0],[42.1674,13.6526,0.0],[42.1757,13.6512,0.0],[42.1796,13.6521,0.0],[42.1801,13.6543,0.0],[42.184,13.6562,0.6066],[42.1846,13.6518,0.0],[42.1829,13.6501,1.2071],[42.1787,13.6504,0.2037],[42.1818,13.6474,0.0],[42.1899,13.6504,0.0],[42.1896,13.646,0.0],[42.1946,13.644,0.0],[42.201,13.6488,0.5694],[42.2007,13.6476,0.0],[42.2085,13.644,0.3546],[42.206,13.639,0.1367],[42.2049,13.6429,0.0],[42.2021,13.6432,0.0],[42.2015,13.6382,0.0],[42.2046,13.6371,0.0],[42.2049,13.6335,1.4134],[42.2046,13.6349,0.5126],[42.2021,13.6343,0.0],[42.201,13.6296,0.0],[42.1974,13.6249,1.7028],[42.1921,13.6218,1.0005],[42.1862,13.621,0.0],[42.1862,13.6171,0.0],[42.1963,13.6163,0.0],[42.2001,13.6176,0.0],[42.2065,13.6271,0.0],[42.2076,13.6346,0.0],[42.2096,13.6346,0.0],[42.2126,13.6285,0.0],[42.2099,13.6279,0.0],[42.2115,13.624,0.0],[42.2135,13.6235,0.0],[42.2135,13.6249,0.0],[42.2185,13.619,0.8984],[42.2168,13.6176,0.2375],[42.2182,13.616,0.4473],[42.2168,13.6135,0.6868],[42.2154,13.6163,0.0],[42.2149,13.6115,0.1661],[42.2204,13.606,0.2334],[42.2168,13.6062,0.1327],[42.2176,13.6038,0.2051],[42.2146,13.6029,0.0],[42.214,13.6062,0.0],[42.2088,13.6062,0.4307],[42.1996,13.6099,0.1979],[42.2001,13.604,0.0],[42.2054,13.5943,1.3815],[42.219,13.584,0.3301],[42.2268,13.5721,1.6543],[42.2335,13.5665,1.0281],[42.2363,13.5613,1.1521],[42.236,13.5582,0.4459],[42.2299,13.5574,0.0],[42.2285,13.5549,0.2818],[42.2337,13.5499,0.0],[42.2385,13.5482,0.3434],[42.2337,13.5443,0.2782],[42.2315,13.5443,1.3981],[42.2268,13.5499,0.582],[42.2274,13.5521,0.0],[42.2249,13.5582,0.0],[42.221,13.5635,0.2118],[42.2179,13.5626,0.0],[42.2174,13.5646,0.0],[42.2126,13.5654,0.9794],[42.1943,13.5838,0.5181],[42.1968,13.591,0.7483],[42.1901,13.5985,0.437],[42.1907,13.6046,0.2533],[42.1843,13.6049,1.1939],[42.1815,13.6112,0.0],[42.1768,13.6135,0.4747],[42.176,13.6187,0.9521],[42.1718,13.624,0.0],[42.1615,13.6324,1.6776],[42.1626,13.6363,0.0],[42.1563,13.6368,0.6998],[42.1576,13.6382,0.0],[42.166,13.6371,0.0],[42.1651,13.6393,0.0],[42.1579,13.6396,0.0],[42.1454,13.6499,1.1049],[42.1429,13.6488,0.0],[42.1429,13.6463,2.1642],[42.1351,13.6454,2.8056],[42.1332,13.6471,0.0],[42.1312,13.6465,0.0],[42.1318,13.644,1.2582],[42.1265,13.6446,0.0],[42.1243,13.6424,0.0],[42.1243,13.6388,0.0],[42.121,13.6363,2.7516],[42.1157,13.6354,1.11],[42.1118,13.6368,0.3034],[42.1079,13.6438,0.0],[42.104,13.6454,0.0],[42.1046,13.6512,0.0],[42.1013,13.656,0.0],[42.1024,13.664,0.0],[42.0968,13.6674,0.0],[42.0949,13.6704,0.6375],[42.0921,13.6824,2.9533],[42.0832,13.6946,5.151],[42.0849,13.6963,0.0],[42.0846,13.6996,0.0],[42.079,13.7032,1.8028],[42.0765,13.7082,0.6408],[42.0815,13.7115,1.2797],[42.0807,13.7174,0.0],[42.0721,13.7221,0.0],[42.0696,13.7215,1.7391],[42.0693,13.7254,1.9209],[42.0643,13.7288,0.0],[42.0607,13.7296,0.0],[42.0543,13.7282,3.1101],[42.0524,13.7299,2.467],[42.0485,13.7382,0.0],[42.0446,13.741,2.1771],[42.0435,13.7479,0.0],[42.039,13.7529,0.0],[42.0376,13.7665,1.2251],[42.0332,13.7682,2.8737],[42.0324,13.7732,3.202],[42.0226,13.7685,1.0541],[42.019,13.7699,1.2636],[42.0168,13.7738,0.0],[42.0124,13.774,0.0],[42.0104,13.7785,2.4423],[42.0101,13.7885,0.0],[42.0049,13.7935,3.702],[42.0046,13.8015,0.0],[42.0071,13.8046,0.0],[42.0071,13.8076,0.0],[42.0026,13.8096,2.582],[42.0029,13.8168,3.3954],[42.0013,13.8224,0.0],[41.999,13.8238,0.0],[41.9943,13.8232,0.0],[41.9935,13.8218,2.644],[41.99,13.8229,0.0],[41.979,13.7771,20.1039],[41.9802,13.7472,49.9564],[41.9758,13.7168,99.1289],[41.9675,13.6804,123.6411],[41.9611,13.6425,162.1793],[41.9538,13.6139,201.7891],[41.9504,13.6042,218.0026],[41.9442,13.5952,214.1255],[41.9235,13.588,244.3681],[41.9193,13.5844,243.7133],[41.917,13.5747,264.5095],[41.9183,13.5623,275.5363],[41.9304,13.5319,337.2349],[41.932,13.5217,291.0302],[41.9329,13.511,321.3369],[41.93,13.4939,306.0674],[41.9294,13.4696,316.6373],[41.9218,13.4542,314.9662],[41.909,13.4383,354.6729],[41.8668,13.4075,456.702],[41.8522,13.3933,560.4993],[41.8499,13.3815,581.6689],[41.8531,13.3585,459.0834],[41.8528,13.3371,468.0596],[41.8443,13.3163,495.7479],[41.8305,13.2964,550.0389],[41.8202,13.2774,552.8585],[41.8169,13.2663,565.1948],[41.8091,13.2236,527.1858],[41.805,13.227,542.0175],[41.783,13.1792,464.9407],[41.8787,13.0896,261.6284],[41.9305,13.0292,350.2357],[41.9726,12.9832,397.9279],[41.9978,12.9349,485.9644],[42.0102,12.9207,489.6459],[42.0427,12.8553,473.5349],[42.0502,12.8431,489.4628],[42.0954,12.7935,474.4967],[42.0964,12.7834,476.5353],[42.1135,12.764,475.6644],[42.1357,12.7459,478.1878],[42.196,12.6719,533.3016],[42.219,12.6404,555.587],[42.2424,12.6156,482.1439],[42.2803,12.5564,537.0103],[42.3097,12.5212,690.0854],[42.3353,12.4795,1016.0027],[42.341,12.4641,821.4362],[42.3548,12.4449,581.3817],[42.3525,12.4395,555.2482],[42.3963,12.4556,1555.7806],[42.4186,12.482,1171.6268],[42.4657,12.5279,689.8483],[42.4816,12.5191,729.6805],[42.4991,12.5135,723.2773],[42.5117,12.5063,674.5251],[42.5351,12.4975,601.0729],[42.5493,12.4897,561.5702],[42.5917,12.458,499.7268],[42.6452,12.3987,495.6495],[42.7009,12.357,472.975],[42.7038,12.3586,479.8862],[42.7028,12.3624,480.0531],[42.6995,12.3655,473.449],[42.7014,12.3713,443.3952],[42.7104,12.3778,445.3352],[42.7162,12.385,435.0768],[42.7226,12.3859,443.7785],[42.7348,12.3818,414.5749],[42.7467,12.3855,416.1103],[42.752,12.3914,402.1106],[42.7515,12.3987,395.4095],[42.7574,12.4014,394.8731],[42.7616,12.407,400.2513],[42.7636,12.413,392.791],[42.7881,12.4176,362.7714],[42.8029,12.417,343.7368],[42.8149,12.4256,334.1284]]],
[[[42.5879,13.1718,0.8187],[42.5815,13.1721,0.0],[42.5818,13.1668,0.0],[42.5849,13.1621,0.4066],[42.5932,13.1571,0.1365],[42.5949,13.1596,0.0],[42.5946,13.1635,0.0],[42.5879,13.1718,0.8187]]],
[[[42.5687,13.1876,0.0],[42.5665,13.1896,0.1584],[42.5674,13.1879,0.171],[42.5682,13.1874,0.0],[42.5687,13.1876,0.0]]],
[[[42.5704,13.2018,0.0],[42.5687,13.2026,0.0],[42.5738,13.1971,0.0],[42.5746,13.1857,0.0],[42.5765,13.1854,0.0],[42.5765,13.1946,0.0],[42.5704,13.2018,0.0]]],
[[[42.4987,13.1935,0.0],[42.4993,13.1943,0.0],[42.499,13.1965,0.0],[42.4968,13.1957,0.0],[42.4987,13.1935,0.0]]],
[[[42.5671,13.2035,0.0],[42.5687,13.2026,0.0],[42.5646,13.2085,0.0],[42.5607,13.209,0.0],[42.5624,13.2068,0.0],[42.5671,13.2035,0.0]]],
[[[42.6499,13.3551,0.0],[42.6501,13.3568,0.0],[42.649,13.3576,0.0],[42.649,13.3538,0.0],[42.6499,13.3551,0.0]]],
[[[42.5504,13.4104,0.0],[42.5504,13.4112,0.0],[42.5474,13.4112,3.364],[42.5482,13.4101,0.0],[42.5504,13.4104,0.0]]],
[[[42.1876,13.6101,0.0],[42.1857,13.6112,0.0],[42.1849,13.6096,0.0],[42.1871,13.6065,0.0],[42.1918,13.6074,0.0],[42.1913,13.6088,0.0],[42.1876,13.6101,0.0]]],
[[[42.2096,13.6149,0.0],[42.2115,13.6154,0.0],[42.2113,13.6168,0.0],[42.2085,13.6168,0.0],[42.2079,13.619,0.0],[42.206,13.619,0.0],[42.2032,13.6157,0.0],[42.2113,13.6079,0.0],[42.2129,13.6099,0.0],[42.2096,13.6149,0.0]]],
[[[42.2132,13.614,0.0],[42.2151,13.6154,0.0],[42.211,13.6149,0.0],[42.2129,13.6146,0.0],[42.2129,13.6129,0.0],[42.2132,13.614,0.0]]],
[[[42.2137,13.6218,0.0],[42.2135,13.6235,0.0],[42.2121,13.621,0.0],[42.2132,13.6187,0.0],[42.2137,13.6193,0.0],[42.2126,13.621,0.0],[42.2137,13.6218,0.0]]],
[[[42.2129,13.6163,0.0],[42.2151,13.616,0.0],[42.216,13.6176,0.2375],[42.2118,13.6174,0.0],[42.2129,13.6163,0.0]]],
[[[42.2207,13.6368,0.0],[42.2218,13.6374,0.5447],[42.2221,13.6393,0.1482],[42.2193,13.6379,0.0],[42.2207,13.6368,0.0]]],
[[[42.1838,13.6296,0.0],[42.1824,13.6304,0.0],[42.184,13.6243,0.0],[42.1879,13.6246,0.0],[42.1879,13.6265,0.0],[42.1838,13.6296,0.0]]],
[[[42.1796,13.6285,0.0],[42.1796,13.631,0.0],[42.1768,13.629,0.0],[42.1779,13.6265,0.0],[42.1796,13.6268,0.0],[42.1796,13.6285,0.0]]],
[[[42.1543,13.6504,0.0],[42.154,13.6521,0.0],[42.1512,13.6507,0.0],[42.1504,13.6474,0.0],[42.1518,13.6471,0.0],[42.1543,13.6504,0.0]]],
[[[42.1496,13.6649,2.0505],[42.1449,13.666,0.0],[42.1418,13.6638,0.0],[42.1415,13.6607,0.0],[42.1465,13.6512,0.0],[42.1524,13.6621,0.5354],[42.1496,13.6649,2.0505]]],
[[[42.1815,13.6693,0.0],[42.1818,13.6707,0.0],[42.1793,13.6699,10.2264],[42.1807,13.6676,0.0],[42.1815,13.6693,0.0]]],
[[[42.2132,13.6765,11.0656],[42.209,13.6776,0.0],[42.2062,13.6743,3.0904],[42.2068,13.6718,0.0],[42.209,13.6715,0.0],[42.2104,13.6693,0.0],[42.2193,13.6671,1.4187],[42.2193,13.6699,3.1858],[42.2132,13.6765,11.0656]]],
[[[42.1135,13.6832,0.0],[42.1126,13.6846,4.0194],[42.1104,13.684,0.0],[42.1104,13.681,0.8529],[42.1115,13.6807,0.0],[42.1135,13.6832,0.0]]],
[[[42.1563,13.7385,0.0],[42.1565,13.7396,0.0],[42.1546,13.7388,1.4999],[42.1549,13.7382,0.0],[42.1563,13.7385,0.0]]],
[[[42.149,13.7532,1.487],[42.1463,13.7543,0.0],[42.1457,13.7526,14.2839],[42.1479,13.7518,0.0],[42.149,13.7532,1.487]]],
[[[42.1649,13.7554,0.0],[42.1646,13.7568,0.0],[42.1624,13.7565,6.1118],[42.1632,13.7538,12.9487],[42.1649,13.7554,0.0]]]]}}