{"type":"Feature","properties":{"GID_2":"ERI.1.4_1","GID_0":"ERI","country":"Eritrea","GID_1":"ERI.1_1","province":"Maekel","NL_NAME_1":"ዞባማእከል","county":"Serejeka","VARNAME_2":"NA","NL_NAME_2":"NA","TYPE_2":"District","ENGTYPE_2":"District","CC_2":"NA","HASC_2":"ER.MA.SJ","name":"Serejeka.county"},
"geometry":{"type": "MultiPolygon","coordinates": [[[[38.737,15.5287,1896.5255],[38.7346,15.5281,1884.7722],[38.734,15.5256,1842.1356],[38.7356,15.5186,1822.5676],[38.7414,15.515,1788.6161],[38.7399,15.5105,1800.4749],[38.7476,15.4962,1827.447],[38.7586,15.4983,1969.8694],[38.7813,15.4744,2103.5955],[38.7884,15.4692,2124.6802],[38.793,15.4681,2115.5334],[38.7944,15.463,1928.283],[38.8022,15.4614,2156.2432],[38.808,15.4569,2164.5359],[38.8197,15.4408,2216.8423],[38.8215,15.4409,2205.5181],[38.8223,15.4444,2265.1921],[38.8358,15.443,2250.0508],[38.845,15.4498,2255.3049],[38.8575,15.4538,2326.667],[38.8649,15.4596,2334.075],[38.87,15.4586,2318.364],[38.8713,15.4465,2344.5122],[38.8747,15.4398,2354.0635],[38.879,15.4346,2346.5269],[38.8962,15.4211,2321.5225],[38.8983,15.4178,2353.9553],[38.8987,15.4093,2338.7217],[38.8936,15.401,2297.6814],[38.8936,15.3949,2307.7932],[38.896,15.381,2342.1633],[38.9033,15.3737,2347.4512],[38.9095,15.3714,2345.5513],[38.9106,15.385,2342.4375],[38.9176,15.398,2353.7749],[38.9349,15.4101,2399.6809],[38.9439,15.4114,2411.4602],[38.9552,15.4045,2242.2668],[38.9649,15.3895,2036.1089],[38.9676,15.3783,2379.3477],[38.9668,15.361,2414.2458],[38.9743,15.3413,2419.1108],[38.9801,15.3405,2358.3762],[38.9826,15.3385,2402.7595],[38.9869,15.343,2181.6655],[38.9944,15.3414,2199.3247],[39.0037,15.3277,1910.2063],[39.0147,15.3275,1884.4128],[39.0196,15.3249,1816.817],[39.0238,15.3253,1859.5647],[39.0289,15.3233,1840.79],[39.0322,15.3202,1812.618],[39.031,15.3152,1820.8848],[39.0366,15.3139,1856.0164],[39.0337,15.3262,1936.0366],[39.0267,15.3427,2160.1594],[39.0241,15.3443,2078.4841],[39.019,15.3432,2145.7446],[39.0178,15.3444,2140.0723],[39.0172,15.3489,2113.186],[39.021,15.3518,2084.8669],[39.0208,15.3561,1770.8248],[39.0031,15.3741,2323.5098],[38.9956,15.3768,2193.9912],[38.988,15.3739,1781.6089],[38.9841,15.3803,1664.9261],[38.9797,15.4005,1549.9259],[38.981,15.4132,1675.1359],[38.9841,15.4225,1447.7539],[38.9835,15.427,1509.9387],[38.9863,15.4335,1732.8667],[38.9844,15.4411,1738.6871],[38.9855,15.4589,2280.4121],[38.9756,15.4545,2128.3081],[38.9672,15.4561,1819.3936],[38.9631,15.4584,1859.7007],[38.9517,15.4712,2052.8538],[38.9383,15.4769,2208.4348],[38.9307,15.4821,2522.1213],[38.9291,15.4882,2538.9814],[38.9338,15.4953,2424.0283],[38.9275,15.5073,2214.9124],[38.9175,15.5155,2543.3994],[38.9165,15.5213,2552.272],[38.9181,15.5266,2441.6326],[38.9092,15.5422,2507.2434],[38.9062,15.5678,1840.8759],[38.8987,15.5759,2328.2483],[38.8946,15.5773,2384.3674],[38.8887,15.5825,2356.9653],[38.8869,15.5874,2276.4697],[38.8709,15.5695,2383.7124],[38.8668,15.5674,2452.3044],[38.8559,15.5711,2128.3567],[38.8422,15.584,2261.623],[38.8369,15.5854,2393.1235],[38.8342,15.5803,2423.2292],[38.8369,15.5601,2320.282],[38.8337,15.5537,2280.188],[38.8264,15.5477,2274.7854],[38.822,15.5468,2247.519],[38.8135,15.5509,2226.707],[38.8094,15.5488,2166.6392],[38.8038,15.5498,2159.5288],[38.7958,15.5429,2135.7271],[38.7855,15.5453,2125.3545],[38.7816,15.5407,2138.3552],[38.7757,15.5382,2116.5073],[38.775,15.5321,2048.7314],[38.7706,15.5296,1951.5132],[38.7645,15.5227,2182.8174],[38.7582,15.5226,2079.0269],[38.75,15.5279,2036.15],[38.7443,15.526,1924.382],[38.737,15.5287,1896.5255]]]]}}