{"type": "Feature","bbox": [38.2217,14.6762,38.6907,15.0997],"geometry": {"type": "MultiPolygon","coordinates": [[[[38.4733,15.0892,1245.1951],[38.4727,15.0627,1191.2405],[38.4649,15.0175,1568.6613],[38.462,15.0096,1553.5652],[38.4561,15.004,1587.7617],[38.4344,14.9958,1535.5654],[38.4228,14.9959,1510.5388],[38.4143,14.9939,1631.4463],[38.4091,14.9896,1583.2358],[38.3974,14.9743,1497.4303],[38.3896,14.9707,1567.823],[38.3679,14.9651,1588.6572],[38.3539,14.9486,1582.0013],[38.3222,14.9335,1375.7522],[38.3133,14.9214,1288.3781],[38.3116,14.9208,1270.3691],[38.2943,14.9304,1296.3602],[38.2793,14.9346,1416.0618],[38.2692,14.9344,1296.5593],[38.2566,14.9318,1271.8051],[38.2486,14.9364,1238.9534],[38.2431,14.9375,1327.98],[38.2366,14.9265,1342.4779],[38.2271,14.9197,1282.8479],[38.2217,14.9123,1242.4918],[38.2236,14.9083,1239.1643],[38.228,14.9058,1186.3396],[38.2602,14.8958,1267.9031],[38.2698,14.8953,1363.9238],[38.2907,14.899,1274.4066],[38.3001,14.8965,1254.496],[38.3067,14.8899,1362.3555],[38.3147,14.8743,1294.3772],[38.3305,14.8655,1344.7324],[38.3415,14.8541,1480.5471],[38.3673,14.8444,1468.5121],[38.3864,14.8327,1577.0546],[38.4072,14.8239,1635.4092],[38.4123,14.818,1702.991],[38.412,14.7986,1830.3239],[38.4089,14.7848,1799.2389],[38.3754,14.7504,1583.97],[38.3642,14.7089,1336.0959],[38.3545,14.6941,1168.5872],[38.349,14.6918,1157.8082],[38.3509,14.6893,1153.2816],[38.3671,14.6866,1156.0193],[38.3736,14.688,1320.5686],[38.3838,14.6837,1160.7068],[38.4284,14.6762,1195.7699],[38.4424,14.6828,1200.574],[38.4577,14.6832,1226.9894],[38.4699,14.6854,1293.7021],[38.4923,14.6914,1255.1544],[38.5048,14.6966,1321.1864],[38.5154,14.6932,1318.1713],[38.5259,14.6954,1323.5161],[38.5427,14.6941,1338.0397],[38.5605,14.6984,1392.5004],[38.5668,14.7064,1391.8135],[38.5775,14.705,1350.866],[38.5823,14.7097,1385.2904],[38.5866,14.7104,1396.0095],[38.5992,14.7079,1490.1262],[38.6129,14.7185,1458.5291],[38.6161,14.7254,1433.8667],[38.6188,14.7383,1430.5868],[38.6192,14.7591,1507.8695],[38.6099,14.7922,1474.3152],[38.6099,14.7974,1468.5729],[38.6128,14.8025,1490.475],[38.6219,14.811,1579.1228],[38.633,14.8114,1688.2275],[38.6432,14.8138,1789.6135],[38.6586,14.8124,1639.6056],[38.6679,14.8204,1783.9746],[38.6832,14.8243,1620.9324],[38.6861,14.8267,1610.6643],[38.6849,14.8322,1624.6484],[38.6755,14.8372,1759.0898],[38.6617,14.8518,1784.5492],[38.6605,14.8536,1792.5906],[38.6612,14.8608,1841.0077],[38.6587,14.8683,1831.392],[38.6619,14.8732,1944.5184],[38.6689,14.8745,1930.3269],[38.6705,14.8771,1878.6504],[38.6683,14.8857,1884.8604],[38.6727,14.8939,1851.8192],[38.6698,14.9102,1925.9021],[38.6709,14.9429,1958.8944],[38.6907,14.9966,2160.6636],[38.6881,15.0128,2057.0913],[38.667,15.0168,1959.1855],[38.6526,15.0231,1714.4407],[38.6387,15.0271,1555.5863],[38.6353,15.0312,1558.8826],[38.6316,15.044,1683.8142],[38.6194,15.056,1671.8682],[38.5927,15.0735,1501.2405],[38.5534,15.0931,1283.5415],[38.5375,15.097,1277.7828],[38.5059,15.0997,1323.9847],[38.5005,15.0991,1244.6071],[38.4825,15.0913,1245.4309],[38.4733,15.0892,1245.1951]]]]}
,"properties": {"GID_2": "ERI.5.3_1","GID_0": "ERI","country": "Eritrea","GID_1": "ERI.5_1","province": "Debub","NL_NAME_1": "ዞባደቡብ","county": "Areza","VARNAME_2": "NA","NL_NAME_2": "NA","TYPE_2": "District","ENGTYPE_2": "District","CC_2": "NA","HASC_2": "ER.SR.AR","name": "Areza.county","area_km2": 1261.7433,"hist_schema_id": "Elevation0-9000","hist_area_km2": {"1150": 2.7658,"1175": 11.3525,"1200": 19.8167,"1225": 24.4857,"1250": 28.2969,"1275": 30.7389,"1300": 29.8388,"1325": 30.1258,"1350": 33.7944,"1375": 32.8312,"1400": 32.8521,"1425": 38.0355,"1450": 40.6572,"1475": 45.3278,"1500": 57.0458,"1525": 62.8632,"1550": 58.337,"1575": 52.3553,"1600": 49.5492,"1625": 41.6413,"1650": 38.9571,"1675": 35.125,"1700": 31.6206,"1725": 30.3084,"1750": 28.9758,"1775": 29.1394,"1800": 27.7241,"1825": 26.3101,"1850": 25.12,"1875": 30.4455,"1900": 33.7009,"1925": 30.156,"1950": 28.3942,"1975": 27.5542,"2000": 24.9522,"2025": 21.6537,"2050": 18.1917,"2075": 15.9798,"2100": 10.5917,"2125": 7.4573,"2150": 5.5522,"2175": 4.7114,"2200": 4.4242,"2225": 1.7615,"2250": 0.1843,"2275": 0.041}}}