{"type": "Feature","bbox": [37.9654,16.7196,39.0607,18.0067],"geometry": {"type": "MultiPolygon","coordinates": [[[[38.0153,16.8801,591.2549],[38.0411,16.8898,644.1754],[38.0572,16.8918,800.8448],[38.0785,16.9048,644.6314],[38.1292,16.9218,916.6973],[38.14,16.9281,810.9844],[38.1464,16.935,746.2313],[38.1524,16.9562,694.0696],[38.1821,16.9962,785.2454],[38.2137,17.0337,819.596],[38.2237,17.0435,953.488],[38.2385,17.0532,938.5018],[38.2613,17.0595,1016.499],[38.2918,17.0583,1160.7251],[38.3227,17.0685,1646.5048],[38.3844,17.0798,1350.8512],[38.4132,17.0834,1012.2474],[38.4364,17.0796,1128.9255],[38.4613,17.0678,1306.2439],[38.4863,17.0353,1036.7871],[38.5009,17.0004,1446.0687],[38.5012,16.9964,1611.3063],[38.4951,16.9668,1648.5831],[38.495,16.9466,1624.2865],[38.4974,16.9299,1384.8889],[38.51,16.9054,1693.0881],[38.5125,16.8835,1441.8525],[38.5167,16.8718,1558.6404],[38.5389,16.8413,1613.199],[38.5465,16.8264,1644.1472],[38.5433,16.7741,1759.2831],[38.5508,16.7653,1477.9102],[38.5601,16.76,1223.8693],[38.5723,16.7474,1187.8301],[38.5914,16.7196,856.7391],[38.6033,16.7285,1031.5129],[38.6175,16.744,919.4895],[38.6329,16.7566,1102.314],[38.6736,16.7865,523.6104],[38.6958,16.8139,618.0685],[38.7289,16.8445,532.1544],[38.7702,16.8719,271.7279],[38.7981,16.8818,196.9195],[38.8139,16.8841,177.6091],[38.8316,16.8844,168.5486],[38.8687,16.8736,135.3075],[38.8829,16.8731,121.4319],[38.9253,16.8823,88.897],[38.9396,16.8869,77.7971],[38.9794,16.888,52.727],[39.0081,16.8989,28.8093],[39.0469,16.9094,7.5822],[39.0607,16.9229,0.2346],[39.059,16.9318,0.0],[39.0537,16.9404,0.6272],[39.0554,16.9488,0.0],[39.0501,16.9593,0.0],[39.0493,16.9649,0.0],[39.0426,16.9765,0.0],[39.0429,17.0007,0.0],[39.0379,17.0101,7.0593],[39.0357,17.0215,0.0],[39.0313,17.0301,0.0],[39.0274,17.0449,0.0],[39.0246,17.0471,0.0],[39.0218,17.064,2.3315],[39.0199,17.0671,3.6497],[39.0182,17.0818,0.0],[39.0146,17.0915,0.0],[39.0149,17.096,0.0],[39.0076,17.111,1.7969],[39.0051,17.1282,6.0831],[38.9985,17.1413,0.0],[38.9974,17.1612,0.0],[38.9993,17.1746,0.4497],[38.9965,17.1929,0.0],[38.9924,17.2001,2.4068],[38.9735,17.2143,0.265],[38.9696,17.2218,4.0937],[38.9674,17.2357,1.6419],[38.9685,17.2551,2.8719],[38.9663,17.2746,1.3221],[38.9562,17.306,0.0],[38.9532,17.311,0.0],[38.9454,17.3179,1.5213],[38.9421,17.3246,0.7591],[38.939,17.369,1.1542],[38.9362,17.3779,0.0],[38.9296,17.3885,1.2364],[38.9299,17.3924,0.0],[38.9274,17.3935,1.3448],[38.9224,17.4174,0.0],[38.9185,17.4232,0.4154],[38.9157,17.4318,0.0],[38.9099,17.4385,2.0505],[38.9024,17.4529,2.3024],[38.9001,17.4621,1.5305],[38.8926,17.4746,0.6144],[38.8904,17.4826,0.0],[38.8713,17.5032,1.3416],[38.8674,17.5107,0.3096],[38.8629,17.5154,1.6432],[38.8532,17.5438,1.779],[38.8513,17.5563,0.0],[38.8393,17.5821,0.0],[38.8285,17.5968,1.5886],[38.8229,17.6015,0.76],[38.8213,17.6137,0.8436],[38.8163,17.616,0.8368],[38.816,17.6204,1.3687],[38.8115,17.6246,1.3973],[38.811,17.6282,0.8525],[38.8076,17.6285,0.6063],[38.8071,17.6318,0.8528],[38.8054,17.6299,0.1876],[38.806,17.6268,0.7961],[38.8035,17.6285,1.6323],[38.8013,17.6338,0.1952],[38.7985,17.6357,0.6807],[38.801,17.641,0.8586],[38.8007,17.6457,0.3864],[38.7921,17.6601,0.4761],[38.7851,17.6671,1.6984],[38.776,17.6801,1.1728],[38.7676,17.686,3.0881],[38.7546,17.7113,0.0],[38.7382,17.7346,0.0],[38.7315,17.7401,2.3469],[38.7274,17.7401,2.3145],[38.7251,17.7421,0.0],[38.7251,17.7446,0.5544],[38.7274,17.7463,1.2547],[38.7271,17.7496,0.7513],[38.7212,17.7607,1.052],[38.7088,17.774,0.0],[38.7001,17.7804,0.0],[38.6918,17.796,0.0],[38.6729,17.8196,0.0],[38.6721,17.826,1.4431],[38.664,17.8415,0.0],[38.6571,17.8493,0.871],[38.6515,17.8632,0.9026],[38.6468,17.8674,0.6233],[38.6457,17.8918,0.0],[38.6426,17.8982,1.8715],[38.6424,17.9037,0.792],[38.6368,17.9101,2.351],[38.6329,17.9179,0.468],[38.6226,17.9193,0.3427],[38.6151,17.9182,0.6746],[38.6149,17.9263,0.0],[38.6087,17.926,1.2408],[38.6065,17.9276,0.0],[38.6046,17.9307,1.0927],[38.6099,17.9332,2.5627],[38.6104,17.9351,4.0244],[38.6076,17.9376,0.509],[38.6046,17.9368,2.7321],[38.6029,17.9387,0.948],[38.6018,17.9421,1.5949],[38.6035,17.9438,0.0],[38.5999,17.949,2.0537],[38.5996,17.9529,1.4119],[38.594,17.9565,1.3853],[38.5951,17.9618,0.0],[38.5887,17.9632,1.4784],[38.5868,17.9676,0.0],[38.5821,17.9682,0.6938],[38.5726,17.981,1.7787],[38.5754,17.9865,0.6628],[38.5693,17.9868,2.3984],[38.5674,17.989,0.0],[38.5671,18.0004,2.0543],[38.5699,18.0065,0.113],[38.5644,18.0031,1.9649],[38.4524,17.8983,95.7492],[38.39,17.756,138.4341],[38.3876,17.7319,150.6466],[38.3649,17.6859,174.3672],[38.3508,17.6618,259.7825],[38.3483,17.6541,534.9067],[38.3417,17.6496,409.6199],[38.299,17.6393,1200.6002],[38.2882,17.6334,1267.2993],[38.2804,17.6254,1352.2544],[38.2757,17.5927,950.5873],[38.2727,17.585,1010.1925],[38.2664,17.5762,1191.9712],[38.2648,17.5651,1358.7356],[38.2601,17.5586,1297.934],[38.2435,17.5543,1422.553],[38.2315,17.5559,1587.1735],[38.2124,17.5631,2033.2949],[38.1951,17.5451,2362.8547],[38.1894,17.5652,1908.6919],[38.1807,17.5792,1754.2957],[38.1766,17.5819,1726.0144],[38.1662,17.573,1547.0165],[38.1303,17.5731,1369.1938],[38.1124,17.5629,1805.4276],[38.1089,17.5589,1900.4952],[38.1064,17.5331,1760.9216],[38.1013,17.5224,2219.729],[38.1032,17.4954,1695.3853],[38.1072,17.4846,1326.9712],[38.1066,17.4805,1194.4666],[38.0898,17.4827,1666.229],[38.0707,17.482,2422.6216],[38.0676,17.5523,2578.9634],[38.0616,17.5636,2612.0989],[38.0568,17.5647,2605.7302],[38.041,17.5538,2481.4856],[38.0256,17.5491,2583.3765],[38.0184,17.5491,2604.4019],[38.0122,17.5536,2578.5293],[38.0194,17.5209,2468.7471],[38.0191,17.5052,2312.8281],[38.0245,17.4673,2326.5217],[38.0211,17.455,2304.7249],[38.0063,17.4261,1325.6724],[38.0043,17.4115,1868.1124],[38.0172,17.3802,2414.2373],[38.0221,17.3597,2423.0479],[38.0263,17.312,2279.9268],[38.0343,17.2827,2102.853],[38.0416,17.267,1904.7202],[38.0474,17.2428,2016.9506],[38.0489,17.2317,2180.2251],[38.0481,17.2102,1414.4465],[38.0424,17.1824,1946.9912],[38.037,17.1432,1930.4858],[38.0287,17.1295,1385.5457],[38.0303,17.1081,1256.2534],[38.0291,17.1022,1172.761],[38.0177,17.0777,983.0416],[38.0032,17.0648,1373.5068],[37.9893,17.0451,979.1572],[37.9741,17.0139,903.7043],[37.9654,16.9763,544.1218],[37.9655,16.9702,523.9474],[37.9804,16.9303,578.0323],[37.9863,16.9215,529.4499],[37.9989,16.9107,553.1683],[38.0089,16.898,571.6112],[38.0153,16.8801,591.2549]]],
[[[38.6157,17.936,0.1338],[38.614,17.9354,0.4473],[38.614,17.9337,0.0],[38.6165,17.9343,1.2234],[38.6157,17.936,0.1338]]],
[[[38.5701,18.0067,0.113],[38.5701,18.0067,0.113],[38.5699,18.0065,0.113],[38.5701,18.0065,0.113],[38.5701,18.0067,0.113]]]]}
,"properties": {"GID_2": "ERI.2.5_1","GID_0": "ERI","country": "Eritrea","GID_1": "ERI.2_1","province": "SemenawiKeyihBahri","NL_NAME_1": "ዞባሰሜናዊቀይሕባሕሪ","county": "Karora","VARNAME_2": "NA","NL_NAME_2": "NA","TYPE_2": "District","ENGTYPE_2": "District","CC_2": "NA","HASC_2": "ER.SA.KA","name": "Karora.county","area_km2": 8745.763,"hist_schema_id": "Elevation0-9000","hist_area_km2": {"0": 475.998,"25": 456.498,"50": 409.522,"75": 417.66,"100": 379.286,"125": 364.431,"150": 319.899,"175": 320.296,"200": 295.17,"225": 258.92,"250": 228.392,"275": 207.276,"300": 206.375,"325": 187.498,"350": 143.119,"375": 113.427,"400": 84.321,"425": 65.563,"450": 55.143,"475": 45.102,"500": 42.228,"525": 44.89,"550": 66.33,"575": 84.68,"600": 95.663,"625": 115.374,"650": 120.304,"675": 108.414,"700": 108.547,"725": 95.885,"750": 87.358,"775": 86.51,"800": 93.989,"825": 98.967,"850": 103.585,"875": 103.459,"900": 100.558,"925": 100.372,"950": 101.323,"975": 99.351,"1000": 96.65,"1025": 89.46,"1050": 84.924,"1075": 80.997,"1100": 78.868,"1125": 76.965,"1150": 71.21,"1175": 64.526,"1200": 63.554,"1225": 60.818,"1250": 56.844,"1275": 54.539,"1300": 50.873,"1325": 48.258,"1350": 46.943,"1375": 41.492,"1400": 39.083,"1425": 36.245,"1450": 34.301,"1475": 33.755,"1500": 32.114,"1525": 30.878,"1550": 30.982,"1575": 30.78,"1600": 29.912,"1625": 28.07,"1650": 27.888,"1675": 26.41,"1700": 23.777,"1725": 22.014,"1750": 21.59,"1775": 19.137,"1800": 18.063,"1825": 16.725,"1850": 14.982,"1875": 14.031,"1900": 14.576,"1925": 11.64,"1950": 11.497,"1975": 10.404,"2000": 10.14,"2025": 9.027,"2050": 8.115,"2075": 7.811,"2100": 6.677,"2125": 7.568,"2150": 7.082,"2175": 8.013,"2200": 6.88,"2225": 7.406,"2250": 7.284,"2275": 9.914,"2300": 10.924,"2325": 13.048,"2350": 13.25,"2375": 13.109,"2400": 13.432,"2425": 12.723,"2450": 10.761,"2475": 9.648,"2500": 5.502,"2525": 3.661,"2550": 2.609,"2575": 1.962,"2600": 1.193,"2625": 0.465,"2650": 0.101}}}