{"type":"Feature","properties":{"GID_2":"ERI.5.9_1","GID_0":"ERI","country":"Eritrea","GID_1":"ERI.5_1","province":"Debub","NL_NAME_1":"ዞባደቡብ","county":"Segeneyiti","VARNAME_2":"Segheneyti","NL_NAME_2":"NA","TYPE_2":"District","ENGTYPE_2":"District","CC_2":"NA","HASC_2":"ER.AG.SG","name":"Segeneyiti.county"},
"geometry":{"type": "MultiPolygon","coordinates": [[[[39.3353,15.1128,2089.8499],[39.3235,15.118,2291.644],[39.3216,15.1198,2320.7573],[39.3185,15.1314,2380.2029],[39.3115,15.1364,2381.3923],[39.304,15.1362,2375.3408],[39.2824,15.1232,1794.3221],[39.2748,15.1233,1752.652],[39.2672,15.1274,1896.5204],[39.2619,15.1374,1747.3022],[39.2656,15.1563,1837.1028],[39.2596,15.1599,1802.6942],[39.2656,15.1692,1657.5797],[39.2648,15.1711,1633.4707],[39.2583,15.1733,1606.8322],[39.2432,15.1735,1655.307],[39.2312,15.1814,1822.0391],[39.2183,15.1977,1884.7704],[39.2125,15.2114,1520.9769],[39.2023,15.229,1442.0654],[39.1898,15.2432,1337.5269],[39.1787,15.2268,1279.6624],[39.1701,15.1843,1520.9402],[39.1631,15.1802,1508.8737],[39.1541,15.1652,1487.9796],[39.135,15.1411,1645.0878],[39.1274,15.1258,1719.1307],[39.123,15.1081,1788.2622],[39.1223,15.0673,2248.5122],[39.1197,15.0525,2145.9167],[39.0977,15.0206,2061.7942],[39.0898,15.0055,2003.5984],[39.0786,14.9891,1958.6313],[39.0721,14.9689,1901.6653],[39.0751,14.9482,1899.7899],[39.0806,14.9347,1784.4756],[39.0909,14.8887,1804.1893],[39.116,14.83,1553.3513],[39.1291,14.8294,1685.7877],[39.1387,14.8315,1671.3063],[39.1457,14.8428,1659.4614],[39.1652,14.8608,1826.1001],[39.2007,14.8751,1827.4794],[39.2376,14.8823,1909.3053],[39.2678,14.8828,1870.4277],[39.2831,14.887,2013.0493],[39.2848,14.8892,2058.563],[39.2864,14.9114,2005.8965],[39.2947,14.9244,2102.3408],[39.2948,14.9271,2104.2764],[39.2898,14.937,2062.3311],[39.2857,14.9405,2054.7246],[39.2781,14.9431,2019.6453],[39.2757,14.9497,2016.7745],[39.2883,14.9647,2041.26],[39.3061,15.0114,2565.0063],[39.3178,15.0488,2137.2839],[39.3288,15.0939,2766.4517],[39.3353,15.1128,2089.8499]]]]}}