{"type": "Feature","bbox": [37.8481,15.176,38.5684,15.8671],"geometry": {"type": "MultiPolygon","coordinates": [[[[37.9753,15.8224,1469.3264],[37.9717,15.8267,1506.3746],[37.96,15.8322,1059.6373],[37.9469,15.8354,937.5958],[37.9392,15.8484,920.3853],[37.9347,15.8521,896.8293],[37.9071,15.8655,848.8601],[37.8942,15.8671,826.4512],[37.8871,15.8661,766.1581],[37.8698,15.8547,756.6616],[37.8561,15.8553,698.2407],[37.8481,15.8579,714.1611],[37.8625,15.7846,730.1013],[37.8515,15.7435,721.1448],[37.8505,15.7357,727.1246],[37.8518,15.7152,728.7274],[37.8589,15.6892,685.6812],[37.8698,15.6606,652.8507],[37.8763,15.6565,644.9282],[37.9095,15.6603,658.6631],[37.9337,15.6553,699.4688],[37.9531,15.6446,774.8969],[37.981,15.6253,650.9946],[37.987,15.6188,642.7238],[38.002,15.5933,674.2697],[38.0053,15.5901,674.092],[38.0113,15.5885,812.7445],[38.0525,15.5881,682.4426],[38.0587,15.5868,687.6954],[38.0624,15.5786,687.037],[38.0558,15.5398,649.0037],[38.0516,15.5289,640.352],[38.0459,15.521,658.3658],[38.0308,15.5121,660.021],[38.0258,15.5056,669.6776],[38.0213,15.494,692.2632],[38.0132,15.4875,779.5551],[38.0046,15.4836,882.3351],[37.9351,15.4636,773.2279],[37.9512,15.4464,841.8456],[37.9608,15.4329,957.4108],[37.975,15.4228,760.7719],[37.9779,15.4108,748.9542],[37.9858,15.4051,768.3129],[37.9916,15.3976,767.9249],[37.9964,15.3866,784.7389],[37.9996,15.3702,784.7982],[37.9973,15.3558,800.441],[37.9895,15.3413,795.8118],[37.9878,15.3314,807.6752],[37.9891,15.3149,783.1619],[37.9915,15.3076,814.3302],[37.998,15.2976,826.8249],[38.0228,15.2789,860.7871],[38.0312,15.2598,950.3292],[38.0342,15.2414,945.9619],[38.0305,15.2202,965.2148],[38.0269,15.2081,948.067],[38.012,15.1848,1038.3926],[38.0086,15.176,1045.9629],[38.0151,15.1761,1123.2461],[38.0263,15.1796,1042.9658],[38.0333,15.1788,1067.198],[38.0529,15.181,1020.2419],[38.0579,15.1834,1019.3553],[38.0658,15.1956,964.9901],[38.0801,15.1991,1004.7145],[38.0985,15.2001,949.2363],[38.1049,15.2115,971.6183],[38.1238,15.2189,983.5062],[38.1617,15.2521,881.2742],[38.178,15.2573,902.0309],[38.1995,15.256,1059.7867],[38.2273,15.2501,911.7922],[38.3,15.2212,900.4486],[38.3148,15.2177,973.0032],[38.3677,15.2211,887.3234],[38.4084,15.2174,1041.7651],[38.417,15.2182,962.373],[38.4311,15.2229,990.1621],[38.4474,15.231,971.0223],[38.4614,15.2555,983.795],[38.4692,15.265,1004.9175],[38.486,15.2698,1188.0762],[38.513,15.2726,1233.8512],[38.5194,15.2784,1141.6937],[38.533,15.297,1120.677],[38.5489,15.3342,1205.7271],[38.5575,15.3728,1339.8094],[38.5633,15.428,1222.0975],[38.5684,15.4571,1491.4988],[38.5655,15.4742,1776.2898],[38.5503,15.4855,1621.5198],[38.5399,15.5063,1276.2878],[38.5123,15.5452,1293.8685],[38.5065,15.5464,972.6154],[38.4995,15.5539,945.7168],[38.4859,15.5618,928.9732],[38.482,15.5596,1088.3081],[38.4736,15.5586,1240.399],[38.4527,15.5685,890.8015],[38.4415,15.5791,854.7234],[38.436,15.5811,852.0758],[38.4297,15.5793,857.1432],[38.4259,15.5801,858.7824],[38.4194,15.5882,839.0196],[38.4078,15.5921,832.8857],[38.3978,15.5929,828.654],[38.3773,15.601,815.5369],[38.3272,15.6363,838.2662],[38.3187,15.6412,842.4064],[38.3116,15.643,850.5084],[38.2867,15.6426,837.6554],[38.2353,15.6309,848.3487],[38.1906,15.6299,847.0964],[38.1681,15.6315,869.5928],[38.1604,15.6335,950.4756],[38.1562,15.6359,972.8047],[38.1492,15.6449,873.5087],[38.1457,15.6528,771.7815],[38.1439,15.6746,753.7314],[38.1475,15.689,761.6978],[38.1534,15.6921,767.0587],[38.1586,15.6998,777.1547],[38.1651,15.7041,809.6071],[38.1778,15.7077,819.7946],[38.1826,15.7136,810.6494],[38.1797,15.7336,833.6078],[38.1675,15.7513,841.175],[38.1553,15.7632,830.8844],[38.1414,15.7705,822.2343],[38.1323,15.774,870.3419],[38.1172,15.774,799.3484],[38.0797,15.7599,1050.6212],[38.0579,15.7483,794.7687],[38.0461,15.7387,802.5547],[38.0406,15.7389,928.3882],[38.0351,15.7473,1302.0332],[38.0248,15.7788,1616.2926],[38.0142,15.8009,1780.9954],[37.9945,15.8023,1488.2059],[37.9909,15.8042,1475.6787],[37.9823,15.8166,1263.1138],[37.9753,15.8224,1469.3264]]]]}
,"properties": {"GID_2": "ERI.4.9_1","GID_0": "ERI","country": "Eritrea","GID_1": "ERI.4_1","province": "GashBarka","NL_NAME_1": "ዞባጋሽባርካ","county": "Mansura","VARNAME_2": "Mensura","NL_NAME_2": "NA","TYPE_2": "District","ENGTYPE_2": "District","CC_2": "NA","HASC_2": "ER.BA.MA","name": "Mansura.county","area_km2": 3046.606,"hist_schema_id": "Elevation0-9000","hist_area_km2": {"625": 0.041,"650": 31.554,"675": 112.759,"700": 199.295,"725": 293.808,"750": 348.58,"775": 338.425,"800": 260.109,"825": 196.802,"850": 194.542,"875": 184.991,"900": 161.113,"925": 131.172,"950": 94.642,"975": 67.472,"1000": 51.32,"1025": 45.451,"1050": 38.521,"1075": 32.082,"1100": 28.3,"1125": 23.802,"1150": 19.224,"1175": 18.447,"1200": 17.303,"1225": 16.016,"1250": 15.342,"1275": 14.954,"1300": 14.566,"1325": 11.788,"1350": 10.643,"1375": 8.355,"1400": 7.231,"1425": 5.985,"1450": 5.27,"1475": 4.963,"1500": 4.452,"1525": 4.309,"1550": 3.533,"1575": 3.614,"1600": 3.614,"1625": 3.266,"1650": 3.348,"1675": 3.47,"1700": 3.083,"1725": 2.185,"1750": 2.062,"1775": 1.287,"1800": 1.246,"1825": 0.715,"1850": 0.429,"1875": 0.348,"1900": 0.245,"1925": 0.184,"1950": 0.102,"1975": 0.184}}}