{"type": "Feature","bbox": [38.6665,15.5226,38.8869,15.7139],"geometry": {"type": "MultiPolygon","coordinates": [[[[38.6964,15.6102,1848.9348],[38.7088,15.6048,1776.7394],[38.7144,15.5996,1746.0597],[38.7227,15.5854,1893.6124],[38.7252,15.5717,1908.1851],[38.7231,15.5451,1794.0259],[38.7239,15.539,1843.6573],[38.727,15.5353,1764.804],[38.737,15.5287,1896.5255],[38.7443,15.526,1924.382],[38.75,15.5279,2036.15],[38.7582,15.5226,2079.0269],[38.7663,15.5236,2125.854],[38.7706,15.5296,1951.5132],[38.775,15.5321,2048.7314],[38.7757,15.5382,2116.5073],[38.7816,15.5407,2138.3552],[38.7855,15.5453,2125.3545],[38.789,15.5455,2149.3418],[38.7943,15.5427,2104.1016],[38.7985,15.5439,2163.4604],[38.8038,15.5498,2159.5288],[38.8094,15.5488,2166.6392],[38.8146,15.5508,2229.9109],[38.8239,15.5466,2267.2878],[38.8305,15.5503,2256.1426],[38.8369,15.5601,2320.282],[38.8342,15.5803,2423.2292],[38.8369,15.5854,2393.1235],[38.8422,15.584,2261.623],[38.8582,15.5697,2087.4893],[38.8645,15.5674,2404.2512],[38.869,15.5681,2401.2212],[38.8869,15.5874,2276.4697],[38.881,15.5956,2021.6333],[38.8798,15.6013,1946.2017],[38.88,15.6243,1604.4116],[38.8825,15.6432,1486.8149],[38.8816,15.6473,1536.8076],[38.8591,15.6873,2022.7761],[38.8582,15.6954,2294.3374],[38.8611,15.7118,2073.6973],[38.8374,15.7112,1575.1835],[38.7978,15.7139,1483.6863],[38.7827,15.7126,1600.3098],[38.7672,15.7005,1953.25],[38.7267,15.6854,2261.0464],[38.6971,15.6685,1755.8311],[38.6744,15.6579,1936.6575],[38.6682,15.6533,1652.7426],[38.6665,15.6499,1624.769],[38.6678,15.6432,1626.262],[38.6794,15.6258,1743.2886],[38.6964,15.6102,1848.9348]]]]}
,"properties": {"GID_2": "ERI.6.1_1","GID_0": "ERI","country": "Eritrea","GID_1": "ERI.6_1","province": "Anseba","NL_NAME_1": "ዞባዓንሰባ","county": "AdiTeklezan","VARNAME_2": "NA","NL_NAME_2": "NA","TYPE_2": "District","ENGTYPE_2": "District","CC_2": "NA","HASC_2": "ER.AN.AT","name": "Adi_Teklezan.county","area_km2": 320.2246,"hist_schema_id": "Elevation0-9000","hist_area_km2": {"1350": 0.1021,"1375": 0.2245,"1400": 0.3062,"1425": 0.7348,"1450": 1.0614,"1475": 1.3676,"1500": 1.8575,"1525": 2.6332,"1550": 3.1231,"1575": 3.5518,"1600": 4.1439,"1625": 4.5522,"1650": 5.5526,"1675": 6.1856,"1700": 6.6144,"1725": 8.2887,"1750": 9.0036,"1775": 8.6364,"1800": 9.8208,"1825": 10.1681,"1850": 11.1483,"1875": 11.6183,"1900": 12.7617,"1925": 11.3733,"1950": 11.1896,"1975": 10.2912,"2000": 9.8011,"2025": 9.2499,"2050": 8.2495,"2075": 8.7601,"2100": 8.7807,"2125": 9.2095,"2150": 9.9043,"2175": 12.9472,"2200": 13.9684,"2225": 14.2339,"2250": 13.0085,"2275": 11.1907,"2300": 8.7808,"2325": 7.3308,"2350": 6.759,"2375": 4.0225,"2400": 2.4908,"2425": 2.1641,"2450": 1.2657,"2475": 0.7553,"2500": 0.4083,"2525": 0.2245,"2550": 0.347,"2600": 0.0612}}}