{"type":"Feature","properties":{"GID_2":"ERI.5.11_1","GID_0":"ERI","country":"Eritrea","GID_1":"ERI.5_1","province":"Debub","NL_NAME_1":"ዞባደቡብ","county":"Tsorena","VARNAME_2":"NA","NL_NAME_2":"NA","TYPE_2":"District","ENGTYPE_2":"District","CC_2":"NA","HASC_2":"ER.DU.TS","name":"Tsorena.county"},
"geometry":{"type": "MultiPolygon","coordinates": [[[[39.1387,14.8315,1671.3063],[39.1291,14.8294,1685.7877],[39.116,14.83,1553.3513],[39.1117,14.8206,1570.624],[39.1044,14.8162,1556.6183],[39.1004,14.811,1534.8104],[39.0903,14.8065,1538.6433],[39.0848,14.7949,1569.5555],[39.0841,14.7826,1509.4181],[39.0752,14.7669,1522.9971],[39.0633,14.7578,1489.2159],[39.0489,14.7531,1472.4448],[39.046,14.7499,1494.5602],[39.0413,14.7486,1481.1736],[39.0388,14.7423,1473.4618],[39.0398,14.738,1467.1086],[39.0324,14.7363,1473.832],[39.0339,14.7236,1471.6705],[39.0323,14.7172,1459.16],[39.0359,14.7123,1458.1371],[39.0297,14.6998,1466.4928],[39.032,14.6956,1447.4845],[39.0381,14.6933,1454.0479],[39.0388,14.6902,1445.2942],[39.0377,14.6875,1443.175],[39.032,14.6836,1461.2212],[39.0321,14.678,1457.7382],[39.0287,14.6763,1441.6832],[39.0284,14.6712,1449.6907],[39.0197,14.6604,1448.2422],[39.0208,14.6534,1447.6172],[39.0183,14.6434,1427.8506],[39.0237,14.6353,1418.2817],[39.0195,14.6281,1417.855],[39.0235,14.6324,1410.6963],[39.0287,14.6345,1421.6272],[39.0414,14.6316,1432.1703],[39.0484,14.6355,1418.6621],[39.0615,14.6363,1441.6652],[39.0675,14.6337,1455.0447],[39.0753,14.6334,1458.459],[39.0807,14.6365,1449.2727],[39.0868,14.6333,1482.3961],[39.0976,14.6334,1475.9249],[39.1044,14.63,1485.3383],[39.114,14.6176,1512.2521],[39.1247,14.6134,1507.233],[39.1575,14.6203,1580.0225],[39.1777,14.6185,1565.1615],[39.2003,14.611,1601.4971],[39.2081,14.6033,1622.5999],[39.2159,14.5915,1672.0133],[39.221,14.5796,1794.967],[39.2215,14.5725,1741.6527],[39.2265,14.5682,1821.6708],[39.2332,14.5682,1638.6138],[39.2386,14.5659,1603.0746],[39.2382,14.5607,1616.3486],[39.2401,14.5557,1621.5934],[39.2385,14.5476,1628.9127],[39.2323,14.5403,1665.8689],[39.2315,14.5192,1853.259],[39.2279,14.5116,1784.0381],[39.2167,14.4961,1660.4995],[39.2085,14.4931,1701.3385],[39.2145,14.4828,1720.155],[39.2191,14.4782,1696.0442],[39.221,14.4538,1748.4888],[39.2242,14.4433,1758.167],[39.2318,14.4308,1847.2375],[39.2398,14.4116,1894.1843],[39.2468,14.4053,1788.1676],[39.2497,14.3923,1896.5957],[39.2607,14.3931,1855.0944],[39.2758,14.4022,1891.8785],[39.2902,14.4047,2107.041],[39.2929,14.4106,1967.1461],[39.3008,14.4114,2008.6169],[39.3011,14.4182,1895.4492],[39.2979,14.4242,1868.5177],[39.2977,14.4362,1833.455],[39.3148,14.4376,1999.6959],[39.3199,14.4419,2024.3364],[39.3233,14.45,2054.3098],[39.3178,14.4528,1938.2419],[39.3224,14.459,2058.2227],[39.3163,14.4598,1929.0254],[39.3143,14.4658,1966.9622],[39.3138,14.4789,1868.8325],[39.33,14.4804,1998.7598],[39.3235,14.4924,1935.6219],[39.324,14.4983,1905.7976],[39.34,14.5113,2019.5671],[39.3443,14.5094,1960.5273],[39.3506,14.5126,2251.9019],[39.3418,14.525,2003.0652],[39.3373,14.5354,1985.7411],[39.3219,14.5485,1923.4408],[39.3181,14.5646,1836.8384],[39.3206,14.5746,1822.686],[39.3301,14.5894,2009.8579],[39.3327,14.6018,1925.4347],[39.3279,14.6333,1784.6587],[39.3325,14.6574,2422.2981],[39.3277,14.674,2317.0786],[39.3291,14.6898,2259.5984],[39.3342,14.7014,2061.8079],[39.3492,14.722,1862.4629],[39.3546,14.7322,1853.6368],[39.366,14.7412,2066.2393],[39.3585,14.7509,1909.6665],[39.3364,14.7723,2029.5564],[39.3189,14.7873,2068.332],[39.3116,14.7912,2103.9556],[39.2741,14.7918,1936.8083],[39.2572,14.7936,1835.4623],[39.2419,14.791,1780.582],[39.2333,14.7945,1809.8682],[39.2278,14.7945,1844.0543],[39.219,14.8009,1882.891],[39.2163,14.8002,1884.3569],[39.2088,14.8073,1894.083],[39.1977,14.8104,1850.5532],[39.1905,14.8171,1928.7561],[39.1686,14.8216,1852.0208],[39.1568,14.8258,1728.0466],[39.1509,14.8255,1725.4949],[39.1387,14.8315,1671.3063]]]]}}