{"type":"Feature","properties":{"GID_2":"ERI.2.4_1","GID_0":"ERI","country":"Eritrea","GID_1":"ERI.2_1","province":"SemenawiKeyihBahri","NL_NAME_1":"ዞባሰሜናዊቀይሕባሕሪ","county":"Ghida`e","VARNAME_2":"NA","NL_NAME_2":"NA","TYPE_2":"District","ENGTYPE_2":"District","CC_2":"NA","HASC_2":"ER.SK.GD","name":"Ghida`e.county"},
"geometry":{"type": "MultiPolygon","coordinates": [[[[39.1898,15.2432,1337.5269],[39.2005,15.2313,1354.5179],[39.2233,15.2431,1281.4913],[39.2275,15.2497,1136.7405],[39.228,15.2537,1072.7079],[39.2262,15.2684,1399.7799],[39.2272,15.2765,1526.2844],[39.232,15.2841,1507.552],[39.2368,15.2884,1440.6165],[39.2579,15.3026,1452.7083],[39.2896,15.3143,1547.3262],[39.3147,15.3285,996.9598],[39.3287,15.3396,749.249],[39.3497,15.3609,927.2464],[39.3691,15.3748,752.4995],[39.3929,15.3832,490.9178],[39.3989,15.384,494.4174],[39.4101,15.381,421.7229],[39.4155,15.3843,394.3267],[39.4173,15.3949,511.495],[39.4164,15.3989,496.681],[39.409,15.4037,462.916],[39.404,15.4093,404.801],[39.4031,15.4194,370.8008],[39.4167,15.4401,432.6894],[39.4176,15.4512,372.4372],[39.4156,15.4591,338.1246],[39.4097,15.4555,311.534],[39.3876,15.4534,244.9609],[39.3734,15.4567,332.4589],[39.3693,15.4607,312.7853],[39.366,15.4673,281.031],[39.3617,15.4835,248.7468],[39.3583,15.4887,239.1192],[39.3531,15.493,285.8826],[39.3453,15.5051,251.9634],[39.3352,15.5094,250.3799],[39.3288,15.5147,264.1682],[39.318,15.5298,335.486],[39.3136,15.5334,364.7194],[39.3084,15.5354,260.9223],[39.2926,15.5371,188.9093],[39.28,15.5421,169.6027],[39.2555,15.5638,201.5472],[39.2473,15.5671,192.3956],[39.2416,15.5673,188.3385],[39.2062,15.5614,329.2768],[39.1886,15.5563,344.4223],[39.1837,15.5566,324.3856],[39.181,15.5584,314.2644],[39.1787,15.5634,294.5348],[39.1774,15.5826,310.5468],[39.1715,15.5955,286.8773],[39.1692,15.6056,336.1276],[39.1529,15.6242,222.4615],[39.1442,15.6444,209.1561],[39.1386,15.65,203.1714],[39.1055,15.6673,183.7376],[39.0954,15.6706,193.9489],[39.0643,15.6728,220.2481],[39.0137,15.6659,314.5152],[38.9861,15.6575,526.5425],[38.9476,15.6425,655.4589],[38.9411,15.6387,842.4895],[38.9029,15.6113,1859.8458],[38.8869,15.5874,2276.4697],[38.8887,15.5825,2356.9653],[38.8946,15.5773,2384.3674],[38.8987,15.5759,2328.2483],[38.9062,15.5678,1840.8759],[38.9092,15.5422,2507.2434],[38.9181,15.5266,2441.6326],[38.9165,15.5213,2552.272],[38.9175,15.5155,2543.3994],[38.9275,15.5073,2214.9124],[38.9338,15.4953,2424.0283],[38.9291,15.4882,2538.9814],[38.9307,15.4821,2522.1213],[38.9383,15.4769,2208.4348],[38.9517,15.4712,2052.8538],[38.9631,15.4584,1859.7007],[38.9672,15.4561,1819.3936],[38.9756,15.4545,2128.3081],[38.9855,15.4589,2280.4121],[38.9844,15.4411,1738.6871],[38.9863,15.4335,1732.8667],[38.9835,15.427,1509.9387],[38.9841,15.4225,1447.7539],[38.981,15.4132,1675.1359],[38.9797,15.4005,1549.9259],[38.9841,15.3803,1664.9261],[38.988,15.3739,1781.6089],[38.9972,15.3769,2193.9912],[39.0062,15.3717,2008.3066],[39.0208,15.3561,1770.8248],[39.021,15.3518,2084.8669],[39.0172,15.3489,2113.186],[39.0178,15.3444,2140.0723],[39.019,15.3432,2145.7446],[39.0253,15.344,2078.4841],[39.0293,15.3375,2131.3062],[39.0394,15.3043,1705.5298],[39.0431,15.2777,1719.1311],[39.0482,15.266,1626.9528],[39.0457,15.2546,1706.8326],[39.0502,15.2442,1707.2194],[39.0506,15.2325,1746.6981],[39.0568,15.234,1902.6918],[39.0706,15.2336,1893.5962],[39.076,15.2368,1992.8655],[39.0795,15.2434,2012.5602],[39.0817,15.2634,1819.1207],[39.0853,15.2711,1624.1019],[39.0922,15.2689,1596.1315],[39.1447,15.2613,1292.5048],[39.1695,15.2539,1264.7698],[39.1898,15.2432,1337.5269]]]]}}