{"type": "Feature","bbox": [37.1645,14.7659,37.6879,15.5228],"geometry": {"type": "MultiPolygon","coordinates": [[[[37.5555,15.1884,769.7511],[37.5342,15.1918,795.7986],[37.5093,15.1991,922.3528],[37.4678,15.2208,1005.2794],[37.4584,15.2275,960.048],[37.4548,15.2326,741.22],[37.4487,15.2483,854.4261],[37.4489,15.2603,722.659],[37.4527,15.2719,736.7024],[37.4764,15.323,887.6171],[37.4914,15.3423,1030.7799],[37.4942,15.3492,961.7988],[37.4972,15.3787,1170.4802],[37.5062,15.4038,1025.5476],[37.5186,15.4203,1193.0525],[37.5273,15.4364,903.7805],[37.545,15.4575,642.1564],[37.5342,15.4582,612.1787],[37.5232,15.4559,611.2354],[37.4605,15.4558,589.0301],[37.419,15.4612,594.247],[37.3516,15.4919,615.1115],[37.2888,15.5172,991.7982],[37.2694,15.5228,1009.1827],[37.251,15.5199,871.1757],[37.2175,15.5092,893.0888],[37.206,15.5074,1083.5397],[37.2016,15.4948,1217.3317],[37.1995,15.4813,950.6436],[37.1998,15.4677,897.5891],[37.2063,15.4551,962.5081],[37.2078,15.4348,1188.5033],[37.2065,15.4141,1109.4077],[37.2011,15.3855,990.8959],[37.2011,15.3763,1111.3879],[37.2031,15.3645,840.754],[37.2058,15.3587,811.8545],[37.2287,15.3233,804.5119],[37.2338,15.3095,862.2398],[37.2365,15.2829,960.1983],[37.2347,15.2496,808.1255],[37.2242,15.203,844.9823],[37.1958,15.1206,788.0334],[37.1828,15.0897,737.4705],[37.1645,15.0626,690.4073],[37.1753,15.0493,695.6516],[37.1907,15.0364,703.4919],[37.2054,15.0152,725.6119],[37.2203,15.011,767.525],[37.2239,15.0077,753.2133],[37.2415,14.9762,724.0217],[37.2463,14.973,720.9451],[37.2525,14.9719,719.2598],[37.2654,14.9729,726.6187],[37.2803,14.9783,741.8524],[37.2848,14.9758,738.7082],[37.2916,14.9556,744.0611],[37.2903,14.9349,743.5743],[37.2958,14.9251,742.0176],[37.2916,14.9029,747.847],[37.296,14.8902,748.9314],[37.2965,14.8759,753.2236],[37.2942,14.8662,753.5721],[37.2942,14.8589,754.8942],[37.3029,14.8413,766.1518],[37.3173,14.8338,766.4861],[37.3324,14.8341,770.2233],[37.3539,14.826599999999999,771.5225],[37.37,14.8283,785.2509],[37.3851,14.8276,788.2406],[37.3997,14.8258,794.4778],[37.4169,14.8202,797.0386],[37.4222,14.8174,800.1937],[37.427,14.8119,785.3934],[37.4333,14.7967,793.2729],[37.4442,14.7789,812.8057],[37.448,14.7736,809.7618],[37.4542,14.7697,819.5593],[37.4794,14.7659,825.2505],[37.5133,14.774,826.0319],[37.5405,14.7963,826.5378],[37.5794,14.8224,867.9833],[37.5942,14.8378,900.5239],[37.6127,14.8635,946.8286],[37.6342,14.8825,850.5779],[37.637,14.8898,898.2943],[37.6351,14.9068,853.7368],[37.6369,14.915,846.127],[37.6419,14.9293,859.176],[37.6464,14.9357,868.5168],[37.672,14.9503,873.762],[37.6767,14.9567,876.2499],[37.6733,14.9675,874.2363],[37.674,14.9748,885.4105],[37.6879,15.0123,901.8851],[37.682,15.0122,904.6298],[37.6695,15.0183,920.5126],[37.6451,15.0224,1064.1512],[37.5883,15.0205,1086.6539],[37.5596,15.0233,997.0883],[37.5522,15.0274,1011.9023],[37.543,15.0452,1031.0256],[37.5302,15.0579,1063.3417],[37.5182,15.0756,975.0257],[37.515,15.0847,964.405],[37.514,15.0949,964.1634],[37.5145,15.1102,938.7684],[37.517,15.1211,928.13],[37.5434,15.155,947.5131],[37.5487,15.164,905.4136],[37.557,15.1856,817.3231],[37.5555,15.1884,769.7511]]]]}
,"properties": {"GID_2": "ERI.4.5_1","GID_0": "ERI","country": "Eritrea","GID_1": "ERI.4_1","province": "GashBarka","NL_NAME_1": "ዞባጋሽባርካ","county": "Gogne","VARNAME_2": "NA","NL_NAME_2": "NA","TYPE_2": "District","ENGTYPE_2": "District","CC_2": "NA","HASC_2": "ER.GB.GG","name": "Gogne.county","area_km2": 2576.376,"hist_schema_id": "Elevation0-9000","hist_area_km2": {"575": 0.02,"600": 47.903,"625": 70.756,"650": 69.376,"675": 67.933,"700": 95.143,"725": 110.242,"750": 159.299,"775": 199.457,"800": 208.711,"825": 262.098,"850": 229.135,"875": 199.904,"900": 192.309,"925": 151.102,"950": 113.145,"975": 89.048,"1000": 70.964,"1025": 63.426,"1050": 45.349,"1075": 32.186,"1100": 24.018,"1125": 18.86,"1150": 12.456,"1175": 9.858,"1200": 7.586,"1225": 6.318,"1250": 5.01,"1275": 4.089,"1300": 3.823,"1325": 2.78,"1350": 1.901,"1375": 1.451,"1400": 0.695,"1425": 0.02}}}