{"type": "Feature","bbox": [38.6683,14.6998,39.059,15.022],"geometry": {"type": "MultiPolygon","coordinates": [[[[39.0297,14.6998,1466.4928],[39.0359,14.7123,1458.1371],[39.0323,14.7172,1459.16],[39.0339,14.7236,1471.6705],[39.0324,14.7363,1473.832],[39.0398,14.738,1467.1086],[39.0388,14.7423,1473.4618],[39.0413,14.7486,1481.1736],[39.046,14.7499,1494.5602],[39.0511,14.7546,1470.1694],[39.059,14.7972,1491.2849],[39.058,14.8183,1523.3247],[39.0545,14.8265,1528.1677],[39.037,14.8477,1555.6748],[39.0362,14.8546,1545.5873],[39.0384,14.8635,1545.3286],[39.0369,14.866,1549.3275],[39.016,14.8808,1569.7731],[38.9898,14.9113,1622.3678],[38.98,14.9263,1662.1276],[38.9675,14.9537,1698.3975],[38.9621,14.9582,1644.8708],[38.9599,14.9646,1649.3004],[38.9466,14.9717,1782.1313],[38.8909,14.99,1812.9711],[38.8609,14.9948,1815.8176],[38.8297,14.9964,1902.1934],[38.7645,15.0128,2130.3228],[38.7242,15.0205,2190.4009],[38.7013,15.022,2260.3794],[38.6937,15.0153,2282.3613],[38.6881,15.0128,2057.0913],[38.6907,14.9966,2160.6636],[38.6709,14.9429,1958.8944],[38.6698,14.9102,1925.9021],[38.6727,14.8939,1851.8192],[38.6683,14.8857,1884.8604],[38.6705,14.8771,1878.6504],[38.6858,14.8714,1743.0581],[38.6968,14.8699,1752.8462],[38.7186,14.8732,1817.1758],[38.7208,14.8771,1813.7607],[38.7239,14.8778,1902.7899],[38.7356,14.8689,1837.7678],[38.7428,14.8656,1851.064],[38.7506,14.8576,1872.8098],[38.7812,14.8396,1906.7126],[38.788,14.8325,1911.8684],[38.7919,14.8255,1877.8562],[38.8016,14.7774,1938.7358],[38.8089,14.7661,1895.9374],[38.8165,14.7607,1847.8975],[38.8335,14.7612,1845.7057],[38.8483,14.7685,1823.0804],[38.8606,14.7721,1855.8311],[38.8976,14.7762,1688.1321],[38.9136,14.776,1659.4999],[38.929,14.771,1635.5691],[38.9437,14.7547,1614.4584],[38.9536,14.7471,1579.8606],[38.9695,14.7362,1553.051],[38.9879,14.7305,1519.2617],[38.997,14.7206,1507.3383],[39.0173,14.7044,1486.5833],[39.0243,14.7006,1479.4502],[39.0297,14.6998,1466.4928]]]]}
,"properties": {"GID_2": "ERI.5.8_1","GID_0": "ERI","country": "Eritrea","GID_1": "ERI.5_1","province": "Debub","NL_NAME_1": "ዞባደቡብ","county": "Mendefera","VARNAME_2": "NA","NL_NAME_2": "NA","TYPE_2": "District","ENGTYPE_2": "District","CC_2": "NA","HASC_2": "ER.SR.MN","name": "Mendefera.county","area_km2": 843.3616,"hist_schema_id": "Elevation0-9000","hist_area_km2": {"1450": 0.2051,"1475": 8.8993,"1500": 14.7213,"1525": 15.9498,"1550": 19.1666,"1575": 24.5149,"1600": 21.9714,"1625": 20.3508,"1650": 27.5269,"1675": 33.7159,"1700": 33.9586,"1725": 30.9018,"1750": 36.1676,"1775": 36.3291,"1800": 45.9765,"1825": 32.7206,"1850": 24.3048,"1875": 31.0906,"1900": 37.791,"1925": 47.1142,"1950": 60.0606,"1975": 41.9405,"2000": 44.3978,"2025": 40.3775,"2050": 26.4669,"2075": 21.4063,"2100": 13.478,"2125": 16.7743,"2150": 9.6873,"2175": 7.5778,"2200": 4.5261,"2225": 3.3382,"2250": 2.5395,"2275": 1.6998,"2300": 1.4746,"2325": 1.2083,"2350": 1.024,"2375": 0.7578,"2400": 0.3891,"2425": 0.3277,"2450": 0.2662,"2475": 0.1843,"2500": 0.0205,"2525": 0.041,"2550": 0.0205}}}