{"type":"Feature","properties":{"GID_2":"ERI.4.6_1","GID_0":"ERI","country":"Eritrea","GID_1":"ERI.4_1","province":"GashBarka","NL_NAME_1":"ዞባጋሽባርካ","county":"Haykota","VARNAME_2":"NA","NL_NAME_2":"NA","TYPE_2":"District","ENGTYPE_2":"District","CC_2":"NA","HASC_2":"ER.GB.HA","name":"Haykota.county"},
"geometry":{"type": "MultiPolygon","coordinates": [[[[36.7823,15.3699,869.2031],[36.7795,15.3536,865.9214],[36.7789,15.3364,805.842],[36.7821,15.3155,866.4604],[36.7923,15.2846,690.5527],[36.7926,15.2679,675.2031],[36.79,15.2461,662.8704],[36.8002,15.2197,640.3548],[36.8003,15.1516,619.0916],[36.8022,15.1481,620.1361],[36.8253,15.1264,633.1685],[36.8613,15.0968,660.7249],[36.8801,15.0757,707.0262],[36.8937,15.0738,841.5939],[36.9065,15.066,739.0658],[36.9185,15.0556,741.595],[36.9281,15.0407,746.6534],[36.9456,15.0308,843.7224],[36.9533,15.0293,796.3268],[36.9878,15.0323,911.0969],[37.0131,15.031,828.2729],[37.0461,15.0375,791.652],[37.0552,15.0372,767.6024],[37.0816,15.028,783.075],[37.0876,15.0281,772.2618],[37.1063,15.0218,797.0546],[37.1259,15.0186,859.8385],[37.1331,15.03,806.4242],[37.1588,15.0547,699.7842],[37.1828,15.0897,737.4705],[37.1958,15.1206,788.0334],[37.2218,15.1955,827.5167],[37.2347,15.2496,808.1255],[37.2365,15.2829,960.1983],[37.2338,15.3095,862.2398],[37.2287,15.3233,804.5119],[37.2058,15.3587,811.8545],[37.2031,15.3645,840.754],[37.2011,15.3763,1111.3879],[37.2011,15.3855,990.8959],[37.2065,15.4141,1109.4077],[37.2078,15.4348,1188.5033],[37.2063,15.4551,962.5081],[37.1998,15.4677,897.5891],[37.1979,15.4632,913.1422],[37.1859,15.4578,942.869],[37.1312,15.4375,899.5931],[37.0941,15.4289,950.3569],[37.0707,15.4214,847.4154],[37.0635,15.4204,833.3775],[37.0358,15.4234,850.5496],[37.0173,15.4222,886.9076],[36.9867,15.4179,777.7427],[36.9554,15.4113,757.6067],[36.9257,15.4079,756.5503],[36.897,15.4016,734.1538],[36.8158,15.3778,737.92],[36.7823,15.3699,869.2031]]]]}}