{"type":"Feature","properties":{"GID_2":"ERI.5.7_1","GID_0":"ERI","country":"Eritrea","GID_1":"ERI.5_1","province":"Debub","NL_NAME_1":"ዞባደቡብ","county":"MayMine","VARNAME_2":"NA","NL_NAME_2":"NA","TYPE_2":"District","ENGTYPE_2":"District","CC_2":"NA","HASC_2":"ER.DU.MM","name":"May_Mine.county"},
"geometry":{"type": "MultiPolygon","coordinates": [[[[38.685,14.5875,1479.8298],[38.6842,14.6125,1535.543],[38.6886,14.6311,1578.545],[38.6899,14.6482,1632.9266],[38.6873,14.6576,1653.0999],[38.6451,14.6876,1468.8567],[38.638,14.6905,1451.6609],[38.6189,14.6904,1412.774],[38.6146,14.6928,1375.3873],[38.6037,14.7059,1396.2207],[38.5904,14.71,1412.9177],[38.5823,14.7097,1385.2904],[38.5775,14.705,1350.866],[38.5668,14.7064,1391.8135],[38.5618,14.6991,1444.4744],[38.5558,14.6968,1328.3921],[38.5427,14.6941,1338.0397],[38.5259,14.6954,1323.5161],[38.5173,14.6932,1318.1549],[38.5048,14.6966,1321.1864],[38.4923,14.6914,1255.1544],[38.4699,14.6854,1293.7021],[38.4577,14.6832,1226.9894],[38.4424,14.6828,1200.574],[38.4284,14.6762,1195.7699],[38.3838,14.6837,1160.7068],[38.3736,14.688,1320.5686],[38.3671,14.6866,1156.0193],[38.3527,14.6888,1169.3417],[38.349,14.6918,1157.8082],[38.341,14.6909,1121.1267],[38.3146,14.6995,1133.6971],[38.3059,14.6985,1211.4163],[38.2908,14.6936,1170.5469],[38.2665,14.6923,1072.3436],[38.2626,14.6908,1093.6576],[38.2493,14.6758,1048.2793],[38.2611,14.6671,1055.0601],[38.2645,14.6388,1050.356],[38.2691,14.6344,1051.4414],[38.2663,14.6278,1064.147],[38.2645,14.6141,1077.5149],[38.2711,14.6105,1086.0656],[38.2861,14.6075,1150.9851],[38.292,14.6024,1093.0181],[38.2931,14.5948,1088.7493],[38.3079,14.5851,1087.0509],[38.3104,14.5787,1093.8232],[38.3153,14.5735,1079.2682],[38.3134,14.5681,1095.2882],[38.3152,14.5507,1216.3451],[38.3297,14.5315,1115.6584],[38.3364,14.5289,1121.8374],[38.3409,14.522,1094.121],[38.3398,14.5138,1120.306],[38.3432,14.5077,1141.6418],[38.3493,14.5095,1111.6987],[38.3559,14.5067,1114.0692],[38.3561,14.4993,1108.1956],[38.3622,14.4868,1132.9344],[38.3689,14.4844,1129.1489],[38.3734,14.4802,1232.6372],[38.3884,14.4796,1221.5515],[38.3948,14.4815,1224.9434],[38.3981,14.4765,1142.9023],[38.3989,14.4701,1206.8853],[38.4015,14.465,1147.5649],[38.4208,14.4637,1269.2205],[38.4322,14.428,1157.8683],[38.4387,14.4268,1268.0585],[38.4427,14.4222,1282.6104],[38.4427,14.4161,1397.8621],[38.4474,14.4104,1383.1292],[38.4562,14.4094,1309.3259],[38.4723,14.4131,1224.8521],[38.4776,14.4166,1145.6973],[38.4837,14.4182,1165.1182],[38.4986,14.4119,1305.8628],[38.506,14.4133,1431.9585],[38.5159,14.4051,1367.1102],[38.521,14.4109,1238.6808],[38.5374,14.4201,1268.2966],[38.5436,14.4225,1225.5864],[38.5491,14.4223,1328.9666],[38.5547,14.4257,1174.0754],[38.5611,14.426,1386.6184],[38.5721,14.433,1185.5408],[38.6013,14.4393,1250.7939],[38.6083,14.4386,1286.8976],[38.6158,14.4335,1211.0244],[38.6313,14.4405,1241.8146],[38.6391,14.4395,1282.1239],[38.6468,14.4412,1252.024],[38.6542,14.445,1268.375],[38.6616,14.4455,1244.4171],[38.6649,14.4504,1210.1152],[38.6751,14.453,1239.2061],[38.6846,14.4589,1220.6096],[38.6821,14.4791,1295.2688],[38.6912,14.512,1563.8945],[38.6935,14.5314,1516.9761],[38.6925,14.5419,1435.9606],[38.6884,14.5559,1433.2083],[38.685,14.5875,1479.8298]]]]}}