{"type": "Feature","bbox": [38.0413,15.9464,38.4751,16.6531],"geometry": {"type": "MultiPolygon","coordinates": [[[[38.2654,16.2311,1040.9177],[38.2784,16.2168,1234.4591],[38.28,16.2129,1233.8511],[38.2799,16.1965,973.4747],[38.2847,16.1909,1007.361],[38.291,16.1868,1100.5178],[38.2953,16.1805,1062.4495],[38.3008,16.1526,1003.1692],[38.3076,16.1355,1014.9229],[38.3302,16.1086,1065.972],[38.3278,16.0728,1111.8893],[38.3301,16.0623,1116.043],[38.3442,16.0433,1187.3433],[38.3541,16.0227,1375.832],[38.3725,15.9929,1523.1653],[38.3809,15.9735,1248.177],[38.3936,15.9558,1258.7948],[38.398,15.9505,1245.4121],[38.4072,15.9464,1217.36],[38.4209,15.9482,1265.3308],[38.4401,15.9608,1428.9835],[38.4368,15.96,1377.6338],[38.4321,15.9635,1289.2562],[38.4301,15.9898,1319.1448],[38.4257,15.9941,1291.0928],[38.4135,15.9923,1241.2211],[38.4113,15.9936,1254.9753],[38.4098,15.9981,1225.0492],[38.4098,16.0014,1313.3422],[38.4143,16.0118,1226.0192],[38.4288,16.0247,1260.6201],[38.4256,16.0434,1603.3611],[38.4299,16.0904,1485.958],[38.4372,16.1152,1538.2573],[38.4468,16.1281,1690.7814],[38.4589,16.139,1832.8293],[38.4693,16.1582,2041.9122],[38.4724,16.1648,1983.0265],[38.4747,16.1817,1771.0797],[38.4751,16.1883,1646.0264],[38.4719,16.2067,1937.842],[38.4504,16.2698,1677.1748],[38.4461,16.2865,1436.5999],[38.4416,16.2926,1444.5554],[38.407,16.3132,1583.7117],[38.404,16.319,1610.146],[38.3838,16.3197,1633.8726],[38.368,16.323,1488.6729],[38.3592,16.327,1401.9987],[38.3561,16.3773,1684.3685],[38.3539,16.3823,1515.7736],[38.3442,16.3909,1528.9358],[38.3411,16.3962,1405.5332],[38.3408,16.4207,1817.5946],[38.3383,16.425,1862.3545],[38.3312,16.4303,1813.7557],[38.3175,16.4353,1354.3376],[38.3036,16.4363,1430.0669],[38.2795,16.4254,1445.9675],[38.2569,16.4228,1972.8737],[38.243,16.4276,1704.4685],[38.2369,16.4328,1294.9866],[38.2276,16.4573,869.1528],[38.2232,16.4861,848.7672],[38.2269,16.5127,860.7916],[38.2331,16.5359,845.5176],[38.2245,16.5493,835.2679],[38.2252,16.5551,841.335],[38.2358,16.5769,905.6886],[38.2358,16.5802,911.7507],[38.2275,16.5935,1029.2386],[38.22,16.6021,1410.9419],[38.2156,16.6044,1535.074],[38.2031,16.6064,1488.7357],[38.1986,16.6129,1532.9915],[38.1935,16.6281,1697.5337],[38.1899,16.6308,1537.358],[38.1869,16.6306,1469.7651],[38.1775,16.6253,1727.322],[38.1712,16.624,1784.9285],[38.1478,16.6229,1827.4839],[38.1435,16.6252,1640.5175],[38.1442,16.6328,1543.7991],[38.1411,16.6371,1678.7656],[38.1137,16.6314,910.7129],[38.0955,16.6296,790.2488],[38.0798,16.64,683.1232],[38.0691,16.6513,635.2803],[38.0647,16.6531,628.5112],[38.0413,16.6512,705.4531],[38.0604,16.5914,729.026],[38.0744,16.5607,664.315],[38.0875,16.5363,659.3098],[38.0914,16.5225,667.3679],[38.0918,16.5077,695.1682],[38.1018,16.502,691.3501],[38.1075,16.4959,704.2063],[38.1115,16.4898,698.8987],[38.1248,16.4593,727.802],[38.1412,16.4369,741.5757],[38.1494,16.4296,744.6254],[38.1617,16.3881,923.9684],[38.1798,16.368,819.0807],[38.1837,16.3556,846.5421],[38.1882,16.3497,853.8055],[38.1917,16.3392,932.0266],[38.2025,16.3312,839.0106],[38.2061,16.327,830.8221],[38.2066,16.3213,843.7664],[38.2115,16.3164,835.2802],[38.2261,16.3052,971.2909],[38.2336,16.2888,1104.8881],[38.2431,16.2778,940.7872],[38.2485,16.2648,969.8115],[38.255,16.2561,1017.8846],[38.2628,16.2496,1058.1833],[38.2645,16.2455,1016.4436],[38.2654,16.2311,1040.9177]]]]}
,"properties": {"GID_2": "ERI.6.5_1","GID_0": "ERI","country": "Eritrea","GID_1": "ERI.6_1","province": "Anseba","NL_NAME_1": "ዞባዓንሰባ","county": "Habero","VARNAME_2": "NA","NL_NAME_2": "NA","TYPE_2": "District","ENGTYPE_2": "District","CC_2": "NA","HASC_2": "ER.AN.HB","name": "Habero.county","area_km2": 1148.8456,"hist_schema_id": "Elevation0-9000","hist_area_km2": {"575": 0.2234,"600": 4.9567,"625": 12.1496,"650": 14.7124,"675": 20.8732,"700": 23.925,"725": 24.4168,"750": 22.4255,"775": 25.2927,"800": 26.5731,"825": 31.1084,"850": 25.0485,"875": 18.6438,"900": 14.2317,"925": 11.4669,"950": 11.1632,"975": 11.5296,"1000": 11.6126,"1025": 16.9482,"1050": 17.3974,"1075": 21.3707,"1100": 24.1003,"1125": 23.9782,"1150": 26.7503,"1175": 31.9439,"1200": 36.2227,"1225": 36.7123,"1250": 36.2789,"1275": 39.6742,"1300": 39.9171,"1325": 39.2441,"1350": 39.3447,"1375": 37.1653,"1400": 33.4609,"1425": 30.8546,"1450": 27.9449,"1475": 26.5185,"1500": 24.0958,"1525": 21.4918,"1550": 19.1922,"1575": 16.9329,"1600": 14.9383,"1625": 13.494,"1650": 11.458,"1675": 11.2547,"1700": 10.7255,"1725": 9.8089,"1750": 9.0361,"1775": 7.5503,"1800": 7.632,"1825": 7.2867,"1850": 7.3069,"1875": 6.7367,"1900": 5.434,"1925": 5.2103,"1950": 4.701,"1975": 4.4776,"2000": 4.2331,"2025": 3.4394,"2050": 3.1954,"2075": 3.2555,"2100": 3.0324,"2125": 3.5816,"2150": 3.3981,"2175": 3.0109,"2200": 2.1562,"2225": 1.7085,"2250": 0.9972,"2275": 0.7733,"2300": 0.3868,"2325": 0.3868,"2350": 0.1425,"2375": 0.1426,"2400": 0.0611}}}