{"type": "Feature","bbox": [38.5992,14.5875,38.8189,14.8778],"geometry": {"type": "MultiPolygon","coordinates": [[[[38.818,14.7602,1843.7635],[38.8089,14.7661,1895.9374],[38.8016,14.7774,1938.7358],[38.7919,14.8255,1877.8562],[38.788,14.8325,1911.8684],[38.7812,14.8396,1906.7126],[38.7506,14.8576,1872.8098],[38.7428,14.8656,1851.064],[38.7356,14.8689,1837.7678],[38.7239,14.8778,1902.7899],[38.7208,14.8771,1813.7607],[38.7186,14.8732,1817.1758],[38.6968,14.8699,1752.8462],[38.6858,14.8714,1743.0581],[38.6705,14.8771,1878.6504],[38.6689,14.8745,1930.3269],[38.6619,14.8732,1944.5184],[38.6592,14.8707,1916.3904],[38.6592,14.8653,1807.9524],[38.6614,14.8594,1814.1289],[38.6605,14.8536,1792.5906],[38.6755,14.8372,1759.0898],[38.6849,14.8322,1624.6484],[38.6861,14.8267,1610.6643],[38.6832,14.8243,1620.9324],[38.6679,14.8204,1783.9746],[38.6586,14.8124,1639.6056],[38.6432,14.8138,1789.6135],[38.633,14.8114,1688.2275],[38.6219,14.811,1579.1228],[38.6128,14.8025,1490.475],[38.6099,14.7974,1468.5729],[38.6099,14.7922,1474.3152],[38.6192,14.7591,1507.8695],[38.6188,14.7383,1430.5868],[38.6161,14.7254,1433.8667],[38.6129,14.7185,1458.5291],[38.5992,14.7079,1490.1262],[38.6082,14.7019,1346.1627],[38.6167,14.6915,1403.4509],[38.6236,14.6896,1434.4485],[38.638,14.6905,1451.6609],[38.6451,14.6876,1468.8567],[38.6873,14.6576,1653.0999],[38.6899,14.6482,1632.9266],[38.6886,14.6311,1578.545],[38.6842,14.6125,1535.543],[38.685,14.5875,1479.8298],[38.6917,14.5915,1483.2477],[38.7014,14.603,1504.7769],[38.7161,14.613,1511.095],[38.7284,14.6267,1535.1392],[38.742,14.6374,1539.2949],[38.7603,14.664,1649.3706],[38.7774,14.6738,1666.4885],[38.784,14.6807,1709.318],[38.79,14.6908,1716.3452],[38.801,14.7024,1941.3209],[38.805,14.7079,1780.3979],[38.8106,14.7283,1785.2952],[38.8189,14.7419,1767.0194],[38.818,14.7602,1843.7635]]]]}
,"properties": {"GID_2": "ERI.5.6_1","GID_0": "ERI","country": "Eritrea","GID_1": "ERI.5_1","province": "Debub","NL_NAME_1": "ዞባደቡብ","county": "KudoBu`er","VARNAME_2": "NA","NL_NAME_2": "NA","TYPE_2": "District","ENGTYPE_2": "District","CC_2": "NA","HASC_2": "NA","name": "Kudo_Bu`er.county","area_km2": 428.2973,"hist_schema_id": "Elevation0-9000","hist_area_km2": {"1350": 1.0869,"1375": 2.7889,"1400": 4.2243,"1425": 3.9371,"1450": 4.6547,"1475": 6.3157,"1500": 9.29,"1525": 12.5512,"1550": 16.3658,"1575": 20.6095,"1600": 25.6107,"1625": 30.7948,"1650": 26.9395,"1675": 22.3054,"1700": 22.8173,"1725": 21.0125,"1750": 18.88,"1775": 15.9075,"1800": 14.883,"1825": 15.2732,"1850": 14.4534,"1875": 15.2329,"1900": 17.2019,"1925": 19.7451,"1950": 19.3779,"1975": 22.4752,"2000": 18.3743,"2025": 5.0244,"2050": 0.164}}}