{"type": "Feature","bbox": [38.6821,14.4589,39.0388,14.7766],"geometry": {"type": "MultiPolygon","coordinates": [[[[38.685,14.5875,1479.8298],[38.6884,14.5559,1433.2083],[38.6925,14.5419,1435.9606],[38.6935,14.5314,1516.9761],[38.6912,14.512,1563.8945],[38.6821,14.4791,1295.2688],[38.6846,14.4589,1220.6096],[38.7029,14.4653,1232.4954],[38.7158,14.461,1264.2007],[38.7305,14.4589,1251.613],[38.7502,14.4651,1255.2725],[38.7589,14.4646,1274.877],[38.7748,14.4669,1288.9222],[38.794,14.4632,1326.777],[38.8152,14.4743,1316.2466],[38.8167,14.4819,1320.9301],[38.8245,14.482,1317.2275],[38.8352,14.4853,1307.6099],[38.8484,14.4957,1349.0273],[38.8642,14.494,1326.868],[38.9049,14.5012,1372.5493],[38.921,14.5113,1503.2227],[38.9373,14.5321,1415.0824],[38.9496,14.5311,1393.9308],[38.9541,14.536,1353.4358],[38.9673,14.5385,1383.205],[38.9747,14.5416,1384.7806],[38.9809,14.5527,1369.0497],[38.9939,14.5656,1370.9836],[39.0012,14.5858,1410.1306],[39.01,14.5903,1406.3248],[39.0127,14.6034,1402.5315],[39.0085,14.6162,1422.6887],[39.0195,14.6281,1417.855],[39.0237,14.6353,1418.2817],[39.0183,14.6434,1427.8506],[39.0208,14.6534,1447.6172],[39.0197,14.6604,1448.2422],[39.0284,14.6712,1449.6907],[39.0287,14.6763,1441.6832],[39.0321,14.678,1457.7382],[39.032,14.6836,1461.2212],[39.0377,14.6875,1443.175],[39.0388,14.6922,1455.1011],[39.032,14.6956,1447.4845],[39.0297,14.6998,1466.4928],[39.0243,14.7006,1479.4502],[39.0173,14.7044,1486.5833],[38.997,14.7206,1507.3383],[38.9879,14.7305,1519.2617],[38.9695,14.7362,1553.051],[38.9536,14.7471,1579.8606],[38.9406,14.7577,1661.4946],[38.9312,14.7695,1628.9209],[38.926,14.7723,1653.3821],[38.908,14.7766,1676.5936],[38.876,14.7742,1758.0217],[38.855,14.771,1860.749],[38.8335,14.7612,1845.7057],[38.818,14.7602,1843.7635],[38.8189,14.7419,1767.0194],[38.8106,14.7283,1785.2952],[38.805,14.7079,1780.3979],[38.801,14.7024,1941.3209],[38.79,14.6908,1716.3452],[38.784,14.6807,1709.318],[38.7774,14.6738,1666.4885],[38.7603,14.664,1649.3706],[38.742,14.6374,1539.2949],[38.7284,14.6267,1535.1392],[38.7161,14.613,1511.095],[38.7014,14.603,1504.7769],[38.6917,14.5915,1483.2477],[38.685,14.5875,1479.8298]]]]}
,"properties": {"GID_2": "ERI.5.2_1","GID_0": "ERI","country": "Eritrea","GID_1": "ERI.5_1","province": "Debub","NL_NAME_1": "ዞባደቡብ","county": "AdiKwala","VARNAME_2": "AdiQuala","NL_NAME_2": "NA","TYPE_2": "District","ENGTYPE_2": "District","CC_2": "NA","HASC_2": "ER.SR.AW","name": "Adi_Kwala.county","area_km2": 858.3245,"hist_schema_id": "Elevation0-9000","hist_area_km2": {"1225": 2.4636,"1250": 6.3642,"1275": 12.4202,"1300": 17.5927,"1325": 17.9819,"1350": 22.4348,"1375": 26.2304,"1400": 28.9381,"1425": 31.009,"1450": 43.7271,"1475": 64.9606,"1500": 65.5756,"1525": 61.9803,"1550": 46.3432,"1575": 33.5811,"1600": 27.6725,"1625": 26.1129,"1650": 24.3482,"1675": 17.9482,"1700": 16.6559,"1725": 14.0101,"1750": 13.9071,"1775": 12.1832,"1800": 12.5722,"1825": 12.5309,"1850": 16.6727,"1875": 16.8169,"1900": 17.0847,"1925": 25.6787,"1950": 24.1206,"1975": 17.1069,"2000": 10.7903,"2025": 16.0009,"2050": 26.1359,"2075": 14.0527,"2100": 9.4777,"2125": 3.9395,"2150": 0.9029}}}