{"type":"Feature","properties":{"GID_2":"ERI.5.1_1","GID_0":"ERI","country":"Eritrea","GID_1":"ERI.5_1","province":"Debub","NL_NAME_1":"ዞባደቡብ","county":"AdiKeyih","VARNAME_2":"AdiKeyh","NL_NAME_2":"NA","TYPE_2":"District","ENGTYPE_2":"District","CC_2":"NA","HASC_2":"ER.AG.AY","name":"Adi_Keyih.county"},
"geometry":{"type": "MultiPolygon","coordinates": [[[[39.1387,14.8315,1671.3063],[39.1509,14.8255,1725.4949],[39.1568,14.8258,1728.0466],[39.1686,14.8216,1852.0208],[39.1905,14.8171,1928.7561],[39.1977,14.8104,1850.5532],[39.2088,14.8073,1894.083],[39.2163,14.8002,1884.3569],[39.219,14.8009,1882.891],[39.2278,14.7945,1844.0543],[39.2333,14.7945,1809.8682],[39.2419,14.791,1780.582],[39.2572,14.7936,1835.4623],[39.2741,14.7918,1936.8083],[39.3116,14.7912,2103.9556],[39.3189,14.7873,2068.332],[39.3364,14.7723,2029.5564],[39.3585,14.7509,1909.6665],[39.366,14.7412,2066.2393],[39.3783,14.7542,2458.0981],[39.3858,14.7589,2232.7554],[39.3901,14.7597,2309.1113],[39.4,14.7584,2418.0786],[39.4265,14.7496,2403.3416],[39.4621,14.7441,2151.5396],[39.4779,14.7448,2188.7046],[39.4838,14.7492,2038.0824],[39.491,14.7656,2168.5605],[39.4941,14.7908,1943.7791],[39.4984,14.81,1941.5345],[39.4992,14.826599999999999,1605.5193],[39.5109,14.8475,1465.8623],[39.5164,14.8634,1440.7449],[39.5159,14.8897,1447.3455],[39.5271,14.9059,1286.6266],[39.5359,14.9133,1603.7628],[39.5422,14.9232,1776.7206],[39.5396,14.9247,1861.6998],[39.5396,14.9266,1770.8351],[39.5458,14.9425,1526.705],[39.5457,14.9523,1735.556],[39.5398,14.9565,1358.9225],[39.5299,14.9564,1247.918],[39.5275,14.9608,1110.9852],[39.5233,14.964,1119.3157],[39.5113,14.9648,1406.652],[39.5053,14.9729,1278.1628],[39.4842,14.9935,1859.9639],[39.4699,15.0051,1728.8611],[39.4603,15.0107,2169.1689],[39.4461,15.0171,2026.2991],[39.4246,15.0191,1783.9266],[39.4176,15.0184,1670.533],[39.4141,15.0204,1789.5538],[39.4113,15.0259,1712.3728],[39.4102,15.0356,1894.5461],[39.4042,15.0423,1521.957],[39.405,15.0508,1738.2473],[39.4021,15.0558,1525.5388],[39.3992,15.0584,1464.4805],[39.3779,15.0591,1521.2334],[39.3726,15.0627,1843.4417],[39.3645,15.0737,1838.1616],[39.3568,15.0906,1712.7629],[39.3353,15.1128,2089.8499],[39.3288,15.0939,2766.4517],[39.3178,15.0488,2137.2839],[39.3061,15.0114,2565.0063],[39.2883,14.9647,2041.26],[39.2757,14.9497,2016.7745],[39.2781,14.9431,2019.6453],[39.2857,14.9405,2054.7246],[39.2898,14.937,2062.3311],[39.2948,14.9271,2104.2764],[39.2947,14.9244,2102.3408],[39.2864,14.9114,2005.8965],[39.2848,14.8892,2058.563],[39.2831,14.887,2013.0493],[39.2678,14.8828,1870.4277],[39.2376,14.8823,1909.3053],[39.2007,14.8751,1827.4794],[39.1822,14.8685,1831.7572],[39.1624,14.8586,1748.7358],[39.1457,14.8428,1659.4614],[39.1387,14.8315,1671.3063]]]]}}