{"type":"Feature","properties":{"GID_2":"ERI.2.1_1","GID_0":"ERI","country":"Eritrea","GID_1":"ERI.2_1","province":"SemenawiKeyihBahri","NL_NAME_1":"ዞባሰሜናዊቀይሕባሕሪ","county":"Afabet","VARNAME_2":"NA","NL_NAME_2":"NA","TYPE_2":"District","ENGTYPE_2":"District","CC_2":"NA","HASC_2":"ER.SA.AF","name":"Afabet.county"},
"geometry":{"type": "MultiPolygon","coordinates": [[[[38.6079,15.8613,1875.5594],[38.6232,15.8811,1698.2476],[38.6472,15.8965,1841.4176],[38.6792,15.9085,1804.1543],[38.7291,15.9225,1463.6171],[38.7535,15.9322,1891.339],[38.7724,15.9436,1591.2568],[38.8055,15.9515,1761.5674],[38.8581,15.9693,1044.3557],[38.8823,15.9713,627.5535],[38.9387,15.9679,588.8082],[38.9651,15.969,385.136],[38.9911,15.9761,282.7559],[39.0183,15.979,251.736],[39.0646,15.9758,200.7962],[39.076,15.9788,190.5994],[39.0935,15.9948,189.4243],[39.0987,15.9973,182.1758],[39.144,16.0096,153.8353],[39.157,16.0119,141.1662],[39.2256,16.0153,35.2842],[39.2408,16.0148,28.4274],[39.2663,16.0194,1.3668],[39.2618,16.0401,0.0],[39.2557,16.0482,1.0103],[39.2538,16.0546,0.0],[39.2415,16.074,1.1249],[39.2315,16.1188,1.6801],[39.2301,16.1415,0.0],[39.2251,16.1554,0.3487],[39.2199,16.186,0.0],[39.2182,16.1885,0.0],[39.2188,16.2051,0.0],[39.2176,16.2051,0.0],[39.2046,16.2493,1.5757],[39.2054,16.2549,0.8842],[39.209,16.2579,0.1818],[39.2101,16.2718,0.0],[39.2079,16.2765,0.0],[39.1982,16.2879,0.1773],[39.1976,16.3035,0.0],[39.2018,16.3157,0.4573],[39.2054,16.3165,0.0],[39.2035,16.3187,0.0],[39.2043,16.3229,0.0],[39.2029,16.3299,0.5293],[39.2046,16.344,0.0],[39.1935,16.3624,0.0],[39.1935,16.3674,0.4832],[39.196,16.3715,0.0],[39.1943,16.3749,1.3153],[39.1949,16.3829,0.0],[39.191,16.3907,0.0],[39.1901,16.3954,0.0],[39.1918,16.3993,0.0],[39.1893,16.4029,0.0],[39.1876,16.4124,0.8998],[39.1882,16.4154,1.0934],[39.1946,16.4229,0.9914],[39.1929,16.4387,0.0],[39.1868,16.4438,1.57],[39.1857,16.4465,1.6158],[39.1763,16.4818,0.2918],[39.1724,16.4854,0.0],[39.1738,16.4893,0.0],[39.1721,16.4904,1.7093],[39.1693,16.4996,1.486],[39.1701,16.5026,1.0021],[39.1746,16.5051,0.0],[39.176,16.514,0.3461],[39.1668,16.5221,0.5698],[39.1651,16.521,0.0],[39.166,16.5146,0.0],[39.1638,16.5071,0.0],[39.1615,16.5057,1.0675],[39.1571,16.5079,0.5241],[39.1571,16.5143,1.383],[39.1593,16.5132,0.3529],[39.1596,16.5099,0.0],[39.1618,16.5104,0.0],[39.1582,16.5213,0.0],[39.1599,16.5263,0.0],[39.1543,16.5274,0.0],[39.1482,16.5376,0.0],[39.1493,16.5393,0.0],[39.151,16.5365,0.0],[39.1532,16.5368,0.0],[39.1576,16.5399,0.0],[39.1601,16.5449,0.7681],[39.1649,16.5457,0.0],[39.1649,16.5488,0.7181],[39.1674,16.5524,0.6192],[39.1657,16.5637,0.0],[39.1621,16.571,0.0],[39.1551,16.5738,0.0],[39.1515,16.5779,1.324],[39.1507,16.5826,1.1461],[39.1529,16.5862,1.0959],[39.1524,16.5885,0.5763],[39.1454,16.5893,2.0138],[39.1387,16.5987,0.8474],[39.1401,16.6032,0.0],[39.1446,16.6029,0.8234],[39.1407,16.6151,0.3593],[39.1421,16.6146,2.8687],[39.1435,16.6085,0.0],[39.1454,16.6085,0.0],[39.1479,16.6126,0.0],[39.1468,16.6193,0.0],[39.1488,16.6213,0.3999],[39.1479,16.6293,0.0],[39.151,16.6301,0.0],[39.1529,16.6288,0.0],[39.1538,16.6338,0.0],[39.151,16.6374,0.7965],[39.151,16.6432,0.6179],[39.1485,16.6482,0.7368],[39.144,16.6696,0.2174],[39.1451,16.6749,0.426],[39.1499,16.681,0.0],[39.1451,16.6935,1.0579],[39.1451,16.699,0.9569],[39.1338,16.7187,0.1864],[39.1307,16.721,0.8283],[39.1246,16.7335,1.2866],[39.1232,16.7399,0.0],[39.1249,16.7518,0.6211],[39.1243,16.761,0.0],[39.1188,16.7713,0.0],[39.1182,16.7796,1.9005],[39.1013,16.8032,2.6325],[39.0971,16.8179,0.4654],[39.0985,16.8307,0.0],[39.0962,16.831,0.0],[39.0929,16.8354,0.382],[39.0921,16.8476,0.0],[39.0887,16.8515,0.0],[39.0863,16.859,0.0],[39.0835,16.861,1.3993],[39.0782,16.8696,0.0],[39.0774,16.8732,0.0],[39.0751,16.8743,1.7325],[39.074,16.879,0.0],[39.0679,16.8851,0.5558],[39.0632,16.9013,0.0],[39.0618,16.9196,0.0],[39.0604,16.9224,0.2346],[39.0469,16.9094,7.5822],[39.0081,16.8989,28.8093],[38.9794,16.888,52.727],[38.9396,16.8869,77.7971],[38.9253,16.8823,88.897],[38.8829,16.8731,121.4319],[38.8687,16.8736,135.3075],[38.845,16.8811,156.6003],[38.8253,16.8846,173.0714],[38.7981,16.8818,196.9195],[38.781,16.8765,225.0068],[38.764,16.8686,265.2047],[38.7289,16.8445,532.1544],[38.6958,16.8139,618.0685],[38.6736,16.7865,523.6104],[38.6555,16.7744,557.4338],[38.6175,16.744,919.4895],[38.6033,16.7285,1031.5129],[38.5914,16.7196,856.7391],[38.5796,16.7067,995.0427],[38.5663,16.6885,750.422],[38.5484,16.6407,939.3081],[38.5473,16.6182,1279.5945],[38.5557,16.5606,1217.5281],[38.5604,16.5369,1163.0748],[38.5731,16.5013,1067.5068],[38.5743,16.4902,1029.4104],[38.5731,16.4601,983.7231],[38.5689,16.4457,971.7538],[38.562,16.4338,1339.7856],[38.5315,16.4166,1457.3048],[38.491,16.3887,1609.7294],[38.4808,16.3788,1715.948],[38.4662,16.3719,2080.1001],[38.4451,16.3583,1987.5515],[38.4298,16.3413,1803.8326],[38.4044,16.3186,1595.4159],[38.407,16.3132,1583.7117],[38.4416,16.2926,1444.5554],[38.4461,16.2865,1436.5999],[38.4504,16.2698,1677.1748],[38.4719,16.2067,1937.842],[38.4751,16.1883,1646.0264],[38.4724,16.1648,1983.0265],[38.4693,16.1582,2041.9122],[38.4589,16.139,1832.8293],[38.4441,16.125,1581.6049],[38.4372,16.1152,1538.2573],[38.434,16.1073,1381.5977],[38.4299,16.0904,1485.958],[38.4265,16.0585,1795.5713],[38.4256,16.0434,1603.3611],[38.4288,16.0247,1260.6201],[38.4143,16.0118,1226.0192],[38.4098,16.0014,1313.3422],[38.4113,15.9936,1254.9753],[38.4135,15.9923,1241.2211],[38.4257,15.9941,1291.0928],[38.4301,15.9898,1319.1448],[38.4315,15.9653,1272.9912],[38.4368,15.96,1377.6338],[38.4524,15.9674,1428.116],[38.4582,15.9676,1408.9564],[38.491,15.9569,1517.8031],[38.5121,15.942,1462.6014],[38.5276,15.9218,1621.7676],[38.5462,15.8764,1761.6571],[38.5501,15.8716,1714.6],[38.5558,15.8701,1882.1052],[38.5699,15.8747,1637.2874],[38.5803,15.8721,1715.4286],[38.5931,15.8737,1684.6129],[38.5964,15.8719,1624.6886],[38.6011,15.8641,1766.7224],[38.6079,15.8613,1875.5594]]],
[[[39.1688,16.5299,0.5749],[39.1635,16.5299,0.796],[39.161,16.526,0.0],[39.1654,16.5221,0.7812],[39.1682,16.5224,0.0],[39.1707,16.5265,1.2771],[39.1688,16.5299,0.5749]]],
[[[39.1596,16.5354,0.8274],[39.1582,16.5357,0.0],[39.1574,16.5271,0.4742],[39.1607,16.5271,1.4299],[39.1624,16.5301,0.796],[39.1621,16.5332,0.0],[39.1596,16.5354,0.8274]]],
[[[39.1532,16.6221,0.0],[39.1515,16.6226,0.0],[39.1526,16.6115,0.3543],[39.1507,16.606,0.6777],[39.1529,16.606,1.3214],[39.1568,16.6113,0.0],[39.1565,16.616,0.2398],[39.1532,16.6221,0.0]]]]}}