{"type":"Feature","properties":{"GID_2":"ERI.4.13_1","GID_0":"ERI","country":"Eritrea","GID_1":"ERI.4_1","province":"GashBarka","NL_NAME_1":"ዞባጋሽባርካ","county":"Teseneye","VARNAME_2":"Teseney","NL_NAME_2":"NA","TYPE_2":"District","ENGTYPE_2":"District","CC_2":"NA","HASC_2":"ER.GS.TE","name":"Teseneye.county"},
"geometry":{"type": "MultiPolygon","coordinates": [[[[36.5605,15.2806,560.2936],[36.5527,15.2618,559.3109],[36.5484,15.2395,556.9286],[36.5416,15.228,558.4167],[36.5255,15.2159,549.2142],[36.5137,15.212,550.384],[36.4974,15.2136,547.1615],[36.4858,15.209,550.526],[36.4777,15.2035,550.1002],[36.4711,15.1975,549.7826],[36.4388,15.1566,548.9642],[36.4496,15.1004,548.7733],[36.4538,15.0657,558.0709],[36.4762,15.055,564.6829],[36.5001,15.0462,570.5415],[36.577,15.0324,578.3593],[36.6067,15.0298,584.8358],[36.6541,15.0276,606.9192],[36.7044,15.0294,625.5717],[36.7563,15.027,643.7571],[36.7736,15.0272,645.73],[36.7953,15.03,658.967],[36.8935,15.0295,702.9323],[36.9203,15.0316,732.7151],[36.9456,15.0308,843.7224],[36.9281,15.0407,746.6534],[36.9185,15.0556,741.595],[36.9065,15.066,739.0658],[36.8937,15.0738,841.5939],[36.8801,15.0757,707.0262],[36.8613,15.0968,660.7249],[36.8188,15.1321,630.8114],[36.8089,15.143,624.5897],[36.8022,15.1481,620.1361],[36.8003,15.1516,619.0916],[36.8002,15.2197,640.3548],[36.79,15.2461,662.8704],[36.7926,15.2679,675.2031],[36.7923,15.2846,690.5527],[36.7821,15.3155,866.4604],[36.7789,15.3364,805.842],[36.7795,15.3536,865.9214],[36.7823,15.3699,869.2031],[36.7696,15.3688,790.2663],[36.7438,15.3535,1013.6469],[36.6994,15.3308,625.2749],[36.611,15.2928,569.911],[36.5605,15.2806,560.2936]]]]}}