{"type": "Feature","id": "1565","bbox": [40.35369,12.36002,43.12387,14.95539],"geometry": {"type": "Polygon","coordinates": [[[43.11769,12.70791,1.8826],[43.12387,12.71532,0.0],[43.09718,12.76252,0.0],[43.09457,12.77753,0.0],[43.09327,12.80777,0.0],[43.08644,12.82087,0.0],[43.07618,12.82876,0.4543],[43.06365,12.83637,0.4089],[43.05323,12.84488,0.4698],[43.04884,12.85529,0.4348],[43.04314,12.86563,0.3776],[43.02947,12.87885,0.0],[43.00099,12.9003,0.6662],[42.99586,12.8933,0.0],[42.9935,12.88459,0.7161],[42.99488,12.8749,0.814],[43.00099,12.86494,0.9859],[42.99147,12.85961,0.2401],[42.98951,12.85407,1.3056],[42.98992,12.84736,1.7521],[42.98732,12.8382,0.0693],[42.97804,12.82396,0.0],[42.96632,12.81094,0.9817],[42.96323,12.81045,0.8586],[42.94459,12.79849,0.713],[42.94565,12.79731,0.713],[42.93572,12.79194,0.8218],[42.92799,12.78974,0.0],[42.91847,12.79047,0.0],[42.92742,12.80585,4.3689],[42.93214,12.81094,0.0],[42.89625,12.81318,0.0],[42.86891,12.82136,1.2995],[42.84929,12.83784,1.4553],[42.83579,12.86494,0.0],[42.82154,12.85932,0.0],[42.80844,12.85228,0.0],[42.79542,12.84837,0.0],[42.78126,12.85187,0.0],[42.77394,12.86213,0.0],[42.77019,12.87816,0.0],[42.76759,12.90648,0.8684],[42.76368,12.92524,0.5747],[42.74724,12.96174,0.0],[42.73764,13.01773,14.0091],[42.72975,13.03315,8.7381],[42.71827,13.04401,2.0725],[42.7046,13.05402,0.0],[42.68824,13.06135,0.0],[42.6683,13.06415,0.6774],[42.65545,13.07233,2.7335],[42.62045,13.12934,0.8142],[42.57008,13.17097,1.4795],[42.56219,13.18399,1.0216],[42.55991,13.19432,1.1428],[42.55445,13.19965,0.0],[42.5477,13.20327,0.0],[42.54176,13.2082,1.2821],[42.5381,13.21772,49.3949],[42.53777,13.22626,0.0],[42.53395,13.23257,0.0],[42.52068,13.2355,0.0],[42.51441,13.22004,0.0],[42.5075,13.20698,0.0],[42.49594,13.1979,0.0],[42.47682,13.19453,0.0],[42.43133,13.19839,7.4696],[42.41017,13.20458,0.0],[42.37941,13.22264,1.063],[42.3768,13.22549,1.1643],[42.3777,13.23005,1.0679],[42.37233,13.27863,0.8093],[42.35808,13.30248,0.9965],[42.34254,13.41812,1.6795],[42.33522,13.44351,2.9439],[42.32545,13.45458,1.6216],[42.31479,13.461,1.8046],[42.30592,13.47614,1.9309],[42.29469,13.50922,1.4332],[42.29477,13.54995,1.0305],[42.28842,13.57461,0.0],[42.27036,13.5856,0.0],[42.25587,13.59199,1.1644],[42.219,13.6402,0.0],[42.18483,13.66747,0.0],[42.17164,13.66718,0.0],[42.16236,13.6623,0.0],[42.15992,13.65656,0.0],[42.16774,13.65379,0.9546],[42.18922,13.65274,0.0],[42.20631,13.64387,0.0],[42.21974,13.63255,0.1465],[42.219,13.606019999999999,0.0],[42.21559,13.60566,0.0],[42.20167,13.60639,1.7045],[42.1985,13.606019999999999,0.0],[42.19874,13.5987,0.0],[42.20143,13.59516,0.0],[42.2046,13.59349,0.0],[42.20655,13.59174,0.0],[42.20997,13.58576,0.0],[42.22429,13.56761,0.0],[42.2295,13.56387,0.0],[42.23024,13.56,0.0],[42.22389,13.55394,0.584],[42.21599,13.55386,1.9774],[42.21217,13.56757,0.0],[42.20802,13.56855,1.038],[42.18483,13.5856,2.5353],[42.18084,13.59414,2.591],[42.17514,13.61725,0.9521],[42.17115,13.62653,0.0],[42.16456,13.63239,0.0],[42.14731,13.64411,9.6074],[42.14381,13.65038,1.1049],[42.1395,13.65119,0.0],[42.12924,13.64558,0.0],[42.11695,13.64077,0.0],[42.10662,13.64354,0.0],[42.09962,13.65436,2.0944],[42.0936,13.67646,0.0],[42.0892,13.68797,0.0],[42.08676,13.68952,0.7226],[42.07781,13.69343,7.7296],[42.07553,13.69477,11.6914],[42.0687,13.70844,11.4671],[42.04575,13.739,1.1481],[42.04135,13.73916,2.6028],[42.03492,13.75226,1.2728],[41.99366,13.7836,7.5378],[41.98894,13.79877,10.2441],[41.98601,13.81948,10.208],[41.98097,13.8378,0.0],[41.96974,13.84565,3.0984],[41.9568,13.85053,3.7314],[41.92156,13.87311,0.0],[41.90431,13.87979,0.0],[41.89649,13.87881,0.0],[41.87428,13.8732,0.0],[41.86329,13.87295,0.0],[41.84897,13.87617,4.5038],[41.84156,13.88032,7.5379],[41.82545,13.8968,4.6244],[41.806,13.92967,0.0],[41.79811,13.93439,0.0],[41.78566,13.93281,0.0],[41.75343,13.92072,0.0],[41.74008,13.92154,0.0],[41.67652,13.94025,5.303],[41.66782,13.95515,4.821],[41.65724,13.99649,2.446],[41.62094,14.06363,3.1918],[41.60597,14.08177,3.0584],[41.58863,14.09618,2.9931],[41.55543,14.11591,6.7634],[41.54176,14.12617,4.8288],[41.53346,14.13695,5.3659],[41.52898,14.14883,5.6235],[41.52133,14.18138,2.7058],[41.5145,14.1992,0.0],[41.50587,14.21345,1.2203],[41.47967,14.24287,9.1806],[41.4336,14.28213,10.0052],[41.41277,14.30655,3.9384],[41.39967,14.34667,5.6635],[41.38103,14.3688,7.6738],[41.37664,14.37629,6.8255],[41.36899,14.38475,6.5596],[41.35239,14.39216,9.8492],[41.33595,14.402,10.0128],[41.3283,14.41763,8.3119],[41.32252,14.45454,7.8086],[41.30681,14.48892,3.7033],[41.28297,14.51756,6.5248],[41.25318,14.53767,3.8602],[41.20875,14.5681,6.6377],[41.19565,14.58511,8.515],[41.17954,14.62177,3.0378],[41.16749,14.63695,0.0],[41.1561,14.64159,0.0],[41.04021,14.66743,1.7921],[40.97267,14.66962,2.6085],[40.94467,14.67731,7.091],[40.91391,14.69912,2.8263],[40.88445,14.71454,2.7414],[40.83107,14.71223,1.2763],[40.80812,14.72207,0.0],[40.80812,14.70283,6.1112],[40.79689,14.70677,1.5557],[40.78663,14.70604,0.0],[40.77703,14.70181,1.2455],[40.76645,14.6953,10.0027],[40.76637,14.71459,1.5826],[40.75799,14.72602,1.7328],[40.73243,14.74372,1.0635],[40.72389,14.75707,0.9737],[40.72413,14.76826,0.7355],[40.73243,14.79096,11.8131],[40.73373,14.81818,12.1229],[40.73243,14.82567,11.8659],[40.72739,14.83413,12.36],[40.72267,14.83592,13.0555],[40.71925,14.83417,11.7942],[40.71876,14.83185,12.7365],[40.67091,14.88032,1.7409],[40.67709,14.88715,3.2396],[40.69272,14.8819,0.0],[40.69744,14.8874,0.0],[40.69451,14.89623,3.4138],[40.68767,14.90082,1.2759],[40.66041,14.90257,1.6283],[40.65203,14.89712,0.0],[40.65659,14.88032,0.7537],[40.6277,14.89199,0.0],[40.62428,14.90009,0.2081],[40.62062,14.93928,1.2964],[40.61638,14.94868,1.5797],[40.6067,14.95295,0.1114],[40.58839,14.95539,0.0],[40.57936,14.95441,0.0],[40.57374,14.95148,4.8724],[40.57234,14.95121,11.9696],[40.57234,14.95121,11.9696],[40.57125,14.94454,28.3961],[40.57327,14.91322,7.5145],[40.59295,14.81703,14.6968],[40.59543,14.776,23.1196],[40.59109,14.73879,23.3278],[40.57575,14.70153,11.3032],[40.48666,14.57805,76.9025],[40.43637,14.47059,-29.6284],[40.36439,14.3539,-114.9718],[40.35369,14.33525,-119.919],[40.35369,14.33524,-119.919],[40.42165,14.27376,-116.8913],[40.47983,14.2444,-114.5012],[40.58587,14.19469,-84.8004],[40.61409,14.1858,-61.1401],[40.70442,14.17322,116.6732],[40.77232,14.14836,111.7654],[40.8332,14.10596,200.3515],[40.93779,13.98992,377.5059],[41.04362,13.87249,539.5896],[41.12134,13.73818,366.1807],[41.19204,13.61586,156.2349],[41.22222,13.58661,139.1027],[41.35709,13.50228,218.2007],[41.53073,13.39378,654.042],[41.63553,13.30934,1418.3167],[41.7118,13.24793,952.8257],[41.75076,13.20832,709.762],[41.78477,13.16457,419.76],[41.8166,13.11279,275.9541],[41.89432,12.94797,241.675],[41.94662,12.87617,389.477],[42.02465,12.82697,479.2678],[42.0817,12.80392,490.0983],[42.1373,12.77333,493.5566],[42.18495,12.73305,562.2094],[42.25016,12.62399,532.2877],[42.33171,12.51546,824.1167],[42.37946,12.46591,1362.7826],[42.43093,12.52032,853.7125],[42.4485,12.52337,765.0105],[42.47568,12.51634,727.0243],[42.52157,12.49624,655.7148],[42.67825,12.36002,510.4346],[42.69148,12.37883,472.0163],[42.69619,12.38013,471.5742],[42.72776,12.38881,438.2069],[42.7414,12.40808,427.4165],[42.74988,12.41707,403.8575],[42.77974,12.4226,374.6761],[42.79225,12.42916,364.4964],[42.79804,12.45609,337.8339],[42.78874,12.48746,321.0981],[42.78522,12.51722,316.163],[42.82884,12.55763,270.8324],[42.85209,12.61174,155.7779],[42.86884,12.62616,141.9212],[42.87772,12.62507,134.7418],[42.89013,12.61541,128.2913],[42.90036,12.61639,118.9135],[43.11769,12.70791,1.8826]]]}
,"properties": {"ISO3166-1-Alpha-3": "ERI","country": "Eritrea","fill": "#00F","name": "Debubawi Keyih Bahri","area_km2": 22493.44,"hist_schema_id": "Elevation0-9000","hist_area_km2": {"-75": 207.75,"-50": 98.42,"-25": 136.61,"0": 1598.88,"25": 1654.32,"50": 1073.42,"75": 851.03,"100": 813.11,"125": 723.34,"150": 722.24,"175": 669.31,"200": 632.89,"225": 644.85,"250": 652.33,"275": 687.95,"300": 726.2,"325": 750.23,"350": 801.04,"375": 766.39,"400": 710.59,"425": 678.74,"450": 762.93,"475": 751.89,"500": 616.71,"525": 521.11,"550": 430.29,"575": 375.49,"600": 326.59,"625": 357.61,"650": 326.32,"675": 280.75,"700": 245.58,"725": 229.21,"750": 212.27,"775": 188.93,"800": 169.68,"825": 144.9,"850": 127.09,"875": 109.09,"900": 91.2,"925": 79.81,"950": 60.25,"975": 48.06,"1000": 39.25,"1025": 35.46,"1050": 27.58,"1075": 24.55,"1100": 21.46,"1125": 19.81,"1150": 17.77,"1175": 15.79,"1200": 16.12,"1225": 14.87,"1250": 13.9,"1275": 14.09,"1300": 14.58,"1325": 14.54,"1350": 16.07,"1375": 13.06,"1400": 12.77,"1425": 11.64,"1450": 11.33,"1475": 9.99,"1500": 8.79,"1525": 8.42,"1550": 7.43,"1575": 5.88,"1600": 4.91,"1625": 4.39,"1650": 3.92,"1675": 3.98,"1700": 3.9,"1725": 3.09,"1750": 2.78,"1775": 2.78,"1800": 3.2,"1825": 2.78,"1850": 1.79,"1875": 1.05,"1900": 0.87,"1925": 0.7,"1950": 0.62,"1975": 0.54,"2000": 0.41,"2025": 0.33,"2050": 0.27,"2100": 0.25}}}