{"type": "Feature","bbox": [39.3188,14.4946,39.6707,14.9265],"geometry": {"type": "MultiPolygon","coordinates": [[[[39.366,14.7412,2066.2393],[39.3546,14.7322,1853.6368],[39.3492,14.722,1862.4629],[39.3342,14.7014,2061.8079],[39.3291,14.6898,2259.5984],[39.3277,14.674,2317.0786],[39.3325,14.6574,2422.2981],[39.3279,14.6333,1784.6587],[39.3327,14.6018,1925.4347],[39.3293,14.5874,1934.0612],[39.3188,14.57,1810.4071],[39.3188,14.5578,1888.3699],[39.3219,14.5485,1923.4408],[39.3373,14.5354,1985.7411],[39.3418,14.525,2003.0652],[39.3495,14.5154,2297.584],[39.3506,14.5126,2251.9019],[39.3443,14.5094,1960.5273],[39.3534,14.505,2005.8877],[39.3647,14.4963,2267.741],[39.3711,14.4946,2358.1455],[39.3694,14.4998,2349.9895],[39.3646,14.5058,2347.23],[39.3648,14.5118,2340.9163],[39.3686,14.5187,2320.5642],[39.3677,14.5266,2301.3352],[39.3646,14.534,2082.8721],[39.3687,14.5383,2106.2988],[39.3836,14.5358,2364.5889],[39.3985,14.5382,2322.1853],[39.4122,14.531,2449.7319],[39.4282,14.5307,2285.7588],[39.4291,14.5244,2207.5498],[39.4355,14.5193,2460.0525],[39.4533,14.5269,2419.9202],[39.4521,14.5109,2612.9087],[39.4571,14.5072,2605.2637],[39.4619,14.513,2479.209],[39.4693,14.5156,2557.5879],[39.4678,14.5084,2691.8718],[39.471,14.5044,2677.8987],[39.4726,14.4983,2595.5913],[39.4789,14.499,2248.2563],[39.4851,14.5014,2334.6167],[39.4931,14.5089,2164.415],[39.5004,14.5438,2179.2305],[39.4944,14.5644,2287.436],[39.4917,14.5825,2390.2166],[39.4778,14.5976,2392.3003],[39.4775,14.6036,2521.5676],[39.4901,14.625,2357.7578],[39.4866,14.6402,2385.7166],[39.4884,14.6453,2418.2068],[39.4971,14.6543,2554.0249],[39.5027,14.677,2352.3564],[39.51,14.6718,2135.0676],[39.5158,14.6771,1889.2195],[39.5374,14.6695,1851.3398],[39.5752,14.6699,1768.8733],[39.5912,14.6621,1731.6128],[39.6058,14.6471,1429.3571],[39.6227,14.6359,1462.6473],[39.6288,14.6088,1443.8213],[39.6317,14.6053,1288.353],[39.6323,14.6128,1200.8015],[39.638,14.6304,1760.0508],[39.6377,14.6508,1746.6765],[39.6329,14.6632,2036.6322],[39.6238,14.6751,1788.7085],[39.6238,14.6834,1815.6771],[39.6322,14.7041,2420.1394],[39.6329,14.717,2052.2495],[39.6364,14.7222,1897.7883],[39.6477,14.732,2042.4841],[39.6523,14.7421,1569.9396],[39.6535,14.7809,1448.6681],[39.6566,14.788,1593.3328],[39.667,14.8006,1919.792],[39.6685,14.8096,2007.7643],[39.6623,14.8192,1654.344],[39.6707,14.8367,1906.5336],[39.666,14.8424,1865.2825],[39.639,14.8565,1685.4631],[39.6327,14.8727,1915.7114],[39.6272,14.8823,2004.5189],[39.625,14.8818,2105.7729],[39.6203,14.8677,1924.6025],[39.6076,14.8716,2431.8481],[39.5943,14.8715,2335.728],[39.5881,14.8735,2047.4893],[39.5838,14.8858,1558.5425],[39.5768,14.8976,1616.981],[39.5719,14.9199,1448.5999],[39.5691,14.9239,1494.229],[39.5601,14.9265,1946.2177],[39.5422,14.9232,1776.7206],[39.5359,14.9133,1603.7628],[39.5271,14.9059,1286.6266],[39.5159,14.8897,1447.3455],[39.5164,14.8634,1440.7449],[39.5109,14.8475,1465.8623],[39.4992,14.826599999999999,1605.5193],[39.4984,14.81,1941.5345],[39.4941,14.7908,1943.7791],[39.4919,14.7693,2037.996],[39.4891,14.7595,2029.8947],[39.4819,14.7466,2102.9243],[39.4694,14.7435,2233.0454],[39.4621,14.7441,2151.5396],[39.4265,14.7496,2403.3416],[39.4,14.7584,2418.0786],[39.3901,14.7597,2309.1113],[39.3858,14.7589,2232.7554],[39.3783,14.7542,2458.0981],[39.366,14.7412,2066.2393]]]]}
,"properties": {"GID_2": "ERI.5.10_1","GID_0": "ERI","country": "Eritrea","GID_1": "ERI.5_1","province": "Debub","NL_NAME_1": "ዞባደቡብ","county": "Senafe","VARNAME_2": "Sen`afe","NL_NAME_2": "NA","TYPE_2": "District","ENGTYPE_2": "District","CC_2": "NA","HASC_2": "ER.AG.SF","name": "Senafe.county","area_km2": 849.5603,"hist_schema_id": "Elevation0-9000","hist_area_km2": {"1125": 0.1025,"1150": 0.492,"1175": 0.5741,"1200": 1.0047,"1225": 1.2918,"1250": 1.4353,"1275": 2.0705,"1300": 2.3577,"1325": 2.5627,"1350": 2.9114,"1375": 3.4035,"1400": 3.7723,"1425": 4.0184,"1450": 4.4485,"1475": 5.0844,"1500": 6.2935,"1525": 5.8838,"1550": 6.9697,"1575": 7.052,"1600": 8.651,"1625": 8.7124,"1650": 8.6919,"1675": 8.8969,"1700": 9.2658,"1725": 9.6548,"1750": 10.229,"1775": 10.9672,"1800": 14.1876,"1825": 17.4694,"1850": 17.2033,"1875": 18.1063,"1900": 17.9423,"1925": 17.8808,"1950": 18.7005,"1975": 17.4293,"2000": 16.4252,"2025": 15.954,"2050": 18.0059,"2075": 18.1095,"2100": 17.5556,"2125": 19.4015,"2150": 19.8537,"2175": 22.6242,"2200": 24.9021,"2225": 25.2922,"2250": 26.256,"2275": 23.0357,"2300": 21.5378,"2325": 27.5498,"2350": 36.328,"2375": 45.4546,"2400": 36.6348,"2425": 28.7575,"2450": 16.7358,"2475": 13.2491,"2500": 12.8396,"2525": 11.3423,"2550": 9.3322,"2575": 7.4448,"2600": 6.4599,"2625": 6.07,"2650": 7.5669,"2675": 6.9107,"2700": 7.2799,"2725": 6.5004,"2750": 4.2242,"2775": 2.9322,"2800": 2.3376,"2825": 2.03,"2850": 2.1119,"2875": 1.4148,"2900": 1.3737,"2925": 0.7996,"2950": 0.8406,"2975": 0.328,"3000": 0.041}}}