{"type":"Feature","properties":{"GID_2":"ERI.1.2_1","GID_0":"ERI","country":"Eritrea","GID_1":"ERI.1_1","province":"Maekel","NL_NAME_1":"ዞባማእከል","county":"Berikh","VARNAME_2":"NA","NL_NAME_2":"NA","TYPE_2":"District","ENGTYPE_2":"District","CC_2":"NA","HASC_2":"ER.MA.BE","name":"Berikh.county"},
"geometry":{"type": "MultiPolygon","coordinates": [[[[38.7343,15.3019,2186.7544],[38.7899,15.2767,2224.3774],[38.8113,15.2747,2238.1772],[38.8171,15.2724,2233.887],[38.8211,15.2679,2202.9136],[38.825,15.2662,2215.7847],[38.8301,15.2668,2250.0645],[38.8412,15.272,2269.2483],[38.8512,15.2714,2264.3018],[38.8745,15.2593,2286.9106],[38.888,15.2544,2293.0911],[38.8862,15.2647,2298.7266],[38.8873,15.2717,2301.5068],[38.8894,15.2775,2311.292],[38.8977,15.2899,2317.5725],[38.9054,15.3109,2311.7527],[38.9079,15.3329,2317.0879],[38.9066,15.354,2321.793],[38.9095,15.3714,2345.5513],[38.8989,15.3769,2340.8403],[38.8954,15.3831,2346.6094],[38.8933,15.3995,2296.8367],[38.8987,15.4093,2338.7217],[38.8983,15.4178,2353.9553],[38.8962,15.4211,2321.5225],[38.879,15.4346,2346.5269],[38.8747,15.4398,2354.0635],[38.8713,15.4465,2344.5122],[38.87,15.4586,2318.364],[38.8649,15.4596,2334.075],[38.8575,15.4538,2326.667],[38.845,15.4498,2255.3049],[38.8358,15.443,2250.0508],[38.8223,15.4444,2265.1921],[38.8215,15.4409,2205.5181],[38.8197,15.4408,2216.8423],[38.808,15.4569,2164.5359],[38.8022,15.4614,2156.2432],[38.7944,15.463,1928.283],[38.793,15.4681,2115.5334],[38.7884,15.4692,2124.6802],[38.7813,15.4744,2103.5955],[38.7586,15.4983,1969.8694],[38.7474,15.4961,1827.447],[38.7475,15.4931,1802.6729],[38.7512,15.4924,1870.0116],[38.752,15.4901,1821.9473],[38.7451,15.4786,1923.3085],[38.752,15.473,1872.121],[38.7565,15.4732,1879.876],[38.7598,15.4709,1910.0797],[38.7619,15.4607,1907.4185],[38.7604,15.4581,1930.9248],[38.7555,15.4587,1949.5918],[38.7541,15.4552,2007.2983],[38.7588,15.4476,1937.7122],[38.7615,15.4303,1958.7499],[38.7667,15.4255,1985.339],[38.7688,15.4181,2030.3293],[38.7665,15.4128,1996.557],[38.7605,15.4084,2081.1035],[38.7584,15.3995,2039.1094],[38.7495,15.3934,2072.397],[38.7411,15.3796,2128.6733],[38.741,15.3768,2128.3672],[38.7456,15.3671,2174.5635],[38.7434,15.3604,2191.0737],[38.7459,15.3507,2286.5708],[38.7443,15.3357,2246.7781],[38.7469,15.3275,2194.1714],[38.7502,15.325,2235.0383],[38.7548,15.3164,2268.146],[38.761,15.3128,2257.8481],[38.7629,15.3095,2232.7751],[38.7615,15.3072,2230.55],[38.7554,15.3081,2294.6716],[38.7509,15.3066,2298.1919],[38.7489,15.3075,2250.6074],[38.7465,15.3118,2234.4224],[38.74,15.3092,2259.8672],[38.7286,15.3137,2246.6829],[38.727,15.3115,2270.4658],[38.7276,15.3088,2263.9043],[38.7294,15.3058,2194.0449],[38.7338,15.3041,2206.835],[38.7343,15.3019,2186.7544]]]]}}