{"type":"Feature","properties":{"GID_2":"ERI.6.6_1","GID_0":"ERI","country":"Eritrea","GID_1":"ERI.6_1","province":"Anseba","NL_NAME_1":"ዞባዓንሰባ","county":"Hagaz","VARNAME_2":"NA","NL_NAME_2":"NA","TYPE_2":"District","ENGTYPE_2":"District","CC_2":"NA","HASC_2":"ER.SN.HZ","name":"Hagaz.county"},
"geometry":{"type": "MultiPolygon","coordinates": [[[[38.461,15.7491,1436.6166],[38.4465,15.7507,1543.0371],[38.4365,15.7538,1395.5869],[38.4238,15.7634,1287.3391],[38.414,15.7775,1490.5632],[38.4054,15.7815,1755.1749],[38.3866,15.7828,1661.41],[38.3596,15.7954,1658.3378],[38.3494,15.8047,1767.4279],[38.3433,15.8149,1733.449],[38.3354,15.837,1780.1102],[38.3333,15.8488,1631.829],[38.3346,15.8502,1631.829],[38.3234,15.8582,1576.2113],[38.3061,15.8669,1761.1461],[38.2484,15.8933,1695.8634],[38.2178,15.9018,1720.9298],[38.1887,15.9052,1882.7786],[38.1613,15.9109,1485.5936],[38.1418,15.9125,1482.3112],[38.0786,15.9297,1707.0654],[38.0383,15.9358,1790.7009],[38.0114,15.9455,1658.7378],[38.0014,15.9467,1528.5427],[37.9952,15.9374,1628.1824],[37.9881,15.905,1630.9381],[37.9873,15.8676,1781.9961],[37.9822,15.8412,1514.4224],[37.9753,15.8224,1469.3264],[37.9823,15.8166,1263.1138],[37.9909,15.8042,1475.6787],[37.9945,15.8023,1488.2059],[38.0142,15.8009,1780.9954],[38.0248,15.7788,1616.2926],[38.0351,15.7473,1302.0332],[38.0406,15.7389,928.3882],[38.0461,15.7387,802.5547],[38.0579,15.7483,794.7687],[38.0797,15.7599,1050.6212],[38.1172,15.774,799.3484],[38.1323,15.774,870.3419],[38.1414,15.7705,822.2343],[38.1553,15.7632,830.8844],[38.1675,15.7513,841.175],[38.1797,15.7336,833.6078],[38.1826,15.7136,810.6494],[38.1778,15.7077,819.7946],[38.1651,15.7041,809.6071],[38.1586,15.6998,777.1547],[38.1534,15.6921,767.0587],[38.1475,15.689,761.6978],[38.1439,15.6746,753.7314],[38.1457,15.6528,771.7815],[38.1492,15.6449,873.5087],[38.1562,15.6359,972.8047],[38.1604,15.6335,950.4756],[38.1681,15.6315,869.5928],[38.1906,15.6299,847.0964],[38.2353,15.6309,848.3487],[38.2867,15.6426,837.6554],[38.3116,15.643,850.5084],[38.3187,15.6412,842.4064],[38.3272,15.6363,838.2662],[38.3773,15.601,815.5369],[38.3978,15.5929,828.654],[38.4078,15.5921,832.8857],[38.4194,15.5882,839.0196],[38.4259,15.5801,858.7824],[38.4297,15.5793,857.1432],[38.436,15.5811,852.0758],[38.4415,15.5791,854.7234],[38.4527,15.5685,890.8015],[38.4736,15.5586,1240.399],[38.482,15.5596,1088.3081],[38.4859,15.5618,928.9732],[38.4995,15.5539,945.7168],[38.5065,15.5464,972.6154],[38.5123,15.5452,1293.8685],[38.5098,15.5704,954.4169],[38.5107,15.6007,1563.7046],[38.5081,15.6151,1577.0657],[38.5043,15.6196,1715.8101],[38.4954,15.6265,1838.5984],[38.4769,15.6334,1909.9026],[38.4686,15.639099999999999,1432.2361],[38.457,15.639099999999999,1006.7959],[38.4299,15.6492,1303.4426],[38.4255,15.6561,1623.3374],[38.4223,15.6693,1631.553],[38.415,15.6716,1574.8794],[38.3963,15.672,1577.7705],[38.3849,15.6785,1395.5283],[38.3843,15.6842,1061.0452],[38.3867,15.6876,1012.8847],[38.4036,15.6982,1399.7535],[38.4547,15.7416,1261.0522],[38.461,15.7491,1436.6166]]]]}}