{"type":"Feature","properties":{"ISO3166-1-Alpha-3":"ERI","country":"Eritrea","fill":"#FF0","id":"1560","name":"Gash Barka"},
"geometry":{"type": "Polygon","coordinates": [[[37.55112,15.84616,505.744],[37.53603,15.8512,503.9477],[37.52906,15.85836,550.963],[37.52968,15.86797,691.6098],[37.52813,15.87702,548.8085],[37.52053,15.88722,498.7448],[37.50193,15.89887,472.2757],[37.47165,15.91141,461.3763],[37.43707,15.92151,441.286],[37.41733,15.93562,431.4032],[37.40075,15.95926,427.6738],[37.38199,16.00158,412.8198],[37.3517,16.04664,407.8647],[37.31352,16.08385,419.8553],[37.25145,16.12023,429.4175],[37.20024,16.13708,452.999],[37.10655,16.1586,457.1059],[37.08371,16.16687,475.8164],[37.06991,16.1749,537.8128],[37.06309,16.18467,824.4403],[37.04914,16.21578,718.5946],[37.04092,16.22705,532.3655],[37.0325,16.23557,536.6585],[37.02366,16.24216,584.4154],[37.01622,16.24919,587.509],[37.00909,16.25927,568.1284],[37.00258,16.27474,576.9636],[36.99607,16.29963,566.1672],[36.9894,16.35518,538.3202],[36.98305,16.3814,709.6359],[36.97483,16.40298,868.2388],[36.95509,16.43088,837.3129],[36.92731,16.43539,668.2517],[36.93369,16.41807,707.7781],[36.93318,16.4004,659.4518],[36.92966,16.38246,650.653],[36.92822,16.36112,676.2819],[36.93338,16.34009,746.7335],[36.95157,16.29957,639.1823],[36.95426,16.27828,629.5259],[36.94403,16.25286,588.193],[36.90217,16.211,614.9492],[36.88594,16.18485,557.5753],[36.85266,16.09364,542.4019],[36.8075,15.96931,572.5447],[36.75954,15.83748,636.5184],[36.73267,15.79475,667.9039],[36.68327,15.74519,637.8569],[36.67097,15.72312,649.7109],[36.61671,15.53153,1012.9619],[36.61413,15.48926,678.2001],[36.62787,15.44562,718.2458],[36.59511,15.42433,572.1696],[36.57558,15.39343,556.8889],[36.52493,15.24791,552.0104],[36.50674,15.22034,546.0859],[36.43316,15.15086,550.9343],[36.42509,15.13344,542.0462],[36.42365,15.11151,541.9214],[36.43512,15.01663,550.2553],[36.45548,14.84907,557.2595],[36.4622,14.79377,557.1323],[36.47398,14.6968,570.213],[36.48917,14.57123,585.2888],[36.50426,14.44734,592.3941],[36.52638,14.26352,570.072],[36.54571,14.26316,574.552],[36.55304,14.28277,563.0383],[36.56565,14.29293,578.1855],[36.5825,14.29675,580.3688],[36.60379,14.29732,579.4883],[36.61764,14.30045,582.3286],[36.64854,14.31458,577.5728],[36.66859,14.31778,590.4836],[36.71366,14.31778,594.4575],[36.72213,14.32006,609.3713],[36.73836,14.3298,600.0021],[36.74807,14.33207,594.6023],[36.81639,14.33207,623.8034],[36.84853,14.32778,618.6058],[36.91375,14.30902,618.4959],[36.94692,14.30474,677.8354],[36.95281,14.30096,628.9999],[36.9709,14.27683,675.7299],[36.97886,14.27112,663.9412],[36.98671,14.26683,655.5759],[36.9954,14.26409,617.5667],[37.00563,14.26316,632.4874],[37.01152,14.26507,645.4003],[37.02609,14.27683,700.7733],[37.03426,14.2775,744.3965],[37.05245,14.27533,692.3479],[37.0602,14.27683,700.7483],[37.0727,14.2853,822.2253],[37.08345,14.29773,735.3999],[37.091,14.31422,821.035],[37.09379,14.33517,738.044],[37.09441,14.35915,714.5223],[37.09782,14.37951,676.8204],[37.10588,14.39923,724.2577],[37.12107,14.42083,678.3563],[37.1497,14.44194,707.5751],[37.18422,14.44956,704.7049],[37.25822,14.44811,785.8824],[37.28003,14.45545,691.8798],[37.29377,14.45744,694.2621],[37.31817,14.43713,687.1929],[37.33708,14.42636,700.2152],[37.37491,14.37303,683.8787],[37.3902,14.35817,700.0084],[37.39403,14.35008,894.1455],[37.39547,14.33517,811.9252],[37.39496,14.31238,752.6718],[37.39775,14.30174,705.5575],[37.41222,14.2936,868.0929],[37.45263,14.26058,726.2337],[37.45697,14.25461,706.2516],[37.46431,14.23582,742.3333],[37.46937,14.21081,732.2371],[37.47537,14.19957,827.8373],[37.48818,14.1949,857.1287],[37.49852,14.19309,726.4547],[37.50875,14.18813,733.9601],[37.5165,14.18056,812.0853],[37.5195,14.171,777.1093],[37.52063,14.14544,716.0089],[37.52529,14.12883,721.9385],[37.53572,14.11684,723.634],[37.55371,14.1055,723.874],[37.56497,14.11668,844.1042],[37.60104,14.20092,1002.6119],[37.65851,14.33517,1066.6633],[37.72124,14.48175,1004.1041],[37.78563,14.63218,1049.5618],[37.85064,14.78388,996.4175],[37.89146,14.87953,925.5172],[37.90883,14.86473,1025.1467],[37.92092,14.84752,1125.6356],[37.94004,14.81088,994.6322],[37.94438,14.80734,988.7489],[37.9541,14.80625,980.0303],[37.95761,14.80284,977.4686],[37.95813,14.79876,965.5082],[37.95782,14.78819,965.3621],[37.95844,14.78509,974.5554],[37.96226,14.77786,976.7031],[37.96443,14.77119,997.0941],[37.96877,14.76639,1010.2081],[37.98004,14.76455,1210.5162],[37.98986,14.75732,1199.8807],[37.99203,14.74951,1080.0303],[37.99275,14.74076,1124.3497],[37.99843,14.73091,1144.9365],[38.0067,14.7244,1002.4207],[38.11522,14.68102,1270.1932],[38.13331,14.67776,1023.379],[38.19026,14.68732,1022.7324],[38.21393,14.68587,1056.7024],[38.22932,14.67973,1064.0786],[38.23956,14.66756,1079.661],[38.24584,14.65247,1155.639],[38.25775,14.68014,1029.337],[38.25294,14.71644,1174.8918],[38.22147,14.78401,1471.4122],[38.21475,14.81261,1349.9358],[38.21289,14.83597,1212.7222],[38.21636,14.85387,1180.9944],[38.23542,14.89056,1160.9513],[38.24969,14.93038,1191.9908],[38.25914,14.94353,1326.5898],[38.27718,14.95935,1384.9501],[38.29935,14.97206,1530.907],[38.33676,14.98653,1779.4324],[38.35025,14.99803,1725.4916],[38.36513,15.0166,1619.8538],[38.3872,15.05309,1442.0178],[38.42533,15.09443,1100.7476],[38.44352,15.10546,1304.9791],[38.45841,15.11146,1329.6208],[38.47298,15.11445,1391.915],[38.56223,15.12094,1755.3494],[38.64863,15.1413,1807.343],[38.68945,15.15814,2025.9172],[38.72144,15.16303,2090.657],[38.78815,15.15561,2025.2701],[38.78629,15.5568,2236.6592],[38.68387,15.54487,1806.4324],[38.50078,15.55011,948.5151],[38.46755,15.55833,938.3422],[38.44647,15.57321,871.8153],[38.41898,15.6252,992.4744],[38.39231,15.66028,1053.5067],[38.35893,15.69201,946.939],[38.31175,15.72188,923.2256],[38.27857,15.73149,901.2037],[38.25155,15.73222,863.4702],[38.22721,15.72444,829.618],[38.17165,15.69798,797.0826],[38.15021,15.69033,762.5917],[38.12494,15.68832,740.554],[38.1068,15.69426,747.2092],[38.00918,15.7579,1307.7166],[37.95162,15.78273,903.166],[37.91901,15.79237,760.2992],[37.8925,15.79586,747.8463],[37.85757,15.79679,748.6812],[37.83493,15.80121,839.6287],[37.81395,15.81188,710.5557],[37.78574,15.83136,717.6379],[37.75034,15.84841,628.261],[37.72243,15.85513,606.0315],[37.69447,15.85547,606.5571],[37.62388,15.84655,558.2169],[37.55112,15.84616,505.744]]]}}