{"type": "Feature","bbox": [36.4388,14.2495,38.7684,16.2843],"geometry": {"type": "MultiPolygon","coordinates": [[[[38.514,15.5456,1021.6599],[38.5112,15.5448,1283.1646],[38.5065,15.5464,972.6154],[38.4995,15.5539,945.7168],[38.4859,15.5618,928.9732],[38.482,15.5596,1088.3081],[38.4736,15.5586,1240.399],[38.4527,15.5685,890.8015],[38.4415,15.5791,854.7234],[38.436,15.5811,852.0758],[38.4297,15.5793,857.1432],[38.4259,15.5801,858.7824],[38.4194,15.5882,839.0196],[38.4078,15.5921,832.8857],[38.3978,15.5929,828.654],[38.3773,15.601,815.5369],[38.3272,15.6363,838.2662],[38.3187,15.6412,842.4064],[38.3116,15.643,850.5084],[38.2867,15.6426,837.6554],[38.2353,15.6309,848.3487],[38.1906,15.6299,847.0964],[38.1681,15.6315,869.5928],[38.1604,15.6335,950.4756],[38.1562,15.6359,972.8047],[38.1492,15.6449,873.5087],[38.1457,15.6528,771.7815],[38.1439,15.6746,753.7314],[38.1451,15.6819,755.0168],[38.1475,15.689,761.6978],[38.1534,15.6921,767.0587],[38.1586,15.6998,777.1547],[38.1651,15.7041,809.6071],[38.1778,15.7077,819.7946],[38.1826,15.7136,810.6494],[38.1797,15.7336,833.6078],[38.172,15.7464,844.4081],[38.1582,15.7606,847.137],[38.1497,15.7663,827.0312],[38.1323,15.774,870.3419],[38.1172,15.774,799.3484],[38.0797,15.7599,1050.6212],[38.0579,15.7483,794.7687],[38.0461,15.7387,802.5547],[38.0406,15.7389,928.3882],[38.0351,15.7473,1302.0332],[38.0248,15.7788,1616.2926],[38.0142,15.8009,1780.9954],[37.9945,15.8023,1488.2059],[37.9909,15.8042,1475.6787],[37.9823,15.8166,1263.1138],[37.9717,15.8267,1506.3746],[37.96,15.8322,1059.6373],[37.9469,15.8354,937.5958],[37.9392,15.8484,920.3853],[37.9347,15.8521,896.8293],[37.9071,15.8655,848.8601],[37.8942,15.8671,826.4512],[37.8871,15.8661,766.1581],[37.8698,15.8547,756.6616],[37.8561,15.8553,698.2407],[37.8407,15.8597,788.4017],[37.8342,15.8593,991.7514],[37.8153,15.8534,1024.9053],[37.8073,15.853,1061.4584],[37.8024,15.8538,1020.5065],[37.798,15.8579,873.5285],[37.7858,15.8627,759.1616],[37.765,15.8623,653.1465],[37.7466,15.8643,623.5042],[37.7202,15.8533,610.9885],[37.7125,15.8539,677.8469],[37.6876,15.8679,633.3949],[37.6769,15.8714,717.0474],[37.6579,15.8738,570.8098],[37.6375,15.8726,571.6409],[37.6077,15.8615,538.2844],[37.5709,15.866,510.6122],[37.555,15.8656,509.5143],[37.5369,15.8741,557.4326],[37.4843,15.8903,473.7219],[37.4549,15.9043,451.8748],[37.4318,15.9177,439.8423],[37.424,15.9291,435.1762],[37.4031,15.9685,423.032],[37.396,15.9787,418.9839],[37.3786,15.9968,414.9999],[37.3155,16.0211,435.2238],[37.2668,16.0363,462.8999],[37.2628,16.0387,456.768],[37.2592,16.043,446.7571],[37.2573,16.0489,439.0778],[37.26,16.0526,436.7449],[37.2667,16.056,439.5004],[37.2867,16.0601,432.8704],[37.2891,16.0638,428.454],[37.2896,16.0693,426.7306],[37.2833,16.0762,426.6796],[37.2737,16.0804,426.7],[37.261,16.09,431.7086],[37.2215,16.1351,456.064],[37.1951,16.1609,437.9367],[37.176,16.1761,421.0237],[37.1541,16.1916,441.1775],[37.1345,16.2023,441.3425],[37.1197,16.2135,456.3043],[37.1095,16.2194,458.7211],[37.0871,16.2285,484.3376],[37.0801,16.2332,493.4601],[37.0474,16.2708,525.4361],[37.0417,16.272,540.4147],[37.0184,16.266,548.6986],[36.9825,16.2508,625.2346],[36.9771,16.2532,607.9373],[36.9772,16.2576,606.9039],[36.968,16.2634,722.971],[36.9655,16.2758,693.4431],[36.9613,16.2843,692.3279],[36.9584,16.2806,649.5818],[36.9316,16.2629,614.0519],[36.8993,16.2264,586.7276],[36.8925,16.2145,770.4548],[36.888,16.1898,556.6525],[36.8637,16.1165,538.9183],[36.8279,16.0,555.7274],[36.8202,15.9854,561.8785],[36.8155,15.9718,568.9634],[36.8164,15.9585,576.793],[36.8102,15.9416,589.2499],[36.7889,15.8999,615.5551],[36.768,15.8297,644.5865],[36.7642,15.8263,644.7054],[36.7469,15.8008,645.6451],[36.6997,15.713,665.1649],[36.6893,15.6731,675.8851],[36.6727,15.6353,675.4891],[36.6727,15.6307,666.8855],[36.6388,15.5219,868.8933],[36.6314,15.4933,1024.4133],[36.6303,15.468,857.9191],[36.6149,15.4417,588.0795],[36.6153,15.4226,578.7699],[36.6135,15.4132,578.777],[36.5888,15.3593,558.1956],[36.5813,15.3306,552.0763],[36.5527,15.2618,559.3109],[36.5484,15.2395,556.9286],[36.5416,15.228,558.4167],[36.5255,15.2159,549.2142],[36.5137,15.212,550.384],[36.4974,15.2136,547.1615],[36.4858,15.209,550.526],[36.4777,15.2035,550.1002],[36.4711,15.1975,549.7826],[36.4388,15.1566,548.9642],[36.4496,15.1004,548.7733],[36.463,14.9918,542.6579],[36.4639,14.9654,550.5176],[36.4682,14.9471,556.7575],[36.472,14.8555,560.8756],[36.4819,14.7933,561.4391],[36.5002,14.6041,584.2533],[36.5033,14.5609,593.3539],[36.5025,14.5471,581.4069],[36.5059,14.5255,586.5386],[36.5054,14.512,600.8009],[36.5108,14.4906,603.6249],[36.5108,14.4607,601.1596],[36.5198,14.4043,587.5989],[36.5198,14.3884,600.0281],[36.5233,14.3702,596.5665],[36.5231,14.3579,594.5306],[36.5269,14.3291,597.6282],[36.5377,14.3041,595.2426],[36.5436,14.2786,585.1794],[36.5483,14.2683,582.1483],[36.5582,14.2629,567.2366],[36.5609,14.2664,558.1432],[36.5527,14.2768,566.6008],[36.5583,14.2804,556.0646],[36.5781,14.287,569.946],[36.5842,14.2831,572.632],[36.5996,14.2898,574.0771],[36.6182,14.2929,584.416],[36.6213,14.3062,569.5057],[36.6288,14.3076,573.5791],[36.6512,14.3045,587.7649],[36.6858,14.2959,590.3027],[36.6909,14.2963,621.8589],[36.7118,14.3067,592.838],[36.7284,14.3098,597.038],[36.7343,14.3152,593.5909],[36.7465,14.3177,598.5242],[36.7654,14.3156,598.2673],[36.7782,14.3167,604.5078],[36.8082,14.3131,605.6695],[36.8249,14.3137,598.4585],[36.827,14.3089,607.6307],[36.8322,14.3069,609.6893],[36.8407,14.3087,614.3997],[36.8486,14.3163,600.8257],[36.8633,14.3178,613.8707],[36.8782,14.3109,633.8246],[36.8946,14.3108,628.0283],[36.9003,14.3047,621.3086],[36.9148,14.2995,643.2672],[36.9326,14.2957,635.8859],[36.9377,14.2912,623.7643],[36.9437,14.2891,625.5056],[36.9562,14.2904,620.9476],[36.9626,14.2899,631.0562],[36.9692,14.2871,662.7444],[36.9744,14.2802,635.2417],[36.9814,14.2745,633.9152],[36.9864,14.2631,656.3594],[36.9903,14.2598,730.4914],[36.9971,14.2579,658.1676],[37.0081,14.2495,700.2433],[37.0175,14.2506,624.6049],[37.0328,14.2583,642.343],[37.038,14.2642,625.9781],[37.0436,14.2664,637.1587],[37.0498,14.2661,639.0492],[37.057,14.2624,641.9785],[37.0651,14.2619,636.6767],[37.0715,14.2666,633.5587],[37.0893,14.268,639.7154],[37.0938,14.2717,629.0561],[37.096,14.2825,642.8655],[37.1007,14.2859,635.7155],[37.1034,14.2908,648.7809],[37.1028,14.3066,648.0611],[37.1047,14.3208,653.7535],[37.1004,14.3265,663.3436],[37.0996,14.3333,654.2697],[37.1084,14.3561,647.4569],[37.1135,14.3612,647.5357],[37.1138,14.3672,651.7948],[37.1221,14.3795,643.9452],[37.1288,14.399,657.7308],[37.1338,14.4054,660.1287],[37.1415,14.4063,672.387],[37.1569,14.4158,680.299],[37.1642,14.4173,653.6447],[37.1711,14.4134,696.1766],[37.1797,14.4145,673.5022],[37.1935,14.4204,689.1954],[37.1999,14.4248,677.7805],[37.212,14.4369,762.3798],[37.2269,14.4404,683.4471],[37.2383,14.4322,695.7081],[37.2479,14.4295,683.2001],[37.2533,14.4302,687.9715],[37.2581,14.4348,681.5354],[37.283,14.4387,711.9146],[37.2899,14.4426,694.219],[37.2993,14.4446,687.7979],[37.3079,14.4426,687.5635],[37.3143,14.4287,712.4019],[37.3275,14.4226,767.0818],[37.3367,14.4111,816.7108],[37.344,14.409,730.3286],[37.3453,14.4158,693.2264],[37.3589,14.4172,689.5693],[37.3771,14.4285,702.3385],[37.4033,14.4714,717.6113],[37.4297,14.4802,777.5583],[37.4401,14.4775,823.0618],[37.4431,14.4706,851.9699],[37.4711,14.4687,898.3648],[37.489,14.4731,902.8939],[37.5075,14.4613,912.7606],[37.5248,14.46,922.3452],[37.5488,14.4461,934.0853],[37.5592,14.4523,935.5649],[37.5725,14.4554,936.2496],[37.5767,14.4679,948.4859],[37.5954,14.4776,950.6602],[37.6572,14.4947,967.995],[37.6707,14.5042,970.1377],[37.6723,14.5217,972.694],[37.6789,14.5274,979.8078],[37.698,14.5626,991.3961],[37.7006,14.5789,999.8165],[37.7099,14.5886,996.899],[37.7237,14.6238,1008.9164],[37.7415,14.6424,1024.5389],[37.753,14.6427,1019.0735],[37.7736,14.6304,1029.4733],[37.7827,14.6537,1031.9648],[37.7752,14.6785,1042.2053],[37.7736,14.6982,1052.2478],[37.7819,14.7349,1065.0082],[37.8048,14.7689,1036.6338],[37.8326,14.8052,1070.4543],[37.8495,14.8125,998.2693],[37.8757,14.7999,971.2712],[37.9021,14.81,994.6366],[37.9228,14.8261,1043.0894],[37.9403,14.8455,968.0284],[37.9437,14.8414,1087.3334],[37.9455,14.8347,1015.3762],[37.9504,14.8322,949.1792],[37.9592,14.833,937.8419],[37.971,14.8304,1031.2632],[37.9749,14.818,969.0914],[37.9745,14.8016,935.1033],[37.9879,14.8079,955.2853],[37.9923,14.792,945.989],[37.992,14.7792,996.5586],[37.9942,14.7735,962.9122],[37.9996,14.7754,949.8407],[38.0036,14.7716,956.6915],[38.0048,14.7663,950.5321],[38.0158,14.7652,955.481],[38.0205,14.7608,954.2914],[38.0215,14.755,958.3519],[38.0174,14.7426,957.9732],[38.0183,14.7366,966.6031],[38.0301,14.7279,976.817],[38.0404,14.7166,1003.5232],[38.0535,14.7108,983.1703],[38.0646,14.7113,980.7717],[38.0779,14.7074,998.9698],[38.0915,14.7066,995.853],[38.0954,14.7014,1023.2247],[38.1056,14.6975,1028.0546],[38.1092,14.6901,1069.8271],[38.1201,14.6838,1179.613],[38.1276,14.6819,1070.748],[38.1321,14.6785,1047.5649],[38.1344,14.6725,1109.0544],[38.1393,14.6673,1037.3137],[38.1461,14.6686,1034.6453],[38.1503,14.6748,1003.1261],[38.1562,14.6765,1029.1089],[38.162,14.6759,1072.4891],[38.1738,14.6798,1021.3925],[38.18,14.6766,1040.8823],[38.1836,14.6793,1010.246],[38.1874,14.6892,1039.025],[38.2027,14.6859,1155.0248],[38.21,14.6868,1113.0681],[38.215,14.6828,1087.3429],[38.2282,14.6858,1035.1753],[38.2371,14.6831,1087.2963],[38.2431,14.6779,1048.0999],[38.2493,14.6758,1048.2793],[38.2626,14.6908,1093.6576],[38.2707,14.6933,1070.5684],[38.2908,14.6936,1170.5469],[38.3059,14.6985,1211.4163],[38.3146,14.6995,1133.6971],[38.341,14.6909,1121.1267],[38.3531,14.6927,1155.9163],[38.3642,14.7089,1336.0959],[38.3754,14.7504,1583.97],[38.4089,14.7848,1799.2389],[38.412,14.7986,1830.3239],[38.4123,14.818,1702.991],[38.4072,14.8239,1635.4092],[38.3864,14.8327,1577.0546],[38.3673,14.8444,1468.5121],[38.3415,14.8541,1480.5471],[38.3305,14.8655,1344.7324],[38.3147,14.8743,1294.3772],[38.3067,14.8899,1362.3555],[38.3001,14.8965,1254.496],[38.2907,14.899,1274.4066],[38.2698,14.8953,1363.9238],[38.2602,14.8958,1267.9031],[38.228,14.9058,1186.3396],[38.2236,14.9083,1239.1643],[38.2217,14.9123,1242.4918],[38.2271,14.9197,1282.8479],[38.2366,14.9265,1342.4779],[38.2431,14.9375,1327.98],[38.2486,14.9364,1238.9534],[38.2566,14.9318,1271.8051],[38.2692,14.9344,1296.5593],[38.2793,14.9346,1416.0618],[38.2943,14.9304,1296.3602],[38.3116,14.9208,1270.3691],[38.3133,14.9214,1288.3781],[38.3222,14.9335,1375.7522],[38.3539,14.9486,1582.0013],[38.3679,14.9651,1588.6572],[38.3896,14.9707,1567.823],[38.3974,14.9743,1497.4303],[38.4091,14.9896,1583.2358],[38.4143,14.9939,1631.4463],[38.4228,14.9959,1510.5388],[38.4344,14.9958,1535.5654],[38.4561,15.004,1587.7617],[38.462,15.0096,1553.5652],[38.4649,15.0175,1568.6613],[38.4721,15.0581,1195.6537],[38.4733,15.0892,1245.1951],[38.4636,15.095,1188.6005],[38.4427,15.0971,1120.6636],[38.4316,15.1029,1177.726],[38.4272,15.1069,1123.301],[38.4235,15.115,1079.3965],[38.4216,15.133,1347.9563],[38.4055,15.1541,1129.2891],[38.397,15.1679,956.644],[38.3921,15.1728,954.4691],[38.3898,15.1783,965.2694],[38.3913,15.1855,968.8125],[38.397,15.1879,973.123],[38.4084,15.1879,987.304],[38.4242,15.1849,1020.4771],[38.453,15.1755,1141.5474],[38.4573,15.1749,1075.8184],[38.4761,15.181,1158.5425],[38.5114,15.1736,1264.8765],[38.5168,15.1752,1221.9926],[38.5259,15.1813,1340.9957],[38.537,15.1789,1330.8754],[38.5426,15.1797,1490.0262],[38.5583,15.194,1426.8245],[38.5688,15.1983,1389.5817],[38.5821,15.1947,1456.9282],[38.6054,15.1804,1626.8131],[38.6195,15.1808,1641.7928],[38.6354,15.1861,1749.0032],[38.6487,15.184,1629.2754],[38.6539,15.1849,1649.7384],[38.6687,15.1955,1960.762],[38.6986,15.2081,2209.55],[38.7072,15.2182,2246.05],[38.699,15.2267,2226.5891],[38.6952,15.2421,2135.4082],[38.6956,15.2465,2135.4036],[38.692,15.2565,2119.3511],[38.6959,15.2655,2093.3181],[38.7023,15.2659,2108.7686],[38.7045,15.2638,2113.4463],[38.7081,15.2664,2144.0032],[38.7097,15.2625,2160.9106],[38.7147,15.2645,2118.561],[38.7152,15.261,2126.553],[38.7196,15.2613,2149.2007],[38.7209,15.2575,2140.9644],[38.7264,15.2571,2132.0],[38.7283,15.265,2154.5024],[38.727,15.2917,2169.4438],[38.7299,15.2934,2165.5059],[38.7303,15.3019,2156.0],[38.7345,15.3023,2190.6392],[38.7283,15.3074,2200.4634],[38.7277,15.3132,2273.7283],[38.7298,15.314,2257.7822],[38.7341,15.3111,2281.061],[38.7417,15.3091,2258.4595],[38.7465,15.3118,2234.4224],[38.7489,15.3075,2250.6074],[38.7509,15.3066,2298.1919],[38.7554,15.3081,2294.6716],[38.7615,15.3072,2230.55],[38.7628,15.3086,2229.2639],[38.761,15.3128,2257.8481],[38.7548,15.3164,2268.146],[38.7502,15.325,2235.0383],[38.7452,15.3305,2221.8752],[38.744,15.3421,2275.292],[38.7459,15.3507,2286.5708],[38.7434,15.3604,2191.0737],[38.7456,15.3671,2174.5635],[38.7409,15.3783,2124.3647],[38.7495,15.3934,2072.397],[38.7584,15.3995,2039.1094],[38.7612,15.4096,2047.2053],[38.7665,15.4128,1996.557],[38.7684,15.4158,2038.4941],[38.7672,15.4245,1981.5193],[38.7624,15.4288,1958.7499],[38.7606,15.4331,1963.5664],[38.7588,15.4476,1937.7122],[38.7541,15.4552,2007.2983],[38.7555,15.4587,1949.5918],[38.761,15.4587,1913.0914],[38.7618,15.4646,2002.1511],[38.7593,15.4716,1910.0797],[38.7565,15.4732,1879.876],[38.752,15.473,1872.121],[38.7451,15.4786,1923.3085],[38.7519,15.4907,1846.2194],[38.7512,15.4924,1870.0116],[38.7473,15.4934,1802.6729],[38.7473,15.4981,1850.934],[38.7399,15.5105,1800.4749],[38.7414,15.515,1788.6161],[38.7356,15.5186,1822.5676],[38.734,15.5256,1842.1356],[38.7346,15.5281,1884.7722],[38.737,15.5287,1896.5255],[38.727,15.5353,1764.804],[38.7239,15.539,1843.6573],[38.7244,15.579,1840.4918],[38.7227,15.5854,1893.6124],[38.7144,15.5996,1746.0597],[38.7088,15.6048,1776.7394],[38.6964,15.6102,1848.9348],[38.6808,15.6009,1667.8962],[38.6688,15.598,1767.4564],[38.6598,15.598,1729.9707],[38.638,15.6059,1784.2976],[38.6277,15.6081,1957.2537],[38.62,15.6079,2222.8818],[38.612,15.6018,2152.1245],[38.6078,15.5957,1799.6134],[38.6073,15.59,1540.8282],[38.6096,15.5831,1378.4503],[38.6067,15.5742,1500.9973],[38.6026,15.5735,1403.7029],[38.5791,15.581,1459.0592],[38.5714,15.5808,1254.8325],[38.5548,15.5761,1160.7019],[38.5411,15.5696,994.5992],[38.5306,15.5692,963.726],[38.5267,15.5655,947.9611],[38.5229,15.556,928.9004],[38.514,15.5456,1021.6599]]]]}
,"properties": {"GID_1": "ERI.4_1","GID_0": "ERI","country": "Eritrea","province": "GashBarka","VARNAME_1": "al-Qashwa-Barka|DebubawiGashB","NL_NAME_1": "ዞባጋሽባርካ","TYPE_1": "Zoba","ENGTYPE_1": "Region","CC_1": "NA","HASC_1": "ER.GB","ISO_1": "NA","name": "Gash_Barka.province","area_km2": 32613.34,"hist_schema_id": "Elevation0-9000","hist_area_km2": {"425": 121.17,"450": 401.92,"475": 573.92,"500": 695.71,"525": 809.11,"550": 1052.64,"575": 1466.17,"600": 1535.83,"625": 1594.44,"650": 1615.82,"675": 1579.11,"700": 1516.95,"725": 1591.73,"750": 1614.36,"775": 1442.74,"800": 1217.78,"825": 1095.18,"850": 997.25,"875": 960.28,"900": 938.61,"925": 932.48,"950": 914.91,"975": 880.65,"1000": 862.89,"1025": 873.47,"1050": 793.41,"1075": 634.75,"1100": 453.19,"1125": 341.98,"1150": 277.74,"1175": 242.43,"1200": 206.42,"1225": 174.6,"1250": 153.53,"1275": 138.2,"1300": 122.39,"1325": 113.61,"1350": 105.19,"1375": 92.76,"1400": 81.64,"1425": 79.59,"1450": 76.23,"1475": 70.4,"1500": 66.83,"1525": 63.9,"1550": 54.69,"1575": 52.27,"1600": 51.15,"1625": 49.75,"1650": 48.64,"1675": 46.16,"1700": 45.72,"1725": 42.93,"1750": 42.39,"1775": 40.41,"1800": 39.18,"1825": 38.72,"1850": 33.93,"1875": 30.56,"1900": 29.31,"1925": 29.76,"1950": 33.4,"1975": 34.91,"2000": 33.98,"2025": 37.35,"2050": 38.41,"2075": 36.18,"2100": 36.29,"2125": 33.51,"2150": 28.56,"2175": 22.82,"2200": 12.25,"2225": 6.32,"2250": 4.54,"2275": 2.97,"2300": 1.15,"2325": 0.31,"2350": 0.43}}}