{"type":"Feature","properties":{"featurecla":"River","scalerank":6,"rivernum":340,"dissolve":"340River","name":"Setit","name_alt":null,"note":null,"min_zoom":5.0,"strokeweig":0.2,"name_en":"Setit","min_label":6.0},
"geometry":{"type": "LineString","coordinates": [[37.816650390625,13.87531159061912,839.2019],[37.812744140625,13.872919012494123,799.7471],[37.806640625,13.87335846561912,796.4193],[37.795654296875,13.87848541874412,909.9719],[37.7890625,13.879754949994123,876.5568],[37.78125,13.877460028119117,854.426],[37.77294921875,13.873309637494117,903.2875],[37.763916015625,13.871600653119117,798.9095],[37.754638671875,13.876336981244123,768.2859],[37.734082031250011,13.89679596561912,775.1561],[37.725830078125,13.903094793744117,768.903],[37.720800781250006,13.90289948124412,767.5498],[37.71640625,13.90058014530662,761.4395],[37.710351562500023,13.90021393436912,793.2734],[37.674218750000023,13.91120026249412,754.8958],[37.660546875000023,13.921502996869123,756.1182],[37.655029296875,13.93781159061912,803.6716],[37.6513671875,13.953973699994123,745.3483],[37.642578125,13.966424871869123,877.6326],[37.621484375000023,13.98895905155662,779.4081],[37.615917968750011,13.99848053593162,801.4848],[37.60791015625,14.02313873905662,923.2406],[37.607324218750023,14.027948309369123,918.8484],[37.608642578125,14.038934637494123,737.267],[37.60791015625,14.04364655155662,754.8225],[37.604736328125,14.046991278119123,752.8582],[37.595898437500011,14.05255768436912,736.3033],[37.59423828125,14.054217840619117,731.2224],[37.58056640625,14.081805731244117,755.032],[37.578857421875,14.09674713749412,726.8242],[37.573486328125,14.10126373905662,740.1448],[37.56494140625,14.101922918744123,743.3097],[37.55322265625,14.105731512494117,723.874],[37.53515625,14.117059637494123,723.634]]}}