{"type":"Feature","properties":{"GID_2":"ERI.4.3_1","GID_0":"ERI","country":"Eritrea","GID_1":"ERI.4_1","province":"GashBarka","NL_NAME_1":"ዞባጋሽባርካ","county":"Dghe","VARNAME_2":"NA","NL_NAME_2":"NA","TYPE_2":"District","ENGTYPE_2":"District","CC_2":"NA","HASC_2":"ER.GB.DG","name":"Dghe.county"},
"geometry":{"type": "MultiPolygon","coordinates": [[[[37.2607,16.0413,451.7616],[37.2289,16.0161,456.2022],[37.1923,15.9995,466.0233],[37.1797,15.9894,471.8716],[37.1623,15.9632,484.5383],[37.1536,15.9397,521.3781],[37.1519,15.9331,520.3917],[37.1517,15.8907,533.958],[37.1492,15.8614,553.2147],[37.1533,15.8363,549.5184],[37.1645,15.7957,730.3086],[37.166,15.7802,711.886],[37.1635,15.7651,606.1017],[37.1476,15.7318,610.8866],[37.1426,15.7181,622.1572],[37.1398,15.7011,642.9341],[37.1395,15.674,643.2197],[37.1255,15.5826,839.4746],[37.1258,15.5682,984.8344],[37.1244,15.5602,925.1],[37.1285,15.5558,836.9757],[37.1594,15.5469,830.0299],[37.1772,15.5443,891.8569],[37.186,15.5398,859.1932],[37.1973,15.5305,1046.6924],[37.2017,15.5238,1020.1631],[37.2055,15.5149,1043.2911],[37.206,15.5074,1083.5397],[37.2175,15.5092,893.0888],[37.251,15.5199,871.1757],[37.2694,15.5228,1009.1827],[37.2888,15.5172,991.7982],[37.3516,15.4919,615.1115],[37.4087,15.4653,593.1949],[37.4301,15.4588,587.9913],[37.4605,15.4558,589.0301],[37.5232,15.4559,611.2354],[37.539,15.4583,678.7791],[37.545,15.4575,642.1564],[37.556,15.4527,724.2478],[37.5634,15.4519,628.7025],[37.6211,15.4524,596.1981],[37.6398,15.4478,594.2787],[37.6709,15.448,591.7791],[37.681,15.4466,590.8438],[37.686,15.4431,594.2585],[37.694,15.4268,611.5322],[37.7137,15.4108,675.1204],[37.7269,15.4038,651.8133],[37.7429,15.3986,618.8353],[37.7527,15.3992,621.6748],[37.7597,15.4029,626.8674],[37.7792,15.4185,641.4957],[37.8083,15.4318,630.4077],[37.8561,15.4505,639.5997],[37.8476,15.4751,626.9313],[37.8296,15.4957,625.7974],[37.8197,15.5132,597.8749],[37.8122,15.5225,583.0741],[37.7921,15.5396,565.882],[37.782,15.5463,576.142],[37.7647,15.5545,589.269],[37.7623,15.5591,578.2085],[37.7625,15.5639,591.2009],[37.7666,15.5703,582.9462],[37.7811,15.5776,619.9813],[37.8007,15.5963,717.3954],[37.8071,15.6051,653.0209],[37.814,15.6208,644.3834],[37.8266,15.637,647.3896],[37.8418,15.6462,650.3695],[37.8758,15.6567,643.9255],[37.8698,15.6606,652.8507],[37.8674,15.6662,661.4792],[37.8567,15.696,705.2973],[37.8518,15.7152,728.7274],[37.8505,15.7357,727.1246],[37.8515,15.7435,721.1448],[37.8625,15.7846,730.1013],[37.8481,15.8579,714.1611],[37.8407,15.8597,788.4017],[37.8342,15.8593,991.7514],[37.8153,15.8534,1024.9053],[37.8073,15.853,1061.4584],[37.8024,15.8538,1020.5065],[37.798,15.8579,873.5285],[37.7858,15.8627,759.1616],[37.765,15.8623,653.1465],[37.7466,15.8643,623.5042],[37.7202,15.8533,610.9885],[37.7125,15.8539,677.8469],[37.6876,15.8679,633.3949],[37.6769,15.8714,717.0474],[37.6579,15.8738,570.8098],[37.6375,15.8726,571.6409],[37.6077,15.8615,538.2844],[37.5709,15.866,510.6122],[37.555,15.8656,509.5143],[37.5369,15.8741,557.4326],[37.4843,15.8903,473.7219],[37.4549,15.9043,451.8748],[37.4318,15.9177,439.8423],[37.424,15.9291,435.1762],[37.4031,15.9685,423.032],[37.396,15.9787,418.9839],[37.3786,15.9968,414.9999],[37.3155,16.0211,435.2238],[37.2668,16.0363,462.8999],[37.2607,16.0413,451.7616]]]]}}