{"type": "Feature","bbox": [38.0014,15.8265,38.5687,16.2311],"geometry": {"type": "MultiPolygon","coordinates": [[[[38.0301,15.9882,1078.6178],[38.0152,15.9707,1106.5598],[38.0014,15.9467,1528.5427],[38.0157,15.9447,1843.0135],[38.0383,15.9358,1790.7009],[38.0786,15.9297,1707.0654],[38.1418,15.9125,1482.3112],[38.1613,15.9109,1485.5936],[38.1887,15.9052,1882.7786],[38.2266,15.9002,1840.7015],[38.2484,15.8933,1695.8634],[38.2818,15.8787,1799.6477],[38.3234,15.8582,1576.2113],[38.3346,15.8502,1631.829],[38.3498,15.8536,1564.2467],[38.379,15.8478,1621.0886],[38.3963,15.8419,1736.2585],[38.4167,15.8307,1797.0891],[38.429,15.8265,1624.2528],[38.451,15.8283,1379.5348],[38.4842,15.8387,1297.7384],[38.548,15.8505,1476.0833],[38.5656,15.8564,1570.7227],[38.5655,15.8641,1684.4854],[38.5687,15.8744,1677.4138],[38.5558,15.8701,1882.1052],[38.5501,15.8716,1714.6],[38.5462,15.8764,1761.6571],[38.5321,15.913,2047.2285],[38.5238,15.9279,1552.7175],[38.5121,15.942,1462.6014],[38.491,15.9569,1517.8031],[38.4582,15.9676,1408.9564],[38.4495,15.9661,1352.8689],[38.4209,15.9482,1265.3308],[38.4121,15.9461,1203.9526],[38.402,15.9483,1224.5012],[38.398,15.9505,1245.4121],[38.3936,15.9558,1258.7948],[38.3809,15.9735,1248.177],[38.3725,15.9929,1523.1653],[38.3541,16.0227,1375.832],[38.3442,16.0433,1187.3433],[38.3301,16.0623,1116.043],[38.3278,16.0728,1111.8893],[38.3302,16.1086,1065.972],[38.3076,16.1355,1014.9229],[38.3008,16.1526,1003.1692],[38.2953,16.1805,1062.4495],[38.291,16.1868,1100.5178],[38.2847,16.1909,1007.361],[38.2799,16.1965,973.4747],[38.28,16.2129,1233.8511],[38.2784,16.2168,1234.4591],[38.2654,16.2311,1040.9177],[38.2587,16.2294,945.9236],[38.2478,16.2203,1202.8871],[38.2427,16.2091,1298.0676],[38.2369,16.1893,1855.9518],[38.2308,16.1843,2068.0847],[38.1857,16.1681,1788.5166],[38.1649,16.1578,1414.0774],[38.1614,16.1321,1429.2946],[38.1407,16.1122,1422.5923],[38.0962,16.0784,1808.856],[38.091,16.0725,1770.1746],[38.0747,16.0444,1276.2902],[38.0714,16.0283,1448.5686],[38.0684,16.0241,1432.08],[38.0489,16.0165,1163.3625],[38.0424,16.0106,1165.2832],[38.0345,15.9939,1081.4762],[38.0301,15.9882,1078.6178]]]]}
,"properties": {"GID_2": "ERI.6.7_1","GID_0": "ERI","country": "Eritrea","GID_1": "ERI.6_1","province": "Anseba","NL_NAME_1": "ዞባዓንሰባ","county": "Halhal","VARNAME_2": "NA","NL_NAME_2": "NA","TYPE_2": "District","ENGTYPE_2": "District","CC_2": "NA","HASC_2": "ER.SN.HH","name": "Halhal.county","area_km2": 1133.0198,"hist_schema_id": "Elevation0-9000","hist_area_km2": {"925": 0.4479,"950": 1.6898,"975": 2.4636,"1000": 4.6019,"1025": 4.6226,"1050": 6.7411,"1075": 7.271,"1100": 7.027,"1125": 8.8205,"1150": 8.7605,"1175": 9.1688,"1200": 10.3718,"1225": 18.5467,"1250": 31.3913,"1275": 45.585,"1300": 46.0757,"1325": 41.8945,"1350": 38.6527,"1375": 39.408,"1400": 37.1846,"1425": 36.4498,"1450": 34.3287,"1475": 34.5725,"1500": 31.9631,"1525": 31.045,"1550": 30.677,"1575": 30.2887,"1600": 31.5521,"1625": 31.4899,"1650": 28.9415,"1675": 28.3088,"1700": 28.063,"1725": 28.7149,"1750": 27.5738,"1775": 28.1651,"1800": 28.8784,"1825": 31.8747,"1850": 37.1122,"1875": 38.233,"1900": 36.6834,"1925": 34.2576,"1950": 28.7942,"1975": 21.0087,"2000": 16.1374,"2025": 10.4325,"2050": 6.5199,"2075": 4.1969,"2100": 2.4044,"2125": 1.5284,"2150": 0.9986,"2175": 0.5095,"2200": 0.3057,"2225": 0.2853}}}