{"type":"Feature","properties":{"GID_2":"ERI.6.2_1","GID_0":"ERI","country":"Eritrea","GID_1":"ERI.6_1","province":"Anseba","NL_NAME_1":"ዞባዓንሰባ","county":"Asmat","VARNAME_2":"NA","NL_NAME_2":"NA","TYPE_2":"District","ENGTYPE_2":"District","CC_2":"NA","HASC_2":"ER.AN.AS","name":"Asmat.county"},
"geometry":{"type": "MultiPolygon","coordinates": [[[[38.0413,16.6512,705.4531],[38.022,16.6494,626.8512],[38.0111,16.6522,695.5743],[37.9917,16.6519,686.0878],[37.9811,16.6549,614.1683],[37.9767,16.6584,601.7034],[37.9733,16.6627,585.6445],[37.9716,16.6738,563.385],[37.9766,16.7074,584.9622],[37.9779,16.7305,629.0588],[37.9551,16.7351,584.5667],[37.9456,16.7343,593.2513],[37.9355,16.731,627.0195],[37.9128,16.732,614.8463],[37.9007,16.7287,732.1369],[37.8579,16.6929,615.6918],[37.8501,16.6843,715.944],[37.811,16.6577,544.2479],[37.778,16.6263,752.5616],[37.7733,16.6172,862.7032],[37.7719,16.6084,785.4246],[37.7788,16.5785,1350.0354],[37.7777,16.5643,1064.4941],[37.769,16.5444,1122.2107],[37.7467,16.5106,928.6396],[37.7485,16.5053,783.4869],[37.7888,16.4734,861.576],[37.8047,16.4632,964.0802],[37.8166,16.4498,1119.0508],[37.8223,16.4322,1642.0654],[37.8229,16.4145,1695.8672],[37.826,16.4041,1795.1284],[37.8276,16.3842,1459.8406],[37.8261,16.3685,1208.8494],[37.8199,16.3533,1139.4294],[37.8113,16.3384,1091.9264],[37.8028,16.3288,1024.4167],[37.7819,16.3115,876.9772],[37.7568,16.2843,1000.913],[37.7791,16.2678,935.0742],[37.8007,16.2444,982.9219],[37.8059,16.2355,1093.7302],[37.8072,16.2255,1139.2802],[37.805,16.219,1310.4457],[37.7826,16.1999,1094.3394],[37.776,16.1889,1118.3696],[37.7647,16.1486,902.0698],[37.7618,16.1281,1203.8615],[37.7621,16.1195,1468.0435],[37.764,16.1153,1277.1587],[37.7716,16.1092,1062.3765],[37.7812,16.1065,934.9513],[37.7888,16.1068,1093.3411],[37.8034,16.1094,1457.8079],[37.8116,16.1127,1493.5168],[37.8279,16.1251,1554.4783],[37.8429,16.1267,1150.3154],[37.856,16.1247,1703.3832],[37.8857,16.1058,957.2404],[37.8948,16.0967,1069.6892],[37.9015,16.0839,953.0204],[37.9101,16.0725,948.9631],[37.933,16.053,1430.9832],[37.9557,16.04,1086.1903],[37.9674,16.0274,949.4272],[37.9725,16.0252,854.5637],[37.9804,16.0262,897.48],[37.986,16.0252,1009.6035],[37.9905,16.0226,1143.2119],[38.0301,15.9882,1078.6178],[38.0345,15.9939,1081.4762],[38.0424,16.0106,1165.2832],[38.0489,16.0165,1163.3625],[38.0684,16.0241,1432.08],[38.0714,16.0283,1448.5686],[38.0747,16.0444,1276.2902],[38.091,16.0725,1770.1746],[38.0962,16.0784,1808.856],[38.1407,16.1122,1422.5923],[38.1614,16.1321,1429.2946],[38.1649,16.1578,1414.0774],[38.1857,16.1681,1788.5166],[38.2308,16.1843,2068.0847],[38.2369,16.1893,1855.9518],[38.2427,16.2091,1298.0676],[38.2478,16.2203,1202.8871],[38.2587,16.2294,945.9236],[38.2654,16.2311,1040.9177],[38.2658,16.2331,1046.2349],[38.2628,16.2496,1058.1833],[38.255,16.2561,1017.8846],[38.2485,16.2648,969.8115],[38.2431,16.2778,940.7872],[38.2336,16.2888,1104.8881],[38.2261,16.3052,971.2909],[38.2115,16.3164,835.2802],[38.2066,16.3213,843.7664],[38.2061,16.327,830.8221],[38.2025,16.3312,839.0106],[38.1917,16.3392,932.0266],[38.1882,16.3497,853.8055],[38.1837,16.3556,846.5421],[38.1798,16.368,819.0807],[38.1617,16.3881,923.9684],[38.1494,16.4296,744.6254],[38.1412,16.4369,741.5757],[38.1248,16.4593,727.802],[38.1115,16.4898,698.8987],[38.1018,16.502,691.3501],[38.0918,16.5077,695.1682],[38.0914,16.5225,667.3679],[38.0875,16.5363,659.3098],[38.0744,16.5607,664.315],[38.0604,16.5914,729.026],[38.0413,16.6512,705.4531]]]]}}