{"type":"Feature","properties":{"GID_1":"ERI.6_1","GID_0":"ERI","country":"Eritrea","province":"Anseba","VARNAME_1":"Ansaba|A'Nseba","NL_NAME_1":"ዞባዓንሰባ","TYPE_1":"Zoba","ENGTYPE_1":"Region","CC_1":"NA","HASC_1":"ER.AN","ISO_1":"NA","name":"Anseba.province"},
"geometry":{"type": "MultiPolygon","coordinates": [[[[38.8582,15.6954,2294.3374],[38.859,15.7046,2071.0188],[38.8633,15.7169,1857.0756],[38.8642,15.7318,1698.9993],[38.8545,15.7686,1174.7922],[38.8474,15.7863,1281.2329],[38.8439,15.805,1559.3881],[38.8301,15.8242,1504.9547],[38.802,15.8461,1588.3698],[38.7916,15.8511,1685.1501],[38.7796,15.8503,1845.4231],[38.7671,15.8528,1860.3926],[38.7599,15.8564,1864.7544],[38.7509,15.8639,1862.6688],[38.7465,15.8647,1858.1752],[38.741,15.8642,1845.0896],[38.7362,15.8616,1835.8143],[38.7222,15.8505,2049.5894],[38.717,15.8492,2370.8049],[38.6846,15.8537,2050.8899],[38.6744,15.8564,2052.0847],[38.6714,15.8615,2174.7888],[38.6691,15.8731,2161.5186],[38.6663,15.8774,2167.457],[38.6608,15.8796,2176.7803],[38.6499,15.8784,2152.7666],[38.6405,15.873,1892.9592],[38.6355,15.8581,2129.6523],[38.6315,15.8543,2098.8181],[38.6285,15.8538,2044.5734],[38.6203,15.854,1969.8218],[38.6088,15.8616,1779.443],[38.603,15.8626,1841.7169],[38.5964,15.8719,1624.6886],[38.5931,15.8737,1684.6129],[38.5803,15.8721,1715.4286],[38.5699,15.8747,1637.2874],[38.5531,15.8701,1856.2867],[38.5462,15.8764,1761.6571],[38.5276,15.9218,1621.7676],[38.5088,15.9448,1484.1218],[38.491,15.9569,1517.8031],[38.4582,15.9676,1408.9564],[38.4524,15.9674,1428.116],[38.4389,15.9603,1427.3599],[38.4368,15.96,1377.6338],[38.4321,15.9635,1289.2562],[38.4301,15.9898,1319.1448],[38.4257,15.9941,1291.0928],[38.4135,15.9923,1241.2211],[38.4113,15.9936,1254.9753],[38.4098,16.0014,1313.3422],[38.4143,16.0118,1226.0192],[38.4288,16.0247,1260.6201],[38.4256,16.0434,1603.3611],[38.4265,16.0585,1795.5713],[38.4299,16.0904,1485.958],[38.434,16.1073,1381.5977],[38.4372,16.1152,1538.2573],[38.4441,16.125,1581.6049],[38.4589,16.139,1832.8293],[38.4693,16.1582,2041.9122],[38.4724,16.1648,1983.0265],[38.4751,16.1883,1646.0264],[38.4719,16.2067,1937.842],[38.4504,16.2698,1677.1748],[38.4486,16.2804,1444.3256],[38.4416,16.2926,1444.5554],[38.407,16.3132,1583.7117],[38.404,16.319,1610.146],[38.3838,16.3197,1633.8726],[38.368,16.323,1488.6729],[38.3592,16.327,1401.9987],[38.3561,16.3773,1684.3685],[38.3539,16.3823,1515.7736],[38.3442,16.3909,1528.9358],[38.3411,16.3962,1405.5332],[38.3408,16.4207,1817.5946],[38.3383,16.425,1862.3545],[38.3312,16.4303,1813.7557],[38.3175,16.4353,1354.3376],[38.3036,16.4363,1430.0669],[38.2795,16.4254,1445.9675],[38.2569,16.4228,1972.8737],[38.243,16.4276,1704.4685],[38.2369,16.4328,1294.9866],[38.2276,16.4573,869.1528],[38.2232,16.4861,848.7672],[38.2269,16.5127,860.7916],[38.2331,16.5359,845.5176],[38.2245,16.5493,835.2679],[38.2252,16.5551,841.335],[38.2358,16.5769,905.6886],[38.2358,16.5802,911.7507],[38.2239,16.5983,1212.9414],[38.2156,16.6044,1535.074],[38.2031,16.6064,1488.7357],[38.1986,16.6129,1532.9915],[38.1935,16.6281,1697.5337],[38.1899,16.6308,1537.358],[38.1775,16.6253,1727.322],[38.1533,16.6222,1637.7739],[38.1435,16.6252,1640.5175],[38.1442,16.6328,1543.7991],[38.1411,16.6371,1678.7656],[38.1137,16.6314,910.7129],[38.0955,16.6296,790.2488],[38.0798,16.64,683.1232],[38.0691,16.6513,635.2803],[38.0647,16.6531,628.5112],[38.022,16.6494,626.8512],[38.0111,16.6522,695.5743],[37.9964,16.6514,807.5269],[37.9811,16.6549,614.1683],[37.9733,16.6627,585.6445],[37.9716,16.6738,563.385],[37.9779,16.7261,599.8577],[37.9767,16.758,640.0933],[37.993,16.8038,639.129],[38.013,16.8523,606.3925],[38.0154,16.8799,591.2549],[38.0089,16.898,571.6112],[37.9989,16.9107,553.1683],[37.9863,16.9215,529.4499],[37.9804,16.9303,578.0323],[37.9655,16.9702,523.9474],[37.9654,16.9763,544.1218],[37.9741,17.0139,903.7043],[37.9893,17.0451,979.1572],[38.0032,17.0648,1373.5068],[38.0177,17.0777,983.0416],[38.0291,17.1022,1172.761],[38.0303,17.1081,1256.2534],[38.0287,17.1295,1385.5457],[38.037,17.1432,1930.4858],[38.0424,17.1824,1946.9912],[38.0481,17.2102,1414.4465],[38.0489,17.2317,2180.2251],[38.0474,17.2428,2016.9506],[38.0416,17.267,1904.7202],[38.0343,17.2827,2102.853],[38.0263,17.312,2279.9268],[38.0221,17.3597,2423.0479],[38.0172,17.3802,2414.2373],[38.0043,17.4115,1868.1124],[38.0063,17.4261,1325.6724],[38.0211,17.455,2304.7249],[38.0245,17.4673,2326.5217],[38.0191,17.5052,2312.8281],[38.0194,17.5209,2468.7471],[38.0122,17.5536,2578.5293],[38.0067,17.5576,2542.748],[38.0039,17.5571,2389.0042],[37.9725,17.516,1028.953],[37.9687,17.5055,920.3612],[37.977,17.491,829.2577],[37.9753,17.4887,844.9223],[37.9589,17.4761,725.0912],[37.9427,17.4719,663.0715],[37.9177,17.4571,539.4544],[37.9022,17.4565,503.4792],[37.8908,17.4521,473.0297],[37.8703,17.4526,429.0513],[37.8619,17.4616,450.5382],[37.857,17.486,378.9885],[37.8523,17.4924,372.2709],[37.837,17.5,371.1154],[37.826,17.5003,354.4851],[37.7874,17.4961,418.9196],[37.7748,17.4805,529.544],[37.7803,17.4636,437.5582],[37.782,17.4411,537.1844],[37.7729,17.4331,673.5848],[37.7711,17.4204,866.0856],[37.766,17.4042,632.2355],[37.7655,17.384,673.0963],[37.7605,17.3834,613.0517],[37.7492,17.3868,741.6722],[37.7393,17.3806,850.0974],[37.628,17.3766,546.8865],[37.6123,17.3741,925.1397],[37.5153,17.3369,213.3186],[37.5061,17.3153,174.2339],[37.5061,17.3072,186.5651],[37.4924,17.3069,177.4154],[37.4925,17.2968,181.0141],[37.4978,17.2847,193.9032],[37.5162,17.2778,180.476],[37.5211,17.2708,179.1947],[37.5218,17.263,180.8382],[37.5174,17.2588,192.9992],[37.4998,17.2538,199.0784],[37.4954,17.2491,185.4032],[37.498,17.2409,184.5358],[37.495,17.2383,192.7375],[37.4963,17.227,186.1307],[37.4921,17.2198,196.2585],[37.4982,17.2082,195.8756],[37.5081,17.2039,200.7469],[37.5092,17.1998,206.2502],[37.5029,17.1927,204.3238],[37.487,17.1903,198.1739],[37.4763,17.1787,206.4731],[37.4723,17.1674,208.5558],[37.4661,17.1583,214.2357],[37.4681,17.1473,209.2402],[37.4669,17.1447,205.8804],[37.4592,17.1395,205.1893],[37.4543,17.1265,223.4839],[37.4457,17.1176,227.7984],[37.4371,17.1024,222.5743],[37.4213,17.1032,243.3949],[37.4145,17.0993,259.2909],[37.411,17.0857,225.1433],[37.4046,17.0761,251.9993],[37.401,17.0611,246.741],[37.3947,17.0471,244.3292],[37.3828,17.0544,265.5676],[37.3789,17.0548,267.5871],[37.3502,17.0683,289.1208],[37.3318,17.0862,317.6422],[37.3197,17.0925,329.6168],[37.311,17.0944,338.1356],[37.2818,17.083,374.4632],[37.2521,17.0756,413.1289],[37.2201,17.0787,442.26],[37.2102,17.0752,457.1136],[37.1974,17.0634,492.8718],[37.155,17.0606,558.7981],[37.1288,17.0572,617.6112],[37.1237,17.0607,671.583],[37.1186,17.072,685.1757],[37.1112,17.082,685.8792],[37.0998,17.0869,720.7703],[37.0938,17.0879,721.8998],[37.0858,17.0838,766.9949],[37.0803,17.0837,921.321],[37.0697,17.0875,673.8726],[37.0571,17.0876,636.802],[37.0515,17.0895,672.5031],[37.0398,17.0998,739.8953],[37.0311,17.1009,581.8376],[37.0213,17.096,614.051],[37.0125,17.0859,691.0848],[37.002,17.0682,681.5353],[37.0134,17.0556,910.4477],[37.0182,17.0293,767.4933],[37.0174,17.0155,873.0739],[37.0131,17.0074,909.3635],[36.9951,16.9975,846.5016],[36.9854,16.985,1243.1893],[36.983,16.9783,929.5331],[36.9835,16.9691,658.3955],[36.9899,16.9562,873.9656],[37.0041,16.9414,791.4072],[37.0056,16.9325,691.0327],[36.9984,16.9183,665.0495],[36.9985,16.9135,693.0763],[37.0009,16.8995,695.54],[37.011,16.8801,693.7498],[37.0133,16.8663,663.553],[37.0113,16.8541,669.8773],[37.0056,16.8425,686.3799],[37.002,16.8302,704.1771],[37.0056,16.8218,715.9061],[37.0293,16.8011,1379.1909],[37.0301,16.7963,1227.9274],[37.0203,16.7912,833.3641],[37.0105,16.7767,1096.1675],[36.996,16.774,777.7612],[36.9895,16.7674,873.8408],[36.9827,16.7497,871.2974],[36.9835,16.7463,952.078],[36.9924,16.736,1275.271],[36.9928,16.7305,1173.2869],[36.9905,16.7258,1026.549],[36.9558,16.6865,650.8865],[36.9426,16.6806,605.9416],[36.9287,16.6775,637.3365],[36.9011,16.6758,698.22],[36.8986,16.6734,822.3337],[36.8941,16.6639,691.0577],[36.8939,16.6556,776.9531],[36.9057,16.6408,606.9302],[36.9062,16.6344,599.4038],[36.9038,16.6106,590.5768],[36.8895,16.5657,592.9944],[36.8874,16.5454,554.7617],[36.8996,16.4964,594.6619],[36.9084,16.4836,570.8348],[36.9183,16.4777,606.0975],[36.9232,16.4714,598.4191],[36.9299,16.4559,700.2098],[36.939,16.4443,630.4034],[36.9626,16.4355,1093.6675],[36.9663,16.4289,1201.9951],[36.9625,16.4213,1133.1213],[36.949,16.366,823.1475],[36.9373,16.359,727.6761],[36.9336,16.3541,739.874],[36.9339,16.3449,769.3095],[36.9475,16.3134,747.3264],[36.9469,16.2923,663.0554],[36.96,16.2912,688.2249],[36.9625,16.2858,761.8488],[36.9613,16.2843,692.3279],[36.9655,16.2758,693.4431],[36.968,16.2634,722.971],[36.9772,16.2576,606.9039],[36.9771,16.2532,607.9373],[36.9825,16.2508,625.2346],[37.0184,16.266,548.6986],[37.0417,16.272,540.4147],[37.0474,16.2708,525.4361],[37.0801,16.2332,493.4601],[37.0871,16.2285,484.3376],[37.1095,16.2194,458.7211],[37.1197,16.2135,456.3043],[37.1345,16.2023,441.3425],[37.1541,16.1916,441.1775],[37.1702,16.1804,426.9718],[37.1951,16.1609,437.9367],[37.2215,16.1351,456.064],[37.261,16.09,431.7086],[37.2737,16.0804,426.7],[37.2833,16.0762,426.6796],[37.2873,16.0727,427.9052],[37.2896,16.0693,426.7306],[37.2891,16.0638,428.454],[37.2867,16.0601,432.8704],[37.2667,16.056,439.5004],[37.26,16.0526,436.7449],[37.2573,16.0489,439.0778],[37.2592,16.043,446.7571],[37.2628,16.0387,456.768],[37.2668,16.0363,462.8999],[37.3155,16.0211,435.2238],[37.3786,15.9968,414.9999],[37.396,15.9787,418.9839],[37.4031,15.9685,423.032],[37.424,15.9291,435.1762],[37.4318,15.9177,439.8423],[37.4549,15.9043,451.8748],[37.4843,15.8903,473.7219],[37.5369,15.8741,557.4326],[37.555,15.8656,509.5143],[37.5709,15.866,510.6122],[37.6077,15.8615,538.2844],[37.6375,15.8726,571.6409],[37.6579,15.8738,570.8098],[37.6769,15.8714,717.0474],[37.6876,15.8679,633.3949],[37.7125,15.8539,677.8469],[37.7202,15.8533,610.9885],[37.7466,15.8643,623.5042],[37.765,15.8623,653.1465],[37.7858,15.8627,759.1616],[37.798,15.8579,873.5285],[37.8024,15.8538,1020.5065],[37.8073,15.853,1061.4584],[37.8153,15.8534,1024.9053],[37.8342,15.8593,991.7514],[37.8407,15.8597,788.4017],[37.8561,15.8553,698.2407],[37.8698,15.8547,756.6616],[37.8871,15.8661,766.1581],[37.8942,15.8671,826.4512],[37.9071,15.8655,848.8601],[37.9347,15.8521,896.8293],[37.9392,15.8484,920.3853],[37.9469,15.8354,937.5958],[37.96,15.8322,1059.6373],[37.9717,15.8267,1506.3746],[37.9823,15.8166,1263.1138],[37.9909,15.8042,1475.6787],[37.9945,15.8023,1488.2059],[38.0142,15.8009,1780.9954],[38.0248,15.7788,1616.2926],[38.0351,15.7473,1302.0332],[38.0406,15.7389,928.3882],[38.0461,15.7387,802.5547],[38.0579,15.7483,794.7687],[38.0797,15.7599,1050.6212],[38.1172,15.774,799.3484],[38.1323,15.774,870.3419],[38.1497,15.7663,827.0312],[38.1582,15.7606,847.137],[38.172,15.7464,844.4081],[38.1797,15.7336,833.6078],[38.1825,15.7195,811.234],[38.1826,15.7136,810.6494],[38.1778,15.7077,819.7946],[38.1651,15.7041,809.6071],[38.1586,15.6998,777.1547],[38.1534,15.6921,767.0587],[38.1475,15.689,761.6978],[38.1451,15.6819,755.0168],[38.1439,15.6746,753.7314],[38.1457,15.6528,771.7815],[38.1492,15.6449,873.5087],[38.1562,15.6359,972.8047],[38.1604,15.6335,950.4756],[38.1681,15.6315,869.5928],[38.1906,15.6299,847.0964],[38.2353,15.6309,848.3487],[38.2867,15.6426,837.6554],[38.3116,15.643,850.5084],[38.3187,15.6412,842.4064],[38.3272,15.6363,838.2662],[38.3773,15.601,815.5369],[38.3978,15.5929,828.654],[38.4078,15.5921,832.8857],[38.4194,15.5882,839.0196],[38.4259,15.5801,858.7824],[38.4297,15.5793,857.1432],[38.436,15.5811,852.0758],[38.4415,15.5791,854.7234],[38.4527,15.5685,890.8015],[38.4736,15.5586,1240.399],[38.482,15.5596,1088.3081],[38.4859,15.5618,928.9732],[38.4995,15.5539,945.7168],[38.5065,15.5464,972.6154],[38.5112,15.5448,1283.1646],[38.5185,15.5499,948.067],[38.5229,15.556,928.9004],[38.5267,15.5655,947.9611],[38.5306,15.5692,963.726],[38.5411,15.5696,994.5992],[38.5548,15.5761,1160.7019],[38.5714,15.5808,1254.8325],[38.5791,15.581,1459.0592],[38.6026,15.5735,1403.7029],[38.6067,15.5742,1500.9973],[38.6096,15.5831,1378.4503],[38.6073,15.59,1540.8282],[38.6078,15.5957,1799.6134],[38.612,15.6018,2152.1245],[38.62,15.6079,2222.8818],[38.6277,15.6081,1957.2537],[38.638,15.6059,1784.2976],[38.6598,15.598,1729.9707],[38.6688,15.598,1767.4564],[38.6808,15.6009,1667.8962],[38.6964,15.6102,1848.9348],[38.7088,15.6048,1776.7394],[38.7144,15.5996,1746.0597],[38.7227,15.5854,1893.6124],[38.7252,15.5717,1908.1851],[38.7231,15.5451,1794.0259],[38.7239,15.539,1843.6573],[38.727,15.5353,1764.804],[38.737,15.5287,1896.5255],[38.7443,15.526,1924.382],[38.75,15.5279,2036.15],[38.7566,15.5233,2079.0269],[38.7619,15.5224,2210.0723],[38.7663,15.5236,2125.854],[38.7706,15.5296,1951.5132],[38.775,15.5321,2048.7314],[38.7757,15.5382,2116.5073],[38.7816,15.5407,2138.3552],[38.7855,15.5453,2125.3545],[38.789,15.5455,2149.3418],[38.7943,15.5427,2104.1016],[38.7985,15.5439,2163.4604],[38.8038,15.5498,2159.5288],[38.8094,15.5488,2166.6392],[38.8146,15.5508,2229.9109],[38.8239,15.5466,2267.2878],[38.8305,15.5503,2256.1426],[38.8369,15.5601,2320.282],[38.8342,15.5775,2428.925],[38.8362,15.5851,2393.0867],[38.8422,15.584,2261.623],[38.8582,15.5697,2087.4893],[38.8668,15.5674,2452.3044],[38.8709,15.5695,2383.7124],[38.8869,15.5874,2276.4697],[38.881,15.5956,2021.6333],[38.8798,15.6013,1946.2017],[38.88,15.6243,1604.4116],[38.8826,15.6377,1484.3262],[38.8816,15.6473,1536.8076],[38.8609,15.683,1858.989],[38.8582,15.6954,2294.3374]]]]}}