{"type":"Feature","properties":{"ISO3166-1-Alpha-3":"ERI","country":"Eritrea","fill":"#F0F","id":"1561","name":"Anseba"},
"geometry":{"type": "Polygon","coordinates": [[[39.32626,15.17602,1798.975],[39.28456,15.20235,1747.5082],[39.19795,15.2469,1241.3352],[39.14999,15.28801,1571.7375],[39.0915,15.35023,1984.421],[39.00044,15.48616,1611.5868],[38.97605,15.53164,1017.8549],[38.95869,15.57569,1098.5969],[38.89554,15.56559,2323.1958],[38.85812,15.55285,2497.0],[38.84681,15.55073,2300.9707],[38.83906,15.55135,2267.0449],[38.82753,15.56034,2285.1372],[38.81978,15.56437,2242.9626],[38.80629,15.56662,2271.811],[38.79808,15.56569,2266.5474],[38.78629,15.5568,2236.6592],[38.78815,15.15561,2025.2701],[39.2844,15.15577,1821.8804],[39.29479,15.15378,2001.3453],[39.30735,15.15817,2272.1484],[39.31541,15.16321,2019.5856],[39.32626,15.17602,1798.975]]]}}