{"type": "Feature","bbox": [39.2639,15.4534,39.4813,15.7257],"geometry": {"type": "MultiPolygon","coordinates": [[[[39.4689,15.511,3.963],[39.476,15.5213,0.0],[39.4693,15.524,0.1523],[39.4621,15.5318,0.8147],[39.461,15.5438,0.2656],[39.4624,15.5457,0.0],[39.4599,15.549,1.1633],[39.4582,15.5585,0.8762],[39.4521,15.5662,0.0],[39.4524,15.5735,0.0],[39.451,15.5746,1.8482],[39.4496,15.5835,0.6676],[39.4443,15.5879,0.2098],[39.4424,15.5982,0.5985],[39.446,15.6007,0.4197],[39.4476,15.5979,0.0],[39.4471,15.6015,0.4197],[39.4529,15.6026,0.0],[39.4562,15.6082,0.0],[39.4538,15.6115,2.7839],[39.4601,15.6121,1.2364],[39.4621,15.6151,0.0],[39.4643,15.6138,0.4764],[39.4663,15.6151,0.0],[39.4657,15.6132,0.0],[39.4679,15.6127,0.0],[39.4746,15.6138,1.1727],[39.4729,15.6171,0.0],[39.4646,15.6182,1.5803],[39.4635,15.6199,0.9154],[39.4748,15.6213,1.0571],[39.4768,15.6207,4.9438],[39.4774,15.6162,0.0],[39.4793,15.6171,0.1771],[39.4807,15.6201,2.0565],[39.479,15.6285,0.0],[39.4757,15.6276,3.0679],[39.4743,15.6288,0.8013],[39.4751,15.6301,0.7908],[39.4721,15.6304,0.4596],[39.471,15.6257,4.1359],[39.4682,15.6246,2.0666],[39.464,15.6257,0.4689],[39.4626,15.6293,0.0],[39.4637,15.6315,0.4558],[39.4629,15.6351,0.0],[39.4671,15.6401,0.0],[39.4676,15.6443,0.916],[39.4715,15.6424,4.9281],[39.4726,15.6385,0.0],[39.4785,15.6407,2.6499],[39.4804,15.6437,0.0],[39.4779,15.6479,5.8974],[39.4785,15.6518,1.1107],[39.4765,15.651,2.2099],[39.474,15.6524,2.3788],[39.4732,15.6551,0.6519],[39.4701,15.6554,1.7969],[39.4663,15.661,1.6134],[39.4607,15.6646,0.2613],[39.4601,15.6668,0.8469],[39.4551,15.6674,1.8657],[39.4557,15.6687,1.8657],[39.449,15.6804,0.9281],[39.4501,15.6854,0.0],[39.4476,15.699,1.3037],[39.4488,15.7024,0.3965],[39.4463,15.7038,0.5955],[39.4476,15.7054,0.5955],[39.4479,15.7129,0.9141],[39.4457,15.7207,0.8701],[39.444,15.7235,0.3761],[39.43,15.7217,3.922],[39.4276,15.7249,3.4495],[39.4074,15.7257,10.3225],[39.3831,15.7202,26.6275],[39.3592,15.7109,37.4286],[39.3341,15.6934,62.1258],[39.325,15.6757,71.88],[39.2959,15.648,79.4842],[39.2816,15.6185,125.7403],[39.2813,15.6139,117.6517],[39.2839,15.6039,126.5641],[39.2833,15.5776,142.8613],[39.2639,15.5574,188.0134],[39.28,15.5421,169.6027],[39.2926,15.5371,188.9093],[39.3084,15.5354,260.9223],[39.318,15.5298,335.486],[39.3288,15.5147,264.1682],[39.3352,15.5094,250.3799],[39.3453,15.5051,251.9634],[39.3531,15.493,285.8826],[39.3583,15.4887,239.1192],[39.3617,15.4835,248.7468],[39.366,15.4673,281.031],[39.3693,15.4607,312.7853],[39.3734,15.4567,332.4589],[39.3797,15.4544,240.7342],[39.3876,15.4534,244.9609],[39.4097,15.4555,311.534],[39.4221,15.4631,368.4482],[39.4366,15.4743,164.1547],[39.4689,15.511,3.963]]],
[[[39.4804,15.5965,0.0],[39.4787,15.5965,0.0],[39.4771,15.5915,0.0692],[39.4801,15.5921,0.0],[39.4804,15.5965,0.0]]],
[[[39.4685,15.6115,0.342],[39.4607,15.6018,1.9122],[39.4637,15.5999,2.4977],[39.4624,15.5976,2.2696],[39.4632,15.5957,0.4993],[39.4665,15.5976,0.0],[39.4657,15.6007,2.8017],[39.4688,15.6035,0.0],[39.4699,15.6093,2.9005],[39.4685,15.6115,0.342]]],
[[[39.4799,15.6143,0.7689],[39.4712,15.6085,2.2103],[39.4735,15.5999,0.0],[39.4743,15.6024,0.236],[39.4735,15.6051,1.06],[39.479,15.6071,0.0],[39.4793,15.609,2.6719],[39.4813,15.6096,0.0],[39.4799,15.6143,0.7689]]]]}
,"properties": {"GID_2": "ERI.2.6_1","GID_0": "ERI","country": "Eritrea","GID_1": "ERI.2_1","province": "SemenawiKeyihBahri","NL_NAME_1": "ዞባሰሜናዊቀይሕባሕሪ","county": "Mitswa`eCity","VARNAME_2": "NA","NL_NAME_2": "NA","TYPE_2": "District","ENGTYPE_2": "District","CC_2": "NA","HASC_2": "NA","name": "Mitswa`e_City.county","area_km2": 446.6656,"hist_schema_id": "Elevation0-9000","hist_area_km2": {"0": 76.7727,"25": 65.3121,"50": 58.4554,"75": 61.7116,"100": 52.9594,"125": 42.1988,"150": 30.2126,"175": 24.0246,"200": 11.7473,"225": 9.2143,"250": 6.1089,"275": 3.7184,"300": 1.9818,"325": 0.9603,"350": 0.7152,"375": 0.4496,"400": 0.1226}}}