{"type": "Feature","bbox": [37.0342,14.409,37.818,15.0626],"geometry": {"type": "MultiPolygon","coordinates": [[[[37.1645,15.0626,690.4073],[37.1552,15.0506,705.7003],[37.1331,15.03,806.4242],[37.1259,15.0186,859.8385],[37.1078,15.0015,822.4603],[37.0562,14.9305,1081.2467],[37.046,14.9082,1096.0692],[37.044,14.8791,1142.2249],[37.0398,14.8607,1098.5461],[37.0387,14.8206,1086.3159],[37.0346,14.785,1160.3652],[37.0342,14.7567,1108.9434],[37.0345,14.7496,1107.4623],[37.0406,14.737,1032.0074],[37.043,14.7274,1031.84],[37.0412,14.6942,1105.1069],[37.0423,14.6725,1220.4993],[37.0412,14.6461,1103.5099],[37.0456,14.6188,1154.6306],[37.0475,14.5868,1171.5457],[37.0569,14.5545,994.3371],[37.0698,14.5234,972.6354],[37.0838,14.4984,818.7793],[37.0982,14.4819,814.1715],[37.1153,14.4655,828.8978],[37.1311,14.4554,825.3989],[37.1414,14.4459,711.2738],[37.1475,14.4387,699.1868],[37.1599,14.4164,667.969],[37.1642,14.4173,653.6447],[37.1711,14.4134,696.1766],[37.1797,14.4145,673.5022],[37.1935,14.4204,689.1954],[37.1999,14.4248,677.7805],[37.212,14.4369,762.3798],[37.219,14.4389,685.3488],[37.2269,14.4404,683.4471],[37.2383,14.4322,695.7081],[37.2479,14.4295,683.2001],[37.2533,14.4302,687.9715],[37.2581,14.4348,681.5354],[37.283,14.4387,711.9146],[37.2899,14.4426,694.219],[37.2993,14.4446,687.7979],[37.3079,14.4426,687.5635],[37.3143,14.4287,712.4019],[37.3275,14.4226,767.0818],[37.3367,14.4111,816.7108],[37.344,14.409,730.3286],[37.3453,14.4158,693.2264],[37.3589,14.4172,689.5693],[37.3771,14.4285,702.3385],[37.4033,14.4714,717.6113],[37.4297,14.4802,777.5583],[37.4401,14.4775,823.0618],[37.4431,14.4706,851.9699],[37.4711,14.4687,898.3648],[37.489,14.4731,902.8939],[37.5075,14.4613,912.7606],[37.5248,14.46,922.3452],[37.5488,14.4461,934.0853],[37.5592,14.4523,935.5649],[37.5725,14.4554,936.2496],[37.5767,14.4679,948.4859],[37.5954,14.4776,950.6602],[37.6572,14.4947,967.995],[37.6707,14.5042,970.1377],[37.6723,14.5217,972.694],[37.6789,14.5274,979.8078],[37.698,14.5626,991.3961],[37.7006,14.5789,999.8165],[37.7099,14.5886,996.899],[37.7237,14.6238,1008.9164],[37.7415,14.6424,1024.5389],[37.753,14.6427,1019.0735],[37.7736,14.6304,1029.4733],[37.7827,14.6537,1031.9648],[37.7752,14.6785,1042.2053],[37.7736,14.6982,1052.2478],[37.7819,14.7349,1065.0082],[37.818,14.7861,1058.0759],[37.7798,14.8077,1034.6104],[37.7676,14.82,962.5599],[37.7579,14.8349,1063.2147],[37.7497,14.8611,924.7612],[37.7485,14.9117,882.9764],[37.7319,14.924,882.2358],[37.7079,14.9342,864.9686],[37.6904,14.9362,880.3852],[37.6859,14.9399,877.6329],[37.6878,14.9444,862.4961],[37.6945,14.9478,861.7052],[37.6978,14.9514,860.1061],[37.6975,14.9545,859.1402],[37.6942,14.9584,869.2159],[37.6899,14.9586,871.4582],[37.681,14.9551,870.8807],[37.6767,14.9567,876.2499],[37.672,14.9503,873.762],[37.6464,14.9357,868.5168],[37.6419,14.9293,859.176],[37.6369,14.915,846.127],[37.6351,14.9068,853.7368],[37.637,14.8898,898.2943],[37.6342,14.8825,850.5779],[37.6127,14.8635,946.8286],[37.5942,14.8378,900.5239],[37.5794,14.8224,867.9833],[37.5405,14.7963,826.5378],[37.5133,14.774,826.0319],[37.4794,14.7659,825.2505],[37.4542,14.7697,819.5593],[37.448,14.7736,809.7618],[37.4442,14.7789,812.8057],[37.4333,14.7967,793.2729],[37.427,14.8119,785.3934],[37.4222,14.8174,800.1937],[37.4169,14.8202,797.0386],[37.3997,14.8258,794.4778],[37.3851,14.8276,788.2406],[37.37,14.8283,785.2509],[37.3539,14.826599999999999,771.5225],[37.3324,14.8341,770.2233],[37.3173,14.8338,766.4861],[37.3029,14.8413,766.1518],[37.2942,14.8589,754.8942],[37.2942,14.8662,753.5721],[37.2965,14.8759,753.2236],[37.296,14.8902,748.9314],[37.2916,14.9029,747.847],[37.2958,14.9251,742.0176],[37.2903,14.9349,743.5743],[37.2916,14.9556,744.0611],[37.2848,14.9758,738.7082],[37.2803,14.9783,741.8524],[37.2654,14.9729,726.6187],[37.2525,14.9719,719.2598],[37.2463,14.973,720.9451],[37.2415,14.9762,724.0217],[37.2239,15.0077,753.2133],[37.2203,15.011,767.525],[37.2054,15.0152,725.6119],[37.1907,15.0364,703.4919],[37.1753,15.0493,695.6516],[37.1645,15.0626,690.4073]]]]}
,"properties": {"GID_2": "ERI.4.7_1","GID_0": "ERI","country": "Eritrea","GID_1": "ERI.4_1","province": "GashBarka","NL_NAME_1": "ዞባጋሽባርካ","county": "La`ElayGash","VARNAME_2": "NA","NL_NAME_2": "NA","TYPE_2": "District","ENGTYPE_2": "District","CC_2": "NA","HASC_2": "NA","name": "La`Elay_Gash.county","area_km2": 3681.75,"hist_schema_id": "Elevation0-9000","hist_area_km2": {"650": 1.437,"675": 21.457,"700": 47.862,"725": 72.331,"750": 116.344,"775": 139.22,"800": 167.399,"825": 173.622,"850": 198.417,"875": 213.843,"900": 196.489,"925": 224.363,"950": 261.898,"975": 280.474,"1000": 296.3,"1025": 352.141,"1050": 347.758,"1075": 253.999,"1100": 124.764,"1125": 65.244,"1150": 44.1,"1175": 32.37,"1200": 20.438,"1225": 13.346,"1250": 9.0,"1275": 4.223,"1300": 1.927,"1325": 0.595,"1350": 0.246,"1375": 0.144}}}