{"type": "Feature","bbox": [38.3843,15.5452,38.7812,15.8564],"geometry": {"type": "MultiPolygon","coordinates": [[[[38.7812,15.7118,1602.1438],[38.7631,15.7157,1698.868],[38.7535,15.7218,2067.0081],[38.7199,15.7661,1771.3236],[38.7142,15.7678,1855.0193],[38.6956,15.7646,1949.7057],[38.6482,15.7703,2017.7195],[38.6352,15.7741,1891.5839],[38.6226,15.7815,1845.5854],[38.6166,15.7857,1721.582],[38.6053,15.7984,1658.6062],[38.6037,15.8039,1625.054],[38.6044,15.8092,1614.7231],[38.6099,15.8249,1680.8573],[38.6096,15.8286,1702.8972],[38.5868,15.8386,1801.832],[38.5699,15.8504,1520.0614],[38.5656,15.8564,1570.7227],[38.548,15.8505,1476.0833],[38.4992,15.842,1316.1599],[38.4924,15.8397,1309.002],[38.4923,15.8369,1310.34],[38.4999,15.8227,1424.6906],[38.5066,15.8055,1335.1371],[38.5079,15.7967,1349.4139],[38.5041,15.7862,1401.019],[38.4882,15.7678,1393.61],[38.461,15.7491,1436.6166],[38.4547,15.7416,1261.0522],[38.4388,15.7277,1150.879],[38.4036,15.6982,1399.7535],[38.3867,15.6876,1012.8847],[38.3843,15.6842,1061.0452],[38.3849,15.6785,1395.5283],[38.3963,15.672,1577.7705],[38.415,15.6716,1574.8794],[38.4223,15.6693,1631.553],[38.4255,15.6561,1623.3374],[38.4299,15.6492,1303.4426],[38.457,15.639099999999999,1006.7959],[38.4686,15.639099999999999,1432.2361],[38.4769,15.6334,1909.9026],[38.4954,15.6265,1838.5984],[38.5043,15.6196,1715.8101],[38.5081,15.6151,1577.0657],[38.5107,15.6007,1563.7046],[38.5098,15.5704,954.4169],[38.5123,15.5452,1293.8685],[38.5185,15.5499,948.067],[38.5229,15.556,928.9004],[38.5267,15.5655,947.9611],[38.5306,15.5692,963.726],[38.5411,15.5696,994.5992],[38.5548,15.5761,1160.7019],[38.5714,15.5808,1254.8325],[38.5791,15.581,1459.0592],[38.6026,15.5735,1403.7029],[38.6067,15.5742,1500.9973],[38.6096,15.5831,1378.4503],[38.6073,15.59,1540.8282],[38.6078,15.5957,1799.6134],[38.612,15.6018,2152.1245],[38.62,15.6079,2222.8818],[38.6277,15.6081,1957.2537],[38.638,15.6059,1784.2976],[38.6598,15.598,1729.9707],[38.6761,15.5992,1670.5176],[38.6871,15.6039,1657.3259],[38.6964,15.6102,1848.9348],[38.6794,15.6258,1743.2886],[38.67,15.6393,1614.6831],[38.6665,15.6499,1624.769],[38.6682,15.6533,1652.7426],[38.6744,15.6579,1936.6575],[38.6971,15.6685,1755.8311],[38.7267,15.6854,2261.0464],[38.7672,15.7005,1953.25],[38.7812,15.7118,1602.1438]]]]}
,"properties": {"GID_2": "ERI.6.3_1","GID_0": "ERI","country": "Eritrea","GID_1": "ERI.6_1","province": "Anseba","NL_NAME_1": "ዞባዓንሰባ","county": "Elabered","VARNAME_2": "NA","NL_NAME_2": "NA","TYPE_2": "District","ENGTYPE_2": "District","CC_2": "NA","HASC_2": "ER.SN.EL","name": "Elabered.county","area_km2": 674.0277,"hist_schema_id": "Elevation0-9000","hist_area_km2": {"925": 1.8791,"950": 2.3284,"975": 2.1853,"1000": 3.1449,"1025": 2.491,"1050": 2.3072,"1075": 2.3889,"1100": 2.103,"1125": 2.2052,"1150": 3.0014,"1175": 4.7364,"1200": 5.2259,"1225": 5.7162,"1250": 4.5118,"1275": 4.7365,"1300": 5.4712,"1325": 9.8777,"1350": 14.7125,"1375": 19.3648,"1400": 23.5686,"1425": 30.8951,"1450": 29.141,"1475": 28.2449,"1500": 25.6335,"1525": 24.3891,"1550": 23.7777,"1575": 24.9418,"1600": 25.7179,"1625": 23.9022,"1650": 23.8419,"1675": 23.1688,"1700": 21.8013,"1725": 21.0662,"1750": 20.6987,"1775": 17.3509,"1800": 15.6362,"1825": 14.0643,"1850": 13.7375,"1875": 12.2474,"1900": 12.7578,"1925": 11.5532,"1950": 11.1039,"1975": 10.4096,"2000": 10.5114,"2025": 8.2054,"2050": 8.0424,"2075": 7.7362,"2100": 7.2461,"2125": 6.205,"2150": 6.103,"2175": 5.4903,"2200": 4.8372,"2225": 3.4902,"2250": 3.0819,"2275": 3.5717,"2300": 2.49,"2325": 2.6532,"2350": 1.7552,"2375": 1.796,"2400": 0.898,"2425": 0.5715,"2450": 0.347,"2475": 0.3265,"2500": 0.2653,"2525": 0.102,"2550": 0.1837,"2575": 0.0816}}}