{"type": "Feature","bbox": [37.514,15.0122,37.7949,15.1966],"geometry": {"type": "MultiPolygon","coordinates": [[[[37.6879,15.0123,901.8851],[37.6992,15.0221,919.0786],[37.7284,15.0554,972.8699],[37.7377,15.0734,989.6014],[37.7517,15.0901,1061.0825],[37.762,15.0948,1047.7347],[37.7802,15.0991,1012.3603],[37.7847,15.1022,1036.8966],[37.7871,15.1063,1035.3619],[37.7822,15.1288,1306.9349],[37.7917,15.1497,1300.7878],[37.7949,15.1738,1453.1837],[37.7946,15.1825,1346.0825],[37.7927,15.1865,1424.3984],[37.7865,15.1916,1264.4172],[37.7761,15.1966,1285.9896],[37.7656,15.195,1389.5892],[37.7496,15.1893,1362.0769],[37.7262,15.1863,1240.7042],[37.7144,15.1861,1149.4495],[37.6742,15.1916,1119.4166],[37.5799,15.1876,936.0911],[37.5555,15.1884,769.7511],[37.557,15.1856,817.3231],[37.5487,15.164,905.4136],[37.5434,15.155,947.5131],[37.517,15.1211,928.13],[37.5145,15.1102,938.7684],[37.514,15.0949,964.1634],[37.515,15.0847,964.405],[37.5182,15.0756,975.0257],[37.5302,15.0579,1063.3417],[37.543,15.0452,1031.0256],[37.5522,15.0274,1011.9023],[37.5596,15.0233,997.0883],[37.5883,15.0205,1086.6539],[37.6451,15.0224,1064.1512],[37.6695,15.0183,920.5126],[37.682,15.0122,904.6298],[37.6879,15.0123,901.8851]]]]}
,"properties": {"GID_2": "ERI.4.2_1","GID_0": "ERI","country": "Eritrea","GID_1": "ERI.4_1","province": "GashBarka","NL_NAME_1": "ዞባጋሽባርካ","county": "Barentu","VARNAME_2": "NA","NL_NAME_2": "NA","TYPE_2": "District","ENGTYPE_2": "District","CC_2": "NA","HASC_2": "ER.GB.BC","name": "Barentu.county","area_km2": 462.1307,"hist_schema_id": "Elevation0-9000","hist_area_km2": {"775": 1.3915,"800": 2.8443,"825": 1.944,"850": 1.6575,"875": 1.8008,"900": 2.9887,"925": 14.8837,"950": 31.6889,"975": 38.4027,"1000": 56.2544,"1025": 70.3778,"1050": 67.1182,"1075": 50.0051,"1100": 35.8392,"1125": 23.926,"1150": 13.078,"1175": 12.5046,"1200": 10.8466,"1225": 8.1247,"1250": 5.853,"1275": 4.0111,"1300": 3.0289,"1325": 1.5963,"1350": 0.9823,"1375": 0.3274,"1400": 0.3274,"1425": 0.1842,"1450": 0.0819,"1475": 0.0614}}}