{"type": "Feature","bbox": [39.2005,14.8151,39.8463,15.5379],"geometry": {"type": "MultiPolygon","coordinates": [[[[39.5422,14.9232,1776.7206],[39.5601,14.9265,1946.2177],[39.5698,14.9233,1456.8988],[39.5726,14.9173,1509.1978],[39.5768,14.8976,1616.981],[39.5838,14.8858,1558.5425],[39.5858,14.8781,1710.3975],[39.589,14.8729,2047.4893],[39.5961,14.8714,2335.728],[39.6035,14.8724,2189.0967],[39.6203,14.8677,1924.6025],[39.625,14.8818,2105.7729],[39.6286,14.8812,1912.3418],[39.639,14.8565,1685.4631],[39.6629,14.8443,1776.4159],[39.6701,14.8383,2107.8755],[39.6695,14.8323,1821.2963],[39.6628,14.8215,1696.7864],[39.6626,14.8178,1646.9829],[39.6647,14.8151,1781.2397],[39.6796,14.8284,1576.7009],[39.6909,14.8363,1729.021],[39.6993,14.8396,1300.9175],[39.7113,14.8406,1391.7046],[39.723,14.8437,1678.7991],[39.7589,14.8668,1194.616],[39.7819,14.8749,744.8035],[39.8235,14.8962,199.5853],[39.8316,14.9061,153.5837],[39.8345,14.9124,132.2875],[39.8385,14.9354,93.0376],[39.84,14.9693,70.2575],[39.8463,14.985,58.3915],[39.8451,14.9966,49.658],[39.8426,15.0009,51.5225],[39.83,15.0077,66.0025],[39.8108,15.0147,127.6832],[39.7993,15.0243,176.2087],[39.7945,15.0359,400.7792],[39.7957,15.0483,296.8387],[39.7935,15.0648,22.9186],[39.7882,15.0651,1.1121],[39.7871,15.0679,5.3228],[39.7835,15.0688,0.0],[39.7829,15.0621,0.0],[39.7804,15.061,0.4833],[39.7674,15.0615,0.5379],[39.764,15.0646,2.262],[39.7612,15.0774,0.0],[39.7529,15.0874,0.0],[39.7343,15.0851,1.8245],[39.7262,15.0857,0.9956],[39.7146,15.0896,2.2283],[39.7113,15.094,3.9132],[39.7068,15.1118,4.2675],[39.7021,15.1176,0.8934],[39.6963,15.1204,4.6472],[39.696,15.1232,1.459],[39.6937,15.1249,1.5015],[39.6929,15.1274,2.0187],[39.696,15.1337,1.0923],[39.701,15.1601,0.4072],[39.6982,15.1718,1.07],[39.6985,15.1782,0.8374],[39.7054,15.1943,0.6111],[39.7051,15.199,1.3187],[39.7082,15.2101,0.3469],[39.7076,15.2149,0.5733],[39.7096,15.2165,0.1685],[39.7085,15.2262,0.7114],[39.7132,15.2307,0.9952],[39.716,15.2443,0.0],[39.7143,15.2615,0.0],[39.7126,15.2646,0.0],[39.7065,15.269,0.9625],[39.7051,15.2782,1.0362],[39.7038,15.2799,0.0],[39.701,15.2799,1.9526],[39.6954,15.2874,0.0],[39.6935,15.2965,0.1056],[39.6893,15.2999,0.0],[39.6874,15.304,0.3018],[39.6874,15.3104,0.2951],[39.6851,15.311,0.2577],[39.6871,15.3085,0.2169],[39.6871,15.306,0.3239],[39.6854,15.3057,1.3741],[39.6818,15.3079,1.06],[39.6815,15.306,1.6413],[39.6799,15.306,1.5923],[39.6787,15.3093,-0.159],[39.6707,15.3107,1.7952],[39.6724,15.3149,1.6792],[39.6801,15.3113,1.0259],[39.6835,15.3124,0.0],[39.6704,15.3179,0.7198],[39.6668,15.3226,0.3231],[39.6665,15.3274,0.0],[39.6613,15.3307,0.9763],[39.6587,15.3349,1.1669],[39.6551,15.351,0.1786],[39.6524,15.3565,1.0837],[39.6515,15.3687,2.3448],[39.6482,15.3771,0.4293],[39.6479,15.3921,0.0],[39.639,15.4171,2.0382],[39.636,15.4399,0.0],[39.6304,15.449,1.9145],[39.6287,15.4582,0.1669],[39.6226,15.4713,1.7682],[39.6218,15.4793,0.0],[39.6138,15.489,0.6532],[39.6146,15.4943,4.0048],[39.6007,15.5068,0.4076],[39.5982,15.5124,0.0369],[39.6004,15.5188,0.0],[39.5918,15.521,2.3505],[39.591,15.5271,0.0],[39.5815,15.5271,0.5574],[39.5743,15.5335,1.5196],[39.5651,15.5379,0.0],[39.5579,15.5362,1.4233],[39.5446,15.5379,0.0],[39.5346,15.5362,0.0],[39.5243,15.5282,1.3523],[39.5079,15.5221,0.0],[39.5029,15.5171,0.1836],[39.4963,15.5146,1.6559],[39.4874,15.5146,0.0],[39.4796,15.5179,0.0],[39.476,15.5213,0.0],[39.4689,15.511,3.963],[39.4366,15.4743,164.1547],[39.4156,15.4591,338.1246],[39.4176,15.4512,372.4372],[39.4167,15.4401,432.6894],[39.4031,15.4194,370.8008],[39.404,15.4093,404.801],[39.409,15.4037,462.916],[39.4164,15.3989,496.681],[39.4173,15.3949,511.495],[39.4155,15.3843,394.3267],[39.4101,15.381,421.7229],[39.3989,15.384,494.4174],[39.3929,15.3832,490.9178],[39.3691,15.3748,752.4995],[39.3497,15.3609,927.2464],[39.3287,15.3396,749.249],[39.3147,15.3285,996.9598],[39.2896,15.3143,1547.3262],[39.2579,15.3026,1452.7083],[39.2368,15.2884,1440.6165],[39.232,15.2841,1507.552],[39.2272,15.2765,1526.2844],[39.2262,15.2684,1399.7799],[39.2275,15.2497,1136.7405],[39.2233,15.2431,1281.4913],[39.2005,15.2313,1354.5179],[39.2112,15.2138,1493.6013],[39.2183,15.1977,1884.7704],[39.2312,15.1814,1822.0391],[39.2432,15.1735,1655.307],[39.2583,15.1733,1606.8322],[39.2648,15.1711,1633.4707],[39.2656,15.1692,1657.5797],[39.2596,15.1599,1802.6942],[39.2656,15.1563,1837.1028],[39.2619,15.1374,1747.3022],[39.2672,15.1274,1896.5204],[39.2748,15.1233,1752.652],[39.2824,15.1232,1794.3221],[39.304,15.1362,2375.3408],[39.3099,15.1368,2428.2542],[39.3149,15.135,2362.0571],[39.3195,15.1295,2387.4297],[39.3216,15.1198,2320.7573],[39.3255,15.1163,2277.0181],[39.3383,15.1109,2157.8357],[39.3568,15.0906,1712.7629],[39.3645,15.0737,1838.1616],[39.3726,15.0627,1843.4417],[39.3779,15.0591,1521.2334],[39.3992,15.0584,1464.4805],[39.4021,15.0558,1525.5388],[39.405,15.0508,1738.2473],[39.4042,15.0423,1521.957],[39.4102,15.0356,1894.5461],[39.4113,15.0259,1712.3728],[39.4141,15.0204,1789.5538],[39.4176,15.0184,1670.533],[39.4246,15.0191,1783.9266],[39.4461,15.0171,2026.2991],[39.4603,15.0107,2169.1689],[39.4699,15.0051,1728.8611],[39.4842,14.9935,1859.9639],[39.5053,14.9729,1278.1628],[39.5113,14.9648,1406.652],[39.5233,14.964,1119.3157],[39.5275,14.9608,1110.9852],[39.5299,14.9564,1247.918],[39.5384,14.9567,1309.4092],[39.5448,14.9539,1695.3555],[39.5462,14.9444,1490.4883],[39.5396,14.9266,1770.8351],[39.5396,14.9247,1861.6998],[39.5422,14.9232,1776.7206]]]]}
,"properties": {"GID_2": "ERI.2.2_1","GID_0": "ERI","country": "Eritrea","GID_1": "ERI.2_1","province": "SemenawiKeyihBahri","NL_NAME_1": "ዞባሰሜናዊቀይሕባሕሪ","county": "Foro","VARNAME_2": "NA","NL_NAME_2": "NA","TYPE_2": "District","ENGTYPE_2": "District","CC_2": "NA","HASC_2": "ER.SK.FO","name": "Foro.county","area_km2": 2693.824,"hist_schema_id": "Elevation0-9000","hist_area_km2": {"0": 120.965,"25": 145.994,"50": 99.535,"75": 129.94,"100": 91.5,"125": 77.053,"150": 62.041,"175": 58.009,"200": 58.763,"225": 69.622,"250": 55.533,"275": 47.351,"300": 42.832,"325": 36.532,"350": 34.468,"375": 30.684,"400": 30.03,"425": 28.456,"450": 28.865,"475": 27.087,"500": 28.028,"525": 27.886,"550": 27.927,"575": 25.984,"600": 25.085,"625": 24.228,"650": 22.959,"675": 23.184,"700": 23.511,"725": 24.451,"750": 23.818,"775": 22.51,"800": 20.137,"825": 19.872,"850": 20.405,"875": 20.897,"900": 20.366,"925": 21.534,"950": 22.413,"975": 21.657,"1000": 22.64,"1025": 24.094,"1050": 25.302,"1075": 24.771,"1100": 23.807,"1125": 24.994,"1150": 24.401,"1175": 26.489,"1200": 27.738,"1225": 28.66,"1250": 29.949,"1275": 28.23,"1300": 27.167,"1325": 27.904,"1350": 28.826,"1375": 29.381,"1400": 28.583,"1425": 28.522,"1450": 26.823,"1475": 26.905,"1500": 23.936,"1525": 23.977,"1550": 21.848,"1575": 20.475,"1600": 19.594,"1625": 19.553,"1650": 17.711,"1675": 19.042,"1700": 16.749,"1725": 16.748,"1750": 16.196,"1775": 14.865,"1800": 15.376,"1825": 13.697,"1850": 13.697,"1875": 13.247,"1900": 12.038,"1925": 10.871,"1950": 10.318,"1975": 10.4,"2000": 9.683,"2025": 8.659,"2050": 8.291,"2075": 7.082,"2100": 6.817,"2125": 6.264,"2150": 5.936,"2175": 5.65,"2200": 5.015,"2225": 4.217,"2250": 4.196,"2275": 2.764,"2300": 2.354,"2325": 1.945,"2350": 1.392,"2375": 1.658,"2400": 1.228,"2425": 0.758,"2450": 0.737,"2475": 0.45,"2500": 0.491,"2525": 0.266,"2550": 0.164,"2575": 0.102,"2600": 0.061}}}