{"type":"Feature","properties":{"GID_2":"ERI.6.9_1","GID_0":"ERI","country":"Eritrea","GID_1":"ERI.6_1","province":"Anseba","NL_NAME_1":"ዞባዓንሰባ","county":"KerkeBet","VARNAME_2":"NA","NL_NAME_2":"NA","TYPE_2":"District","ENGTYPE_2":"District","CC_2":"NA","HASC_2":"ER.BA.KB","name":"Kerke_Bet.county"},
"geometry":{"type": "MultiPolygon","coordinates": [[[[37.7568,16.2843,1000.913],[37.7399,16.2739,725.498],[37.7291,16.2694,860.5432],[37.6995,16.2661,644.0264],[37.6859,16.263,634.9078],[37.6579,16.2516,610.2224],[37.6397,16.2528,642.1127],[37.5875,16.2672,614.713],[37.5735,16.2751,773.4973],[37.5651,16.2857,808.9566],[37.5596,16.2973,727.043],[37.5493,16.3343,675.8901],[37.5438,16.3414,577.0295],[37.4674,16.3732,451.7076],[37.3987,16.3929,365.1085],[37.3946,16.3947,360.1993],[37.3838,16.4057,347.3103],[37.3742,16.4081,345.2297],[37.3615,16.4043,341.5869],[37.3119,16.3463,366.55],[37.2926,16.3267,369.5089],[37.2895,16.3212,371.628],[37.2866,16.3037,377.1159],[37.2842,16.2997,382.4383],[37.2731,16.2893,381.9789],[37.2081,16.2614,406.4118],[37.1866,16.2544,424.5402],[37.1715,16.2524,450.0819],[37.1679,16.2558,448.8429],[37.1624,16.2581,431.5941],[37.1525,16.2593,441.7925],[37.1426,16.2674,448.2653],[37.0932,16.2769,472.5524],[37.0797,16.2783,482.9271],[37.07,16.2773,494.1906],[37.0474,16.2708,525.4361],[37.0801,16.2332,493.4601],[37.0871,16.2285,484.3376],[37.1095,16.2194,458.7211],[37.1197,16.2135,456.3043],[37.1345,16.2023,441.3425],[37.1541,16.1916,441.1775],[37.1702,16.1804,426.9718],[37.1951,16.1609,437.9367],[37.2215,16.1351,456.064],[37.261,16.09,431.7086],[37.2737,16.0804,426.7],[37.2833,16.0762,426.6796],[37.2873,16.0727,427.9052],[37.2896,16.0693,426.7306],[37.2891,16.0638,428.454],[37.2867,16.0601,432.8704],[37.2667,16.056,439.5004],[37.26,16.0526,436.7449],[37.2573,16.0489,439.0778],[37.2592,16.043,446.7571],[37.2628,16.0387,456.768],[37.2668,16.0363,462.8999],[37.3155,16.0211,435.2238],[37.3786,15.9968,414.9999],[37.396,15.9787,418.9839],[37.4031,15.9685,423.032],[37.424,15.9291,435.1762],[37.4318,15.9177,439.8423],[37.4549,15.9043,451.8748],[37.4907,15.8877,474.0765],[37.5369,15.8741,557.4326],[37.555,15.8656,509.5143],[37.5709,15.866,510.6122],[37.6077,15.8615,538.2844],[37.6375,15.8726,571.6409],[37.6579,15.8738,570.8098],[37.6769,15.8714,717.0474],[37.6876,15.8679,633.3949],[37.7125,15.8539,677.8469],[37.7202,15.8533,610.9885],[37.7466,15.8643,623.5042],[37.765,15.8623,653.1465],[37.7858,15.8627,759.1616],[37.798,15.8579,873.5285],[37.8024,15.8538,1020.5065],[37.8073,15.853,1061.4584],[37.8153,15.8534,1024.9053],[37.8342,15.8593,991.7514],[37.8407,15.8597,788.4017],[37.8561,15.8553,698.2407],[37.8698,15.8547,756.6616],[37.8871,15.8661,766.1581],[37.8942,15.8671,826.4512],[37.9071,15.8655,848.8601],[37.9347,15.8521,896.8293],[37.9392,15.8484,920.3853],[37.9469,15.8354,937.5958],[37.96,15.8322,1059.6373],[37.9717,15.8267,1506.3746],[37.9753,15.8224,1469.3264],[37.9822,15.8412,1514.4224],[37.9873,15.8676,1781.9961],[37.9881,15.905,1630.9381],[37.9952,15.9374,1628.1824],[38.0152,15.9707,1106.5598],[38.0301,15.9882,1078.6178],[37.9905,16.0226,1143.2119],[37.986,16.0252,1009.6035],[37.9804,16.0262,897.48],[37.9725,16.0252,854.5637],[37.9674,16.0274,949.4272],[37.9557,16.04,1086.1903],[37.933,16.053,1430.9832],[37.9101,16.0725,948.9631],[37.9015,16.0839,953.0204],[37.8948,16.0967,1069.6892],[37.8857,16.1058,957.2404],[37.856,16.1247,1703.3832],[37.8429,16.1267,1150.3154],[37.8279,16.1251,1554.4783],[37.8116,16.1127,1493.5168],[37.795,16.1076,1384.0366],[37.7812,16.1065,934.9513],[37.7672,16.1116,1319.6025],[37.7621,16.1195,1468.0435],[37.7623,16.133,969.3503],[37.767,16.1592,808.59],[37.776,16.1889,1118.3696],[37.7826,16.1999,1094.3394],[37.805,16.219,1310.4457],[37.8072,16.2255,1139.2802],[37.8059,16.2355,1093.7302],[37.8007,16.2444,982.9219],[37.7791,16.2678,935.0742],[37.7568,16.2843,1000.913]]]]}}