{"type": "Feature","bbox": [37.9719,16.3186,38.5914,17.0834],"geometry": {"type": "MultiPolygon","coordinates": [[[[38.0413,16.6512,705.4531],[38.0647,16.6531,628.5112],[38.0691,16.6513,635.2803],[38.0798,16.64,683.1232],[38.0955,16.6296,790.2488],[38.1137,16.6314,910.7129],[38.1411,16.6371,1678.7656],[38.1442,16.6328,1543.7991],[38.1435,16.6252,1640.5175],[38.1533,16.6222,1637.7739],[38.1775,16.6253,1727.322],[38.1899,16.6308,1537.358],[38.1935,16.6281,1697.5337],[38.1986,16.6129,1532.9915],[38.2031,16.6064,1488.7357],[38.2156,16.6044,1535.074],[38.2239,16.5983,1212.9414],[38.2358,16.5802,911.7507],[38.2358,16.5769,905.6886],[38.2252,16.5551,841.335],[38.2245,16.5493,835.2679],[38.2331,16.5359,845.5176],[38.2269,16.5127,860.7916],[38.2232,16.4861,848.7672],[38.2259,16.4644,881.944],[38.2344,16.4369,1139.7312],[38.243,16.4276,1704.4685],[38.2569,16.4228,1972.8737],[38.2795,16.4254,1445.9675],[38.3036,16.4363,1430.0669],[38.3175,16.4353,1354.3376],[38.3254,16.433,1516.2084],[38.3383,16.425,1862.3545],[38.3408,16.4207,1817.5946],[38.3414,16.4146,1675.2411],[38.3411,16.3962,1405.5332],[38.3442,16.3909,1528.9358],[38.3539,16.3823,1515.7736],[38.3561,16.3773,1684.3685],[38.3581,16.3298,1396.7301],[38.3592,16.327,1401.9987],[38.3631,16.325,1437.1846],[38.3838,16.3197,1633.8726],[38.3985,16.32,1564.0569],[38.4044,16.3186,1595.4159],[38.4298,16.3413,1803.8326],[38.4451,16.3583,1987.5515],[38.4662,16.3719,2080.1001],[38.4808,16.3788,1715.948],[38.491,16.3887,1609.7294],[38.5315,16.4166,1457.3048],[38.562,16.4338,1339.7856],[38.5689,16.4457,971.7538],[38.5731,16.4601,983.7231],[38.5746,16.4866,1063.6904],[38.5731,16.5013,1067.5068],[38.5604,16.5369,1163.0748],[38.5557,16.5606,1217.5281],[38.5473,16.6182,1279.5945],[38.5484,16.6407,939.3081],[38.5663,16.6885,750.422],[38.5796,16.7067,995.0427],[38.5914,16.7196,856.7391],[38.5723,16.7474,1187.8301],[38.5601,16.76,1223.8693],[38.5508,16.7653,1477.9102],[38.5433,16.7741,1759.2831],[38.5465,16.8264,1644.1472],[38.5389,16.8413,1613.199],[38.5167,16.8718,1558.6404],[38.5125,16.8835,1441.8525],[38.51,16.9054,1693.0881],[38.4974,16.9299,1384.8889],[38.496,16.9365,1489.6671],[38.4951,16.9668,1648.5831],[38.5012,16.9964,1611.3063],[38.5009,17.0004,1446.0687],[38.4832,17.0408,1038.2505],[38.4613,17.0678,1306.2439],[38.4364,17.0796,1128.9255],[38.4132,17.0834,1012.2474],[38.3844,17.0798,1350.8512],[38.3227,17.0685,1646.5048],[38.2918,17.0583,1160.7251],[38.2613,17.0595,1016.499],[38.2385,17.0532,938.5018],[38.2237,17.0435,953.488],[38.2137,17.0337,819.596],[38.1821,16.9962,785.2454],[38.1524,16.9562,694.0696],[38.1464,16.935,746.2313],[38.14,16.9281,810.9844],[38.1292,16.9218,916.6973],[38.0785,16.9048,644.6314],[38.0572,16.8918,800.8448],[38.0411,16.8898,644.1754],[38.0154,16.8799,591.2549],[38.013,16.8523,606.3925],[37.993,16.8038,639.129],[37.9767,16.758,640.0933],[37.9779,16.7261,599.8577],[37.9719,16.6678,629.3651],[37.9733,16.6627,585.6445],[37.9811,16.6549,614.1683],[37.9917,16.6519,686.0878],[38.0111,16.6522,695.5743],[38.022,16.6494,626.8512],[38.0413,16.6512,705.4531]]]]}
,"properties": {"GID_2": "ERI.2.7_1","GID_0": "ERI","country": "Eritrea","GID_1": "ERI.2_1","province": "SemenawiKeyihBahri","NL_NAME_1": "ዞባሰሜናዊቀይሕባሕሪ","county": "Nakfa","VARNAME_2": "NA","NL_NAME_2": "NA","TYPE_2": "District","ENGTYPE_2": "District","CC_2": "NA","HASC_2": "ER.SK.NA","name": "Nakfa.county","area_km2": 3364.743,"hist_schema_id": "Elevation0-9000","hist_area_km2": {"550": 2.011,"575": 5.281,"600": 8.304,"625": 15.247,"650": 21.943,"675": 17.415,"700": 16.441,"725": 18.754,"750": 27.054,"775": 29.752,"800": 30.319,"825": 28.901,"850": 37.998,"875": 53.938,"900": 57.554,"925": 59.386,"950": 57.762,"975": 55.787,"1000": 57.065,"1025": 60.432,"1050": 61.994,"1075": 61.221,"1100": 65.702,"1125": 67.245,"1150": 68.809,"1175": 65.399,"1200": 63.875,"1225": 65.401,"1250": 62.721,"1275": 64.831,"1300": 64.891,"1325": 68.502,"1350": 70.616,"1375": 73.661,"1400": 67.091,"1425": 68.211,"1450": 67.83,"1475": 69.273,"1500": 65.905,"1525": 65.827,"1550": 63.779,"1575": 58.586,"1600": 57.635,"1625": 57.942,"1650": 54.005,"1675": 55.651,"1700": 55.531,"1725": 58.659,"1750": 51.41,"1775": 50.842,"1800": 48.2,"1825": 44.93,"1850": 43.386,"1875": 40.399,"1900": 37.699,"1925": 36.318,"1950": 34.205,"1975": 32.58,"2000": 30.366,"2025": 27.929,"2050": 26.325,"2075": 25.757,"2100": 25.188,"2125": 24.62,"2150": 22.387,"2175": 21.29,"2200": 21.943,"2225": 23.061,"2250": 24.588,"2275": 24.488,"2300": 23.145,"2325": 21.701,"2350": 19.973,"2375": 17.371,"2400": 19.564,"2425": 19.441,"2450": 17.165,"2475": 16.009,"2500": 14.669,"2525": 10.626,"2550": 5.425,"2575": 3.982,"2600": 2.539,"2625": 1.889,"2650": 0.995,"2675": 0.203}}}